name,field,phone,address,zip,city
ALLIANCE FOR POSITIVE CHG,Mental Health Services,212-645-0871,"MIDTOWN CENTRAL 64 W 35TH ST, NEW YORK, NY, 10001",10001,NEW YORK
BLANTON PEALE INSTITUTE,Mental Health Services,212-725-7850,"7 W 30TH ST FL 9, NEW YORK, NY, 10001",10001,NEW YORK
COMMUNITY COUNSELING& MEDICATION,Mental Health Services,212-564-6006,"115 W 31ST ST FL 5, NEW YORK, NY, 10001",10001,NEW YORK
GREENWICH HOUSE INC,"Mental Health Services, Substance Abuse Outpatient",212-691-2900,"GREENWICH HOUSE - CDP 122 W 27TH ST FL 6, NEW YORK, NY, 10001",10001,NEW YORK
SHLTERING ARMS CHILD& FAM SVCS INC,Mental Health Services,212-675-1000,"SHELTERING ARMS CFS INC 305 7TH AVE FL 2, NEW YORK, NY, 10001",10001,NEW YORK
SUN RIVER HEALTH INC,Mental Health Services,855-681-8700,"SUN RIVER HEALTH INC 347 W 37TH ST, NEW YORK, NY, 10018",10018,NEW YORK
ACMH INC,Mental Health Services,212-274-8558,"254 W 31ST ST FL 9, NEW YORK, NY, 10001",10001,NEW YORK
SHILOH CONSULTING LLC,Mental Health Services,212-564-7631,"566 FASHION AVE FL 4, NEW YORK, NY, 10018",10018,NEW YORK
JASA,Mental Health Services,646-982-8254,"247 W 37TH ST 9TH FL, NEW YORK, NY, 10018",10018,NEW YORK
NADAP INC MANHATTAN,Mental Health Services,212-986-1170,"355 LEXINGTON AVE, NEW YORK, NY, 10017",10017,NEW YORK
POSTGRADUATE CNTR FOR MENTAL HLTH,Mental Health Services,212-576-4116,"71 W 23RD ST STE 704, NEW YORK, NY, 10010",10010,NEW YORK
WEST MIDTOWN MGMNT GROUP INC,Mental Health Services,212-736-5900,"WEST MIDTOWN MEDICAL GRP 311 W 35TH ST, NEW YORK, NY, 10001",10001,NEW YORK
HOUSING WORKS,Mental Health Services,718-277-0386,"301 W 37TH ST FL 4, NEW YORK, NY, 10018",10018,NEW YORK
ALLWELL,Mental Health Services,716-826-6245,"NEW FRONTIERS IN TBI DBA 2 W 45TH ST STE 1200, NEW YORK, NY, 10036",10036,NEW YORK
GAY MEN'S HEALTH CRISIS INC,Mental Health Services,212-367-1404,"GMHC 307 W 38TH ST, NEW YORK, NY, 10018",10018,NEW YORK
CHDFS INC,Mental Health Services,212-695-4562,"CHDFS INC 307 W 38TH ST FL 6, NEW YORK, NY, 10018",10018,NEW YORK
ACKERMAN INSTITUTE FOR THE FAMILY,Mental Health Services,212-879-4900,"936 BROADWAY FL 2, NEW YORK, NY, 10010",10010,NEW YORK
FIFTH AVE CTR COUNSELING CENTER INC,Mental Health Services,212-989-2990,"5 E 17TH ST FL 2, NEW YORK, NY, 10003",10003,NEW YORK
HUDSON GUILD COUSELING SERVICE,Mental Health Services,212-760-9822,"441 W 26TH ST, NEW YORK, NY, 10001",10001,NEW YORK
JEWISH BOARD OF FAM & CHILDREN SVCS,Mental Health Services,718-246-9875,"135 W 50TH ST, NEW YORK, NY, 10020",10020,NEW YORK
COVENANT HOUSE,Mental Health Services,212-613-0315,"460 W 41ST ST, NEW YORK, NY, 10036",10036,NEW YORK
CALLEN-LORDE THEA SPYER CTR F INT H,Mental Health Services,212-271-7200,"230 W 17TH ST FL 5, NEW YORK, NY, 10011",10011,NEW YORK
THE INSTITUTE FOR FAMILY HEALTH,Mental Health Services,212-206-5200,"INSTIT FOR FAM HLTH 17 ST 230 W 17TH ST, NEW YORK, NY, 10011",10011,NEW YORK
COMMUNITY ACCESS INC,Mental Health Services,212-780-1400,"CRISIS RESPITE CTR 315 2ND AVE, NEW YORK, NY, 10003",10003,NEW YORK
COMMUNITY HEALTH PROJECT,"Mental Health Services, Mental Health Services",212-271-7280,"COMMUNITY HEALTH PROJECT 356 W 18TH ST, NEW YORK, NY, 10011",10011,NEW YORK
CALLEN LORDE,Mental Health Services,212-271-7200,"CALLEN LORDE HLTH CTR 356 W 18TH ST, NEW YORK, NY, 10011",10011,NEW YORK
FOUNTAIN HOUSE INC MANHATTAN,Mental Health Services,212-582-3155,"425 W 47TH ST, NEW YORK, NY, 10036",10036,NEW YORK
ST. MARK'S PL INST FOR MNTAL HLTH,Mental Health Services,212-982-3470,"57 SAINT MARKS PL, NEW YORK, NY, 10003",10003,NEW YORK
ST LUKE'S-ROOSEVELT PSYCHIATRIC,Mental Health Services,212-523-6881,"1000 10TH AVE, NEW YORK, NY, 10019",10019,NEW YORK
KAREN HORNEY CLINIC,Mental Health Services,212-838-4333,"329 E 62ND ST, NEW YORK, NY, 10065",10065,NEW YORK
NYSARC INC NEW YORK CHAPTER,Mental Health Services,212-803-7335,"AHRC NEW YORK CITY 200 VARICK ST, NEW YORK, NY, 10014",10014,NEW YORK
HOUSING WORKS HEALTH SVCS INC,Mental Health Services,212-677-7999,"743 E 9TH ST # 749, NEW YORK, NY, 10009",10009,NEW YORK
JGB MENTAL HEALTH SVCS,Mental Health Services,212-769-6256,"250 W 64TH ST FL 4, NEW YORK, NY, 10023",10023,NEW YORK
THE BRIDGE INC,Mental Health Services,212-979-5531,"323 E HOUSTON ST, NEW YORK, NY, 10002",10002,NEW YORK
UNIVERSITY SETTLEMENT SOCIETY OF NY,Mental Health Services,917-838-7327,"UNIV SETTLEMENT SOC OF NY 184 ELDRIDGE ST, NEW YORK, NY, 10002",10002,NEW YORK
CHARLES B WANG MENTAL HEALTH,Mental Health Services,212-379-6996,"CHARLES B WANG COMM H CTR 268 CANAL ST, NEW YORK, NY, 10013",10013,NEW YORK
REVCORE RECOVERY CTRMANHATTAN LLC,Mental Health Services,212-966-9537,"REVCORE RECOVERY CTR MANH 181 CANAL ST, NEW YORK, NY, 10013",10013,NEW YORK
CHARLES B.WANG COMM HEALTH CENTER,Mental Health Services,212-226-3888,"CHARLES B WANG COMM H CTR 125 WALKER ST FL 2, NEW YORK, NY, 10013",10013,NEW YORK
ALLIANCE FOR POSITI VE CHANGE-LESHR,Mental Health Services,212-645-0875,"LWR E SIDE HARM RDCTN CTR 25 ALLEN ST, NEW YORK, NY, 10002",10002,NEW YORK
SERVICE PROGRAM FOR OLDER PPL INC,Mental Health Services,212-787-7120,"1484 1ST AVE, NEW YORK, NY, 10075",10075,NEW YORK
COMMUNITY ASSISTANCERESOURCES CARES,Mental Health Services,212-420-1970,"CARES 465 GRAND ST, NEW YORK, NY, 10002",10002,NEW YORK
"THE FLOATING HOSPITAL , MD",Mental Health Services,718-784-2240,"THE FLOATING HOSPITAL 4140 27TH ST, LONG ISLAND CITY, NY, 11101",11101,LONG ISLAND CITY
LOWER EASTSIDE SVC CENTER INC,Mental Health Services,212-343-3520,"62 E BROADWAY, NEW YORK, NY, 10002",10002,NEW YORK
BETANCES HEALTH CNTRHENRY ST SETTLE,Mental Health Services,212-233-5033,"40 MONTGOMERY ST, NEW YORK, NY, 10002",10002,NEW YORK
HAMILTON MADISON HOUSE INC,Mental Health Services,212-720-4570,"253 SOUTH ST, NEW YORK, NY, 10002",10002,NEW YORK
FORTUNE SOCIETY INC,Mental Health Services,212-691-7554,"FORTUNE OASAS 003/004 2976 NORTHERN BLVD, LONG ISLAND CITY, NY, 11101",11101,LONG ISLAND CITY
THE FORTUNE SOCIETY,"Mental Health Services, Substance Abuse Outpatient",212-691-7554,"FORTUNE OASAS 003/004 2976 NORTHERN BLVD FL 2, LONG ISLAND CITY, NY, 11101",11101,LONG ISLAND CITY
METROPOLITAN CTR.FORMENTAL HEALTH,Mental Health Services,212-362-8755,"160 W 86TH ST, NEW YORK, NY, 10024",10024,NEW YORK
NEW YORK CITY CHILDRENS CTR,Mental Health Services,212-348-6140,"QUEE MID-CHILDHOOD CLINC 110 E 88TH ST, NEW YORK, NY, 10128",10128,NEW YORK
GODDARD RIVERSIDE COMMUNITY CTR,Mental Health Services,212-799-7171,"THE OTHER PLACE CLUBHOUSE 264 E 87TH ST, NEW YORK, NY, 10128",10128,NEW YORK
NEW YORK COUNSELING FOR CHANGE LLC,Mental Health Services,718-424-6191,"NY COUNSEL FOR CHNGE 30-46 NORTHERN BLVD, LONG ISLAND CITY, NY, 11101",11101,LONG ISLAND CITY
BRIDGING ACCESS TO CARE INC,Mental Health Services,347-505-5120,"260 BROADWAY FL 4, BROOKLYN, NY, 11211",11211,BROOKLYN
ADOLECENT HEALTH CTR,Mental Health Services,212-423-3000,"312 E 94TH ST, NEW YORK, NY, 10128",10128,NEW YORK
AMSTERDAM CENTER,Mental Health Services,212-865-4104,"690 AMSTERDAM AVE, NEW YORK, NY, 10025",10025,NEW YORK
SAMUEL FIELD YM&YWHA,Mental Health Services,718-224-0566,"SAMUEL FIELD YM&YWHA 43-31 39TH ST, SUNNYSIDE, NY, 11104",11104,SUNNYSIDE
CENTER FOR HEARING &COMMUNICATION,Mental Health Services,917-305-7702,"50 BROADWAY FL 6, NEW YORK, NY, 10004",10004,NEW YORK
MENTAL HLTH ASSOC OF NYC INC,Mental Health Services,212-786-6800,"50 BROADWAY FL 19, NEW YORK, NY, 10004",10004,NEW YORK
HAMASPIK OF KINGS COUNTY INC,Mental Health Services,718-387-8400,"HAMASPIK OF KINGS COUNTY 295 DIVISION AVE, BROOKLYN, NY, 11211",11211,BROOKLYN
MT SINAI ADULT PSYCHIATRY,Mental Health Services,212-241-7181,"1 GUSTAVE L LEVY PL, NEW YORK, NY, 10029",10029,NEW YORK
WESTERN QUEENS CONSULTATION CENTER,Mental Health Services,718-706-1663,"MENTAL HEALTH PROVIDERS W 4404 QUEENS BLVD, SUNNYSIDE, NY, 11104",11104,SUNNYSIDE
JASA GMHOS,Mental Health Services,718-922-5079,"BROOKLYN FRIENDSHIP HOUSE 202 GRAHAM AVE, BROOKLYN, NY, 11206",11206,BROOKLYN
HANAC INC,Mental Health Services,718-204-1200,"3114 30TH AVE, ASTORIA, NY, 11102",11102,ASTORIA
KINGSBORO PSYCHIATRIC CTR,Mental Health Services,718-388-3075,"WILLIAMSBURG CLINIC 10 MANHATTAN AVE, BROOKLYN, NY, 11206",11206,BROOKLYN
CABS HEALTH CENTER,Mental Health Services,718-778-0198,"94 MANHATTAN AVE # 98, BROOKLYN, NY, 11206",11206,BROOKLYN
TRI CENTER INC,Mental Health Services,212-268-8830,"175 REMSEN ST, BROOKLYN, NY, 11201",11201,BROOKLYN
BRIDGE BACK TO LIFE CENTER INC,Mental Health Services,718-852-5552,"175 REMSEN ST 10TH FL, BROOKLYN, NY, 11201",11201,BROOKLYN
LIVING POSITIVE INC BROOKLYN,Mental Health Services,929-312-6204,"147 PRINCE ST, BROOKLYN, NY, 11201",11201,BROOKLYN
LITTLE FLOWER CHLDRNAND FAMILY SVCS,Mental Health Services,781-260-8840,"44 COURT ST, BROOKLYN, NY, 11201",11201,BROOKLYN
CATHOLIC CHARITIES NBHD SRV INC,Mental Health Services,718-722-6000,"HEADQUARTERS 191 JORALEMON ST, BROOKLYN, NY, 11201",11201,BROOKLYN
NORTHSIDE CTR FOR CHILD DEVELOPMT,Mental Health Services,212-426-3400,"35 EAST 110TH ST, NEW YORK, NY, 10029",10029,NEW YORK
THE BRIDGE INC.,Mental Health Services,212-663-3000,"248 W 108TH ST, NEW YORK, NY, 10025",10025,NEW YORK
NORTHSIDE CENTER FORCHILD DEVELOPMT,Mental Health Services,212-426-3404,"1301 5TH AVE, NEW YORK, NY, 10029",10029,NEW YORK
HOUSING WORKS INC,Mental Health Services,347-473-7400,"57 WILLOUGHBY ST FL 2, BROOKLYN, NY, 11201",11201,BROOKLYN
WEST VILLAGE HEALTH CENTER,Mental Health Services,718-907-6230,"57 WILLOUGHBY ST, BROOKLYN, NY, 11201",11201,BROOKLYN
HOUSING WORKS HEALTHSERVICES 11,Mental Health Services,347-473-7400,"57 WILLOUGHBY ST BSMT, BROOKLYN, NY, 11201",11201,BROOKLYN
SAFE HORIZON INC,Mental Health Services,347-328-8110,"SAFE HORIZON COUNSELING 50 COURT ST STE 901, BROOKLYN, NY, 11201",11201,BROOKLYN
UPPER MANHATTAN MNTLHLTH CTR,Mental Health Services,212-348-4660,"2009 3RD AVE, NEW YORK, NY, 10029",10029,NEW YORK
CREATE INC,Mental Health Services,212-663-1596,"121 W 111TH ST # 123, NEW YORK, NY, 10026",10026,NEW YORK
CTR FOR ALT SENTENCING,Mental Health Services,212-553-6300,"CASES 151 LAWRENCE ST FL 3, BROOKLYN, NY, 11201",11201,BROOKLYN
PUERTO RICAN FAMILY INSTITUTE INC,Mental Health Services,718-963-4430,"BROOKLYN MHC 28 DEBEVOISE ST FL 5, BROOKLYN, NY, 11206",11206,BROOKLYN
ST VINCENTS SVCS,Mental Health Services,718-522-6011,"66 BOERUM PL, BROOKLYN, NY, 11201",11201,BROOKLYN
ST VINCENTS SERVICES,Mental Health Services,718-522-6011,"ST VINCENTS SVCS 66 BOERUM PL, BROOKLYN, NY, 11201",11201,BROOKLYN
COMM COUNSELING AND MEDIATION INC,Mental Health Services,718-802-0666,"YOUTH AND FAMILY CON CTR 25 ELM PL FL 2, BROOKLYN, NY, 11201",11201,BROOKLYN
JAMES WELDON JOHNSONCOUNSEL CTR,Mental Health Services,212-828-6144,"2089 3RD AVE, NEW YORK, NY, 10029",10029,NEW YORK
HTS HILL MENT HLTH SERV COMM ADV BD,Mental Health Services,718-852-5217,"RAINBOW HEIGHTS CLUB 25 ELM PLACE 6TH FL, BROOKLYN, NY, 11201",11201,BROOKLYN
GOODWILL INDUST OF GREATER NY & NJ,Mental Health Services,718-371-7280,"25 ELM PLACE 3RD FL, BROOKLYN, NY, 11201",11201,BROOKLYN
ASSOCIATION TO BENEFIT CHLDRN,Mental Health Services,212-845-3863,"158 E 115TH ST FL 1, NEW YORK, NY, 10029",10029,NEW YORK
INTERBOROUGH DEVE. & CONSULT CTR,Mental Health Services,718-388-5176,"790 BROADWAY, BROOKLYN, NY, 11206",11206,BROOKLYN
ST LUKES-ROOSEVELT PSYCHIATRIC ASSO,Mental Health Services,212-523-5643,"1090 AMSTERDAM AVE, NEW YORK, NY, 10025",10025,NEW YORK
CARE COUNSELING CENTER LLC,"Mental Health Services, Substance Abuse Outpatient",212-602-1400,"214 W 116TH ST, NEW YORK, NY, 10026",10026,NEW YORK
SOUTH BEACH PSYCHIATRIC CENTER,Mental Health Services,718-875-1420,"HEIGHTS HILL CLINIC 25 FLATBUSH AVE FL 3, BROOKLYN, NY, 11217",11217,BROOKLYN
INSTITUTE FOR COMMUNITY LIVING INC,Mental Health Services,888-425-0501,"50 NEVINS ST, BROOKLYN, NY, 11217",11217,BROOKLYN
SAMARITAN DAYTOP VILLAGE INC,Mental Health Services,718-206-2000,"988 MYRTLE AVE, BROOKLYN, NY, 11206",11206,BROOKLYN
BROOKLYN PLAZA,Mental Health Services,718-596-9800,"650 FULTON ST, BROOKLYN, NY, 11217",11217,BROOKLYN
SPANISH SPEAKING ELDERLY COUNCIL,Mental Health Services,718-222-1518,"460 ATLANTIC AVE FL 1, BROOKLYN, NY, 11217",11217,BROOKLYN
AIDS CTR OF QUEENS COUNTY INC,Mental Health Services,718-896-2500,"6207 WOODSIDE AVE, WOODSIDE, NY, 11377",11377,WOODSIDE
WESTERN QUEENS CONSULT CTR,Mental Health Services,718-898-5085,"6207 WOODSIDE AVE STE 4, WOODSIDE, NY, 11377",11377,WOODSIDE
GRAHAM WINDHAM,Mental Health Services,212-529-6445,"540 ATLANTIC AVE, BROOKLYN, NY, 11217",11217,BROOKLYN
BAILEY HOUSE BEHAVIORAL CTR,Mental Health Services,212-289-6008,"1751 PARK AVE, NEW YORK, NY, 10035",10035,NEW YORK
HARLEM EAST LIFE PLAN,Mental Health Services,212-876-2300,"236769 SECOND AVENUE, NEW YORK, NY, 10035",10035,NEW YORK
SUS MENTAL HEALTH PROGRAMS INC,Mental Health Services,347-505-0160,"186 E 123RD ST, NEW YORK, NY, 10035",10035,NEW YORK
EAST HARLEM COUNCIL FOR HUMAN SRVS,Mental Health Services,212-289-6650,"2265 3RD AVE, NEW YORK, NY, 10035",10035,NEW YORK
START TRTMNT & RCVRYCTR TEEN START,Mental Health Services,212-222-2069,"119 W 124TH ST, NEW YORK, NY, 10027",10027,NEW YORK
HARLEM UNITED COMMUNAIDS CNTR INC,Mental Health Services,212-289-2378,"290 LENOX AVE BSMT, NEW YORK, NY, 10027",10027,NEW YORK
NY FOUNDLING MENTAL HEALTH CLINIC,Mental Health Services,917-485-7280,"2090 ADM CLYTN PWLLJRBLVD, NEW YORK, NY, 10027",10027,NEW YORK
THE CHILD CENTER OF NY INC,"Mental Health Services, Alcohol Treatment Program",718-458-4243,"6714 41ST AVE, WOODSIDE, NY, 11377",11377,WOODSIDE
MANHATTAN PSYCHIATRIC CTR,Mental Health Services,212-961-8700,"MANH PC 125TH ST CLINIC 163 W 125TH ST, NEW YORK, NY, 10027",10027,NEW YORK
"FEDCAP REHAB SERVICES, INC",Mental Health Services,212-727-4360,"104 E 126TH ST STE 4C, NEW YORK, NY, 10035",10035,NEW YORK
NY HARM REDUCTION EDUCATORS INC,Mental Health Services,718-842-6050,"104-106 E 126TH ST STE 1A, NEW YORK, NY, 10035",10035,NEW YORK
CITICARE INC,Mental Health Services,718-589-2440,"154 W 127TH ST, NEW YORK, NY, 10027",10027,NEW YORK
QUEENS NEUROPSYCHIATRIC INSTITUTE,Mental Health Services,718-335-3434,"3764 72ND ST, JACKSON HEIGHTS, NY, 11372",11372,JACKSON HEIGHTS
LEXINGTON CTR FOR MENTAL HEALTH SER,Mental Health Services,718-350-3148,"2502 75TH ST, EAST ELMHURST, NY, 11370",11370,EAST ELMHURST
BRKLYN CENTER FOR PSYCOTHERAPY INC,Mental Health Services,718-622-2000,"300 FLATBUSH AVE, BROOKLYN, NY, 11217",11217,BROOKLYN
BKLYN CTR FOR PSYCHOTHERAPY,Mental Health Services,718-622-2000,"300 FLATBUSH AVE, BROOKLYN, NY, 11217",11217,BROOKLYN
CREEDMOOR PSYCHIATRIC CTR,Mental Health Services,718-726-5953,"STEINWAY COMMUNITY SVCS 3811 BROADWAY FL 3, ASTORIA, NY, 11103",11103,ASTORIA
AFTER HOURS PROJECT INC,Mental Health Services,718-249-0755,"1204 BROADWAY, BROOKLYN, NY, 11221",11221,BROOKLYN
UPPER ROOM AIDS MINISTRY INC,Mental Health Services,646-762-4950,"169 W 133RD ST, NEW YORK, NY, 10030",10030,NEW YORK
THE FAMILY CENTER INC,Mental Health Services,718-230-1379,"THE FAMILY CENTER INC 493 NOSTRAND AVE STE 3, BROOKLYN, NY, 11216",11216,BROOKLYN
REWARDING ENVIRON FOR ADLT LIVING,Mental Health Services,516-563-0449,"2417 3RD AVE RM 602, BRONX, NY, 10451",10451,BRONX
COALITION FOR HISP FAMILY SERVICES,Mental Health Services,718-497-6090,"315 WYCKOFF AVE, BROOKLYN, NY, 11237",11237,BROOKLYN
SCO FAMILY OF SERVICES,Mental Health Services,718-312-6829,"1360 FULTON ST, BROOKLYN, NY, 11216",11216,BROOKLYN
CHILDREN OF PROMISE NYC,Mental Health Services,718-483-9290,"54 MACDONOUGH ST, BROOKLYN, NY, 11216",11216,BROOKLYN
PROMESA INC,Mental Health Services,718-780-7421,"BROOKLYN CDOP & METHADONE 561 COURT ST 4TH FL, BROOKLYN, NY, 11231",11231,BROOKLYN
NY PSYCHOTHERAPY ANDCOUNSELING CTR,Mental Health Services,718-478-2900,"QUEE ADULT H CLINIC TREAT 80-20 45TH AVE, QUEEN, NY, 11373",11373,QUEEN
BETANCES HEALTH CNTR BUSHWICK,Mental Health Services,347-390-8701,"BHC- BUSHWICK 1427 BROADWAY, BROOKLYN, NY, 11221",11221,BROOKLYN
OUTREACH DEVELOPMENT CORPORATION,Mental Health Services,718-456-7820,"OUTREACH HOUSE 1 1614 WEIRFIELD ST, RIDGEWOOD, NY, 11385",11385,RIDGEWOOD
THE CHILD CENTER OF NY,Mental Health Services,718-899-9810,"ASIAN OUTREACH PROGRAM 8114 QUEENS BLVD, ELMHURST, NY, 11373",11373,ELMHURST
E&A MEDICAL SOLUTIONS LLC,Mental Health Services,646-979-9050,"253 E 142ND ST, BRONX, NY, 10451",10451,BRONX
BOOM!HEALTH,Mental Health Services,718-292-7718,"BOOM!HEATH CENTRAL OFFICE 226 E 144TH ST, BRONX, NY, 10451",10451,BRONX
NORTH CROWN HTS FAM OUTREACH CTR,Mental Health Services,718-230-8600,"763 NOSTRAND AVE # 1, BROOKLYN, NY, 11216",11216,BROOKLYN
FOUNTAIN HOUSE INC BRONX,Mental Health Services,212-528-9869,"564 WALTON AVE, BRONX, NY, 10451",10451,BRONX
SAMARITAN DAYTOP VIL LAGE INC,Mental Health Services,718-565-2456,"2780 3RD AVE, BRONX, NY, 10455",10455,BRONX
PARK SLOPE CTR FOR MENTAL HEALTH,Mental Health Services,718-788-2461,"348 13TH ST STE 203-204, BROOKLYN, NY, 11215",11215,BROOKLYN
CATHOLIC CHARITIES NBHD SVCS INC,Mental Health Services,718-779-1600,"CATHOLIC CHARITIES NBHD 9114 37TH AVE, JACKSON HEIGHTS, NY, 11372",11372,JACKSON HEIGHTS
FAMILIES ON THE MOVEOF NYC INC,Mental Health Services,347-682-4870,"595 GERARD AVE, BRONX, NY, 10451",10451,BRONX
CARDINAL MCCLOSKEY COMMUNITY SERVIC,Mental Health Services,718-993-7700,"CARDINAL MCCLOSKEY CM SVC 529 COURTLANDT AVE, BRONX, NY, 10451",10451,BRONX
LA CASA DE SALUD INC,Mental Health Services,718-665-4300,"324 E 149TH ST, BRONX, NY, 10451",10451,BRONX
ATHENAPSYCH LLC,Mental Health Services,718-520-8000,"2825 THIRD AVE STE 402, BRONX, NY, 10455",10455,BRONX
BENDEL YOUTH EMPOWERMENT PROG INC,Mental Health Services,914-434-2078,"BENDEL YOUTH EMPR PROGAN4 384 E 149TH ST STE 527, BRONX, NY, 10455",10455,BRONX
SOUTH BROOKLYN MED ADMIN SVCS INC,Mental Health Services,718-788-2594,"685 3RD AVE, BROOKLYN, NY, 11232",11232,BROOKLYN
METROPOLITAN FAMILY SVC INC,Mental Health Services,718-858-7234,"1958 FULTON ST, BROOKLYN, NY, 11233",11233,BROOKLYN
FAMILY SERVICES NETWORK OF NY,Mental Health Services,347-770-9911,"1420 BUSHWICK AVE FL 3, BROOKLYN, NY, 11207",11207,BROOKLYN
NY PSYCHOTHERAPY & COUNSELING CTR,Mental Health Services,718-602-1000,"BUSHWICK C&F MH CENTER 102 PILLING ST, BROOKLYN, NY, 11207",11207,BROOKLYN
VISITING NURSE SERVICE OF NEW YORK,Mental Health Services,718-742-7000,"FRIENDS CLINIC 489 E 153RD ST # 493, BRONX, NY, 10455",10455,BRONX
CATHOLIC CHARITIES NEIGHBORHOOD SER,Mental Health Services,718-456-7001,"CATHOLIC CHARITIES NEIGHB 6729 MYRTLE AVE, GLENDALE, NY, 11385",11385,GLENDALE
LONG ISLAND CONSULT CTR INC,Mental Health Services,718-896-3400,"9131 QUEENS BLVD STE 222, ELMHURST, NY, 11373",11373,ELMHURST
GOOD SHEPHERD SERVICES,Mental Health Services,212-243-7070,"269 PROSPECT PARK W, BROOKLYN, NY, 11215",11215,BROOKLYN
NEW HORIZON COUNSELING CENTER INC,Mental Health Services,718-898-6471,"10030 DITMARS BLVD, EAST ELMHURST, NY, 11369",11369,EAST ELMHURST
"CONCERN FOR INDEPENDENT LIVING, INC",Mental Health Services,347-381-4266,"CONCERN MACDOUGAL 330 MACDOUGAL ST, BROOKLYN, NY, 11233",11233,BROOKLYN
BEVERLEY MACK HARRY CONSULTING SVC,Mental Health Services,718-363-0100,"738 CROWN ST, BROOKLYN, NY, 11213",11213,BROOKLYN
EPRINE COMMUNITY SERVICES INC,Mental Health Services,607-323-0771,"EPRINE 1650 EASTERN PKWY STE 401, BROOKLYN, NY, 11233",11233,BROOKLYN
SUCCESS COUNSELING SERVICES INC,Mental Health Services,718-538-6112,"1015 OGDEN AVE, BRONX, NY, 10452",10452,BRONX
UNIVERSITY CONSULTATION CTR,Mental Health Services,718-293-8400,"1020 GRAND CONCOURSE, BRONX, NY, 10451",10451,BRONX
COMM ASSOC OF PROGR SSIVE DOMINICAN,Mental Health Services,212-781-5500,"3940 BROADWAY FL 2, NEW YORK, NY, 10032",10032,NEW YORK
NEW YORK PSYCHIATRIC INSTITUTE,Mental Health Services,212-928-8300,"NEW YORK PSYCHIATRIC INST 513 W 166TH ST FL 4, NEW YORK, NY, 10032",10032,NEW YORK
THE CHILDREN'S AID SOCIETY,Mental Health Services,212-923-1495,"MIRABAL SCHOOL BASED HC 21 JUMEL PL, NEW YORK, NY, 10032",10032,NEW YORK
BASICS INC,Mental Health Services,646-224-9300,"915 WESTCHESTER AVE, BRONX, NY, 10459",10459,BRONX
LA CASA DE SALUD IN,Mental Health Services,718-842-1412,"966 PROSPECT AVE, BRONX, NY, 10459",10459,BRONX
ASTOR SVCS FOR CHILDREN & FAMILIES,Mental Health Services,718-231-3400,"ASTOR AT 09X361 HG 200 W 167TH ST, BRONX, NY, 10452",10452,BRONX
BROOKLYN COMMUNITY SERVICES,Mental Health Services,718-235-5780,"2697 ATLANTIC AVE, BROOKLYN, NY, 11217",11217,BROOKLYN
JBFCS BROWNSVILLE CHLD DEVEL CTR,"Mental Health Services, Substance Abuse Outpatient",844-663-2255,"255 E 98TH ST, BROOKLYN, NY, 11212",11212,BROOKLYN
BROWNSVILLE MEDICAL CENTER,Mental Health Services,718-345-5000,"592 ROCKAWAY AVE, BROOKLYN, NY, 11212",11212,BROOKLYN
COMMUNITY HEALTHCARENETWORK,Mental Health Services,718-991-9250,"975 WESTCHESTER AVE, BRONX, NY, 10459",10459,BRONX
URBAN HORIZONS FAMILY HEALTH CENTER,Mental Health Services,718-293-3900,"50 E 168TH ST # 98, BRONX, NY, 10452",10452,BRONX
HAITIAN CENTERS COUNCIL INC,Mental Health Services,718-940-2200,"HAITIAN CTRS COUNCIL INC 3807 CHURCH AVE # 3809, BROOKLYN, NY, 11203",11203,BROOKLYN
METROPOLITAN COMMUNITY SERVICES,Mental Health Services,718-704-0200,"METROPOLITAN COMMUNITY SE 1049 38TH ST, BROOKLYN, NY, 11219",11219,BROOKLYN
HUMAN CARE SVCS FOR FAM&CHILDRENINC,Mental Health Services,718-854-2747,"HCS NYC 1042 38TH ST, BROOKLYN, NY, 11219",11219,BROOKLYN
ASTOR SERVICES FOR CHILD & FAM,Mental Health Services,845-452-6077,"ASTOR HIGHBRIDGE CLINIC 1419 SHAKESPEARE AVEOFC1, BRONX, NY, 10452",10452,BRONX
MERCYFIRST,Mental Health Services,718-469-0360,"MCAULEY MOTHER BABY CARE 4416 SNYDER AVE, BROOKLYN, NY, 11203",11203,BROOKLYN
BLEULER PSYCHOTHERAPY CENTER INC,Mental Health Services,718-275-6010,"10470 QUEENS BLVD STE 200, FOREST HILLS, NY, 11375",11375,FOREST HILLS
BLEULER PSYCHOTHERAPY CENTER,Mental Health Services,718-275-6010,"10470 QUEENS BLVD STE 200, FOREST HILLS, NY, 11375",11375,FOREST HILLS
EZRA MEDICAL CENTER,Mental Health Services,718-686-7600,"1312 38TH ST, BROOKLYN, NY, 11218",11218,BROOKLYN
INTEGRITY CARE SERVICES INC,Mental Health Services,718-854-1800,"1426 39TH ST, BROOKLYN, NY, 11218",11218,BROOKLYN
THE CHILD CENTER OF NEW YORK,Mental Health Services,718-651-7770,"6735 112TH ST, FOREST HILLS, NY, 11375",11375,FOREST HILLS
DR BETTY SHABAZZ HEALTH CENTER,Mental Health Services,718-277-8303,"999 BLAKE AVE, BROOKLYN, NY, 11208",11208,BROOKLYN
JEWISH ASSOC FOR SRVFOR THE AGED,Mental Health Services,718-365-4044,"1490 SOUTHERN BLVD, BRONX, NY, 10460",10460,BRONX
ARISTA CENTER,Mental Health Services,718-793-3133,"11020 71ST RD, FOREST HILLS, NY, 11375",11375,FOREST HILLS
ABBOTT HOUSE,Mental Health Services,718-329-4968,"ABBOTT HOUSE 1775 GRAND CONCOURSE, BRONX, NY, 10453",10453,BRONX
MOUNT HOPE FAMILY PRACTICE,Mental Health Services,718-583-9000,"130 W TREMONT AVE, BRONX, NY, 10453",10453,BRONX
ADVANCED HUMAN SERVICES INC,Mental Health Services,718-261-3437,"11215 72ND RD STE LL1, FOREST HILLS, NY, 11375",11375,FOREST HILLS
FEDERATION OF ORGANIZATIONS,Mental Health Services,718-850-7099,"FED OF ORGANIZATION 10501 101ST AVE, OZONE PARK, NY, 11416",11416,OZONE PARK
MEDEX DIAGNOSTIC & TREATMENT CTR,Mental Health Services,718-275-8900,"111-29 QUEENS BLVD, FOREST HILLS, NY, 11375",11375,FOREST HILLS
BROOKLYN CTR FOR FAMILIES IN CRISIS,Mental Health Services,718-282-0010,"1309 FOSTER AVE # 1311, BROOKLYN, NY, 11230",11230,BROOKLYN
PSCH INC,Mental Health Services,347-542-5658,"DBA WELLLIFE NETWORK 35 BAY RIDGE AVE, BROOKLYN, NY, 11220",11220,BROOKLYN
WALTON FAMILY HEALTH CENTER,Mental Health Services,718-583-3060,"1894 WALTON AVE, BRONX, NY, 10453",10453,BRONX
OHEL CHILDRENS HOME AND FAMILY,Mental Health Services,718-686-3400,"6023 FORT HAMILTON PKWY, BROOKLYN, NY, 11219",11219,BROOKLYN
PESACH TIKVAH HOPE DEVLOPMENT,Mental Health Services,718-875-6900,"PESACH TIKVAH HOPE DEVELO 18 MIDDLETON ST, BROOKLYN, NY, 11206",11206,BROOKLYN
PREMIUM HEALTH INC,Mental Health Services,718-407-7300,"620 FOSTER AVE FL 2, BROOKLYN, NY, 11230",11230,BROOKLYN
PREMIUM HEALTH CTR,Mental Health Services,718-407-7300,"PREMIUM HELATH CENTER 5506 15TH AVE, BROOKLYN, NY, 11219",11219,BROOKLYN
TH CENTER H METRO COMMUNITY HEAL,Mental Health Services,718-665-7565,"979 CROSS BRONX EXPY, BRONX, NY, 10460",10460,BRONX
ODYSSEY HOUSE INC,Mental Health Services,212-361-1694,"OH ROCS RECOVERY CTR 2038 DAVIDSON AVE, BRONX, NY, 10453",10453,BRONX
MORRIS HEIGHTS HLTH CTR MENT HLTH,Mental Health Services,718-839-8900,"MENTAL HEALTH 25 E 183RD ST, BRONX, NY, 10453",10453,BRONX
MORRIS HEIGHTS HEALTH CTR INC,Mental Health Services,718-839-8900,"MHHC HARRISON CIRCLE 57 W BURNSIDE AVE # 69, BRONX, NY, 10453",10453,BRONX
THE CHILD CENTER OF NEWYORK,Mental Health Services,718-358-8285,"THE CHILD CENTER OF NY 14015B SANFORD AVE, FLUSHING, NY, 11355",11355,FLUSHING
JEWISH CHILD CARE ASSOCIATION,Mental Health Services,347-293-4100,"858 E 29TH ST, BROOKLYN, NY, 11210",11210,BROOKLYN
ROAD 2 RECOVERY,Mental Health Services,516-408-8849,"BCA 1012 AVENUE I, BROOKLYN, NY, 11230",11230,BROOKLYN
HAND IN HAND FAMILY SERVICES LTD,Mental Health Services,718-336-6073,"1527 60 ST, BROOKLYN, NY, 11219",11219,BROOKLYN
THE RESOURCE TRAINING CENTER,Mental Health Services,718-833-3320,"408 77TH ST, BROOKLYN, NY, 11209",11209,BROOKLYN
WELLLIFE NETWORK INC,Mental Health Services,347-886-7321,"WELL LIFE NETWORK 507 BEACH 64TH ST, FAR ROCKAWAY, NY, 11692",11692,FAR ROCKAWAY
COMM HEALTH ACTION OF STAT ISLAND,Mental Health Services,718-808-1300,"166 RICHMOND TER, STATEN ISLAND, NY, 10301",10301,STATEN ISLAND
FEDERATION OF ORG.,Mental Health Services,718-215-1952,"FED OF ORG FORENSIC ACT 11606 MYRTLE AVE, RICHMOND HILL, NY, 11418",11418,RICHMOND HILL
BERKSHIRE FARM CTR SVCS FOR YOUTH,Mental Health Services,718-220-4247,"POWER PROJECT 4419 3RD AVE STE 3C, BRONX, NY, 10457",10457,BRONX
URBAN HEALTH PLAN INC,Mental Health Services,718-364-7700,"VIDA GUIDANCE CENTER 4419 3RD AVE, BRONX, NY, 10457",10457,BRONX
RISING GROUND,Mental Health Services,718-438-7938,"BROWNELL 450 CASTLE HILL AVE, BRONX, NY, 10473",10473,BRONX
THE YALDEINU SCHOOL,Mental Health Services,718-851-0123,"1600 63RD ST, BROOKLYN, NY, 11204",11204,BROOKLYN
INWOOD COMMUNITY SVC INC,"Mental Health Services, Substance Abuse Outpatient",212-942-0043,"651 ACADEMY ST, NEW YORK, NY, 10034",10034,NEW YORK
CATHOLIC GAURDIAN SERVICES,Mental Health Services,718-792-9937,"CATHOLIC GUARDIAN SVCS 1990 WESTCHESTER AVE, BRONX, NY, 10462",10462,BRONX
PROJECT HOSPITALITY WELLNESS CTR,Mental Health Services,718-273-8409,"THE WELLNESS CENTER 14 SLOSSON TER, STATEN ISLAND, NY, 10301",10301,STATEN ISLAND
THE CHILD CTR OF NYCINC,Mental Health Services,718-651-7770,"14726 25TH DR RM G1G, FLUSHING, NY, 11354",11354,FLUSHING
RICHMOND UNIVERSITY MEDICAL CENTER,Mental Health Services,718-720-6727,"STATEN ISLAND MENTAL HLTH 444 SAINT MARKS PL, STATEN ISLAND, NY, 10301",10301,STATEN ISLAND
STATEN ISLAND MENTALHEALTH SOCIETY,Mental Health Services,718-720-6727,"444 SAINT MARKS PL, STATEN ISLAND, NY, 10301",10301,STATEN ISLAND
NEIGHBORHOOD COUNSELING CENTER,"Mental Health Services, Substance Abuse Outpatient",718-232-1351,"7701 13TH AVE, BROOKLYN, NY, 11228",11228,BROOKLYN
SHELTERING ARMS CHILDREN & FAMILY S,Mental Health Services,718-847-1500,"SHELTERING ARMS CHILDREN 10714 LIBERTY AVE FL 2, OZONE PARK, NY, 11417",11417,OZONE PARK
GERIATRIC MENTAL HE ALT SERVICES,Mental Health Services,718-365-4044,"1 FORDHAM PLZ RM 908, BRONX, NY, 10458",10458,BRONX
SAINT DOMINIC'S FAMILY SERVICES,Mental Health Services,845-359-3400,"SAINT DOMINIC'S FAM SVCS 1 FORDHAM PLZ RM 901, BRONX, NY, 10458",10458,BRONX
KCS MENTAL HEALTH CLINIC,Mental Health Services,718-366-9540,"4216 162ND ST APT 2, FLUSHING, NY, 11358",11358,FLUSHING
NEW HORIZON COUNSELING CENTER,Mental Health Services,718-738-6800,"15628 CROSSBAY BLVD, HOWARD BEACH, NY, 11414",11414,HOWARD BEACH
VISING NURSES SERVICE OF NEW YORK,Mental Health Services,212-609-4105,"VNSNY BROOKLYN REG OFFICE 1630 E 15TH ST, BROOKLYN, NY, 11229",11229,BROOKLYN
SOUTH BEACH PSYCHIATRIC CTR,Mental Health Services,718-234-2144,"BENSONHURST ACT 8620 18TH AVE FL 1, BROOKLYN, NY, 11214",11214,BROOKLYN
TRANSITIONAL SVCS FOR NY,Mental Health Services,718-526-8400,"9027 SUTPHIN BLVD STE 5, JAMAICA, NY, 11435",11435,JAMAICA
VENTURE HOUSE INC,Mental Health Services,718-658-7201,"15010 HILLSIDE AVE, JAMAICA, NY, 11432",11432,JAMAICA
PROJECT HOSPITALITY,Mental Health Services,718-447-3296,"PREP 75 VANDERBILT AVE, STATEN ISLAND, NY, 10304",10304,STATEN ISLAND
SILVER LAKE COUNSELING SERVICES,Mental Health Services,718-815-3155,"SILVER LAKE COUNSEL SERV 201 FOREST AVE, STATEN ISLAND, NY, 10301",10301,STATEN ISLAND
JBFCS INC,Mental Health Services,844-663-2255,"750 ASTOR AVE, BRONX, NY, 10467",10467,BRONX
SEPHAROIC BIKUR HOLIM,Mental Health Services,718-787-1600,"DBA SBH COMM SVC NETWORK 1955 MCDONALD AVE, BROOKLYN, NY, 11223",11223,BROOKLYN
COMMUNITY HEALTHCARENETWORK INC,Mental Health Services,718-657-7088,"9704 SUTPHIN BLVD, JAMAICA, NY, 11435",11435,JAMAICA
RIVERDALE MH ASSOCIATE/MOSAIC,Mental Health Services,718-884-2900,"RMHA PARACHUTE 640 W 232ND ST, BRONX, NY, 10463",10463,BRONX
YMCA COUNSELING SVC,Mental Health Services,718-981-4382,"285 VANDERBILT AVE, STATEN ISLAND, NY, 10304",10304,STATEN ISLAND
BRONX PSYCHIATRIC CTR,Mental Health Services,718-944-7142,"ACT TEAM 3050 WHITE PLAINS RD FL 2, BRONX, NY, 10467",10467,BRONX
SAFE FOUNDATION INC,Mental Health Services,866-869-7233,"255 AVENUE W, BROOKLYN, NY, 11223",11223,BROOKLYN
ADVANCED CENTER FOR PSYCHOTHERAPY,Mental Health Services,718-658-1123,"17810 WEXFORD TER, JAMAICA, NY, 11432",11432,JAMAICA
COMM HLTH CENTER OF RICHMOND,Mental Health Services,718-876-1732,"235 PORT RICHMOND AVE, STATEN ISLAND, NY, 10302",10302,STATEN ISLAND
CAMELOT COUNSEL CTR S I NY INC,Mental Health Services,718-981-8117,"1268 FOREST AVE, STATEN ISLAND, NY, 10302",10302,STATEN ISLAND
JASA GERIATRIC MENTAL HEALTH,Mental Health Services,718-365-4044,"BRONX ARLINGTON GMHOS 5625 ARLINGTON AVE, BRONX, NY, 10471",10471,BRONX
PERSON CENTERED CARESERVICES,Mental Health Services,718-370-1088,"PEARSON CENTERED CARE SVC 150 GRANITE AVE, STATEN ISLAND, NY, 10303",10303,STATEN ISLAND
RIVERDALE MENTAL HE ALTH ASSOC,Mental Health Services,718-796-5300,"5676 RIVERDALE AVE, BRONX, NY, 10471",10471,BRONX
RIVERDALE MENTAL HEALTH CL,Mental Health Services,718-796-5300,"5676 RIVERDALE AVE, BRONX, NY, 10471",10471,BRONX
RIVERDALE MH ASSOC,Mental Health Services,718-796-5300,"5676 RIVERDALE AVE, BRONX, NY, 10471",10471,BRONX
SHELTERING ARMS CHILDREN FAM SVC INC,Mental Health Services,718-206-3440,"13325 GUY R BREWER BLV 75, JAMAICA, NY, 11434",11434,JAMAICA
THE JEWISH BD OF FAM& CHILD SVCS,Mental Health Services,718-370-2975,"STAT IS CHILD COMM RESID 19 VEDDER AVE, STATEN ISLAND, NY, 10314",10314,STATEN ISLAND
BEACON CHRISTAN COMMUNITY,Mental Health Services,718-815-6570,"2079 FOREST AVE, STATEN ISLAND, NY, 10303",10303,STATEN ISLAND
WESTCHESTER JEWISH COMM SERVIC INC,Mental Health Services,914-423-4433,"YONKERS FAM MENTAL HLTH 487 S BROADWAY, YONKERS, NY, 10705",10705,YONKERS
WESTCHESTER JEWISH COMMUNITY SRVCS,Mental Health Services,914-423-4433,"WJCS SATELLITE CL AT HRHC 503 S BROADWAY, YONKERS, NY, 10705",10705,YONKERS
NYS OASAS SOUTH BEACH ATC,"Mental Health Residential, Mental Health Services",718-667-2551,"777 SEAVIEW AVE, STATEN ISLAND, NY, 10305",10305,STATEN ISLAND
SIUH OUTPATIENT MENTAL HEALTH,Mental Health Services,718-226-8910,"450 SEAVIEW AVE, STATEN ISLAND, NY, 10305",10305,STATEN ISLAND
GATEWAY COUNSELING CENTER,Mental Health Services,718-325-5021,"735 E 239TH ST, BRONX, NY, 10466",10466,BRONX
OHEL CHILDREN HOME AND FAMILY,Mental Health Services,718-382-0045,"400 CASWELL AVE RM 2, STATEN ISLAND, NY, 10314",10314,STATEN ISLAND
LIFE DOME ADULT SERVICES,Mental Health Services,347-439-5772,"31 SOUTH ST STE 2N1, MOUNT VERNON, NY, 10550",10550,MOUNT VERNON
TRANSITIONAL SERVICEFOR NY INC,Mental Health Services,718-464-0375,"8045 WINCHESTER BLVDBLD20, QUEENS VILLAGE, NY, 11427",11427,QUEENS VILLAGE
THE GUIDANCE CENTER OF WESTCHESTER,Mental Health Services,914-613-0700,"THE GUIDANCE CTR WEST INC 375 KNEELAND AVE OFC 225F, YONKERS, NY, 10704",10704,YONKERS
WESTCHESTER JEWISH COMMUNITY SRVS,Mental Health Services,914-376-8174,"PUBLIC SCL 18 77 PARK HILL AVE, YONKERS, NY, 10701",10701,YONKERS
FAMILY TIES OF WESTCHESTER,Mental Health Services,914-964-2063,"30 SOUTH BROADWAY, 7TH FL, YONKERS, NY, 10701",10701,YONKERS
MENTAL HEALTH ASSOC OF WESTCHESTER,Mental Health Services,914-345-5900,"YONKERS CLINIC 20 S BROADWAY STE 402, YONKERS, NY, 10701",10701,YONKERS
JULIA DYCKMAN ANDRUSMEM INC,Mental Health Services,914-965-1109,"JULIA DYCKMAN ANDRUS MEMO 35 DOCK ST, YONKERS, NY, 10701",10701,YONKERS
ROCKLAND PSYCHIATRICCENTER,Mental Health Services,914-363-1510,"MOUNT VERNON SERVICE CTR 100 E 1ST ST FLOOR 7, MOUNT VERNON, NY, 10550",10550,MOUNT VERNON
,Mental Health Services,718-224-0566,"5928 LITTLE NECK PKWY, LITTLE NECK, NY, 11362",11362,LITTLE NECK
ROCKLAND CHILDREN'S PSYC CTR,Mental Health Services,914-665-5300,"MT VERNON COMMUNITY SVS 100 CALIFORNIA RD RM106, MT VERNON, NY, 10552",10552,MT VERNON
SHELTERING ARM WELL CHILDREN AND FA,Mental Health Services,718-471-6818,"10000 BEACH CHANNEL DR, ROCKAWAY PARK, NY, 11694",11694,ROCKAWAY PARK
ROCKLAND PSYCHIATRIC CENTER,Mental Health Services,914-969-0543,"YONKERS CLINIC 2 PARK AVE, YONKERS, NY, 10703",10703,YONKERS
LIJ/HILLSIDE GERIATRIC PSYCH,Mental Health Services,718-470-8140,"7559 263RD ST, GLEN OAKS, NY, 11004",11004,GLEN OAKS
LIJ/HILLSIDE BH OUT PATIENT CLINIC,Mental Health Services,718-470-8100,"7559 263RD ST, GLEN OAKS, NY, 11004",11004,GLEN OAKS
LIJ/DAE MRS PROGRAM,Mental Health Services,718-470-8940,"27005 76TH AVE, NEW HYDE PARK, NY, 11040",11040,NEW HYDE PARK
PSCH,Mental Health Services,347-542-5658,"DBA WELLLIFE NETWORK 800 NORTHERN BLVD, GREAT NECK, NY, 11021",11021,GREAT NECK
THE NEW HORIZON COUNS CTR INC,Mental Health Services,718-471-8671,"6603 BEACH CHANNEL DR, ARVERNE, NY, 11692",11692,ARVERNE
LIJ/ELMONT TREATMENTCENTER,Mental Health Services,516-437-0440,"40 ELMONT RD, ELMONT, NY, 11003",11003,ELMONT
JOSEPH P ADDABBO FAMILY HLTH CTR,Mental Health Services,718-945-7150,"6200 BEACH CHANNEL DR, ARVERNE, NY, 11692",11692,ARVERNE
JB FAM CHILDREN SERVINC,Mental Health Services,844-663-2255,"1765 SOUTH AVE, STATEN ISLAND, NY, 10314",10314,STATEN ISLAND
LIJ/MANHASSET COMM DAY,Mental Health Services,516-627-5002,"1355 NORTHERN BLVD, MANHASSET, NY, 11030",11030,MANHASSET
NORTHEAST FAMILY SERVICES OF NY INC,Mental Health Services,332-215-6631,"CHILD MENT HLTH REHAB SRV 145 HUGUENOT ST STE 330, NEW ROCHELLE, NY, 10801",10801,NEW ROCHELLE
"NEW HORIZON COUNSELING CTR, INC",Mental Health Services,718-327-7002,"720 BEACH 20TH ST, FAR ROCKAWAY, NY, 11691",11691,FAR ROCKAWAY
ST JOHNS EPISCOPAL HOSPITAL,Mental Health Services,718-869-8822,"CMHC 521 BEACH 20TH ST, FAR ROCKAWAY, NY, 11691",11691,FAR ROCKAWAY
NEW HORIZON COUNSELING CTR INC,Mental Health Services,516-569-6600,"50 W HAWTHORNE AVE, VALLEY STREAM, NY, 11580",11580,VALLEY STREAM
ST. CHRISTOPHER'S INC,Mental Health Services,914-949-0665,"ST CHRISTOPHER'S INC 1700 OLD ORCHARD RD, EAST MARION, NY, 11939",11939,EAST MARION
NORTH SHORE CHLDRN AND FAMILY GDNC,Mental Health Services,516-626-1971,"480 OLD WESTBURY RD, ROSLYN HEIGHTS, NY, 11577",11577,ROSLYN HEIGHTS
NORTH SHORE CHILD & FAMILY GUIDANCE,Mental Health Services,516-626-1971,"480 OLD WESTBURY RD, ROSLYN HEIGHTS, NY, 11577",11577,ROSLYN HEIGHTS
LIVING POSITIVE INC LONG ISLAND,Mental Health Services,929-312-6204,"LIVING POSITIVE DAC 250 FULTON AVE STE 418, HEMPSTEAD, NY, 11550",11550,HEMPSTEAD
MENTAL HEALTH ASSOC OF NASSAU CTY,Mental Health Services,516-489-2322,"MENTAL HEALTH ASSOCIATION 16 MAIN ST, HEMPSTEAD, NY, 11550",11550,HEMPSTEAD
"CENTER R HISPANIC COUNSELING, MD",Mental Health Services,516-538-2613,"344 FULTON AVE, HEMPSTEAD, NY, 11550",11550,HEMPSTEAD
HISPANIC COUNSELING CENTER,Mental Health Services,516-538-2613,"344 FULTON AVE, HEMPSTEAD, NY, 11550",11550,HEMPSTEAD
OTI MANAGEMENT CONSULTING INC,Mental Health Services,516-280-3193,"50 CLINTON ST STE205 RM 2, HEMPSTEAD, NY, 11550",11550,HEMPSTEAD
FAMILY & CHILDREN'S ASSOCIATION,Mental Health Services,516-746-0350,"377 OAK STREET 5TH FL, GARDEN CITY, NY, 11530",11530,GARDEN CITY
CHARLES EVANS CENTERINC,Mental Health Services,516-676-2388,"113 GLEN COVE AVE, GLEN COVE, NY, 11542",11542,GLEN COVE
S SHORE ASSOC FOR INDEP LIVING INC,Mental Health Services,516-855-1800,"1976 GRAND AVE, NORTH BALDWIN, NY, 11510",11510,NORTH BALDWIN
OUTREACH REACT CENTER,Mental Health Services,516-623-7741,"27 WASHINGTON PLACE, ROOSEVELT, NY, 11575",11575,ROOSEVELT
EPIC LONG ISLAND INC,Mental Health Services,516-739-7733,"EPIC LONG ISLAND CLINIC 1500 HEMPSTEAD TPKE, EAST MEADOW, NY, 11554",11554,EAST MEADOW
NASSAU CTY MED CTR,Mental Health Services,516-472-0123,"2201 HEMPSTEAD TPKE, EAST MEADOW, NY, 11554",11554,EAST MEADOW
CATH CHARITIES DIOC OF ROCK CNTR,Mental Health Services,516-733-7040,"333 N MAIN ST, FREEPORT, NY, 11520",11520,FREEPORT
SOUTH SHORE CHILD AND GDNC CNTR,Mental Health Services,516-868-3030,"91 GUY LOMBARDO AVE, FREEPORT, NY, 11520",11520,FREEPORT
FAMILY SERVICES OF WESTCHESTER,Mental Health Services,914-948-8004,"FAMILY SER OF WESTCHESTER 7-11 S BROADWAY STE 317, WHITE PLAINS, NY, 10601",10601,WHITE PLAINS
MENTAL HEALTH ASSOC WESTCHESTER,Mental Health Services,914-345-5900,"WHITE PLAINS CLINIC 300 HAMILTON AVE, WHITE PLAINS, NY, 10601",10601,WHITE PLAINS
STUDENT ASSIST SRVCS CORP,Mental Health Services,914-874-1660,"STUDENT AST SRVC COUN CTR 660 WHITE PLAINS RD, TARRYTOWN, NY, 10591",10591,TARRYTOWN
FAM SVCS OF WESTCHESTER,Mental Health Services,914-422-8100,"FAMILY SVCS WESTCHESTER 106 N BROADWAY, WHITE PLAINS, NY, 10603",10603,WHITE PLAINS
WESTCHESTER JEWISH COMMUNITY SVC,Mental Health Services,914-761-0600,"WJCS SAT CLINIC AT HQ 845 N BROADWAY, WHITE PLAINS, NY, 10603",10603,WHITE PLAINS
HAMASPIK OF ROCKLANDCOUNTY INC,Mental Health Services,845-503-0204,"58 ROUTE 59 # 1, MONSEY, NY, 10952",10952,MONSEY
CENTRAL NASSAU GDNC AND CNSL SVCS,Mental Health Services,516-822-6111,"950 S OYSTER BAY RD # 101, HICKSVILLE, NY, 11801",11801,HICKSVILLE
MENTAL HEALTH ASSOCIATION ROCK CNTY,Mental Health Services,845-267-2172,"MNTL HLTH ASSOC ROCK CNTY 140 ROUTE 303, VALLEY COTTAGE, NY, 10989",10989,VALLEY COTTAGE
SOUTHEAST NASSAU GUIDANCE CENTER,Mental Health Services,516-221-3030,"2146 JACKSON AVE, SEAFORD, NY, 11783",11783,SEAFORD
SOUTH EAST NASSAU GUIDANCE CENTER,Mental Health Services,516-679-9800,"2146 JACKSON AVE, SEAFORD, NY, 11783",11783,SEAFORD
VCS INC,Mental Health Services,845-634-5729,"VCS MENTAL HEALTH CLINIC 77 S MAIN ST, NEW CITY, NY, 10956",10956,NEW CITY
ROCKLAND COMMUNITY SVCS,Mental Health Services,914-646-1004,"ROCKLAND COMMUNITY SVCS 16 KING ARTHUR CT, NEW CITY, NY, 10956",10956,NEW CITY
BIKUR CHOLIM INC,Mental Health Services,845-425-5252,"BIKUR CHOLIM INC 257 GRANDVIEW AVE, SUFFERN, NY, 10901",10901,SUFFERN
FAMILY RESIDENCES ENTERPRISES INC,Mental Health Services,516-870-1654,"FREE CHILDRENS HCBS 191 BETHPAGE SWEET HOL RD, OLD BETHPAGE, NY, 11804",11804,OLD BETHPAGE
JAWONIO INC,Mental Health Services,845-708-2000,"JAWONIO PROS 260 N LITTLE TOR RD, NEW CITY, NY, 10956",10956,NEW CITY
JULIA DYCKMAN ANDRUSMEMORIAL INC,Mental Health Services,914-762-2682,"ROOSEVELT SCH SATELLITE 190 CROTON AVE, OSSINING, NY, 10562",10562,OSSINING
FAMILY SERVICE LEAGUE,Mental Health Services,631-396-2300,"55 HORIZON DR, HUNTINGTON, NY, 11743",11743,HUNTINGTON
HALO NETWORK INC,Mental Health Services,631-775-9922,"HALO NETWORK INC 141 COLIN DR, SHIRLEY, NY, 11967",11967,SHIRLEY
HUNTINGTON DRUG & ALCOHOL PROJECT,Mental Health Services,631-271-3591,"423 PARK AVE, HUNTINGTON, NY, 11743",11743,HUNTINGTON
SAGAMORE CHILDRENS PSYCHIATRIC CTR,Mental Health Services,631-370-1700,"197 HALF HOLLOW RD, DIX HILLS, NY, 11746",11746,DIX HILLS
TOWN OF BABYLON DIVIOF DRUG & ALCHO,Mental Health Services,631-422-7676,"281 PHELPS LN, NORTH BABYLON, NY, 11703",11703,NORTH BABYLON
BEHAVIORAL & SUB ABUSE MED PLLC,Mental Health Services,631-392-4357,"770 GRAND BLVD STE 17, DEER PARK, NY, 11729",11729,DEER PARK
OUTREACH RECOVERY CENTER,Mental Health Services,631-521-8400,"998 CROOKED HILL RD BLDG5, BRENTWOOD, NY, 11717",11717,BRENTWOOD
FAMILY SERVICE LEAGUE INC,Mental Health Services,631-309-6900,"FAM RECOVERY CTR BAYSHORE 1448 FIFTH AVE, BAY SHORE, NY, 11706",11706,BAY SHORE
CATH CHARITIES DIOC ROCKVL CTR,Mental Health Services,516-733-7040,"155 INDIAN HEAD RD, COMMACK, NY, 11725",11725,COMMACK
HISPANIC COUNSELING CENTER INC,Mental Health Services,631-301-4868,"85 W MAIN ST, BAY SHORE, NY, 11706",11706,BAY SHORE
HANDS ACROSS LONG ISLAND INC,Mental Health Services,631-234-1925,"159 BRIGHTSIDE AVE, CENTRAL ISLIP, NY, 11722",11722,CENTRAL ISLIP
PHOENIX HOUSE OF LONG ISLAND,Mental Health Services,631-306-5778,"220 VETERANS HWY, HAUPPAUGE, NY, 11788",11788,HAUPPAUGE
PUTNAM FAMILY & COMMUNITY SVCS,Mental Health Services,845-335-1000,"ST CHRISTOPHERS 21 ST FRANCISCAN WAY, GARRISON, NY, 10524",10524,GARRISON
HAMASPIK OF ORANGE COUNTY INC,Mental Health Services,845-774-8400,"1 HAMASPIK WAY, MONROE, NY, 10950",10950,MONROE
MERCY HAVEN INC,Mental Health Services,631-277-8300,"859 CONNETQUOT AVE, ISLIP TERRACE, NY, 11752",11752,ISLIP TERRACE
AHIVIM INC,Mental Health Services,845-771-7000,"AHIVIM 15 ADELAKE FAREWAY, MONROE, NY, 10950",10950,MONROE
COMMUNITY COUSELING SVCS OF RONK,Mental Health Services,631-471-3122,"DBA RUTH MEYER 3281 VETERANS MEMOR HWY B, RONKONKOMA, NY, 11779",11779,RONKONKOMA
ACCESS SUPPORTS FOR LIVING INC,Mental Health Services,845-610-5321,"CHESTER GROUP HOME 15 HIGH ST, CHESTER, NY, 10918",10918,CHESTER
GREEN CHIMNEYS,Mental Health Services,845-279-2995,"COMMUNITY BASED SERVICES 1689 ROUTE 22, BREWSTER, NY, 10509",10509,BREWSTER
ASSOC OF MENTAL HEALTH & WELLNESS,Mental Health Services,631-471-7742,"POLLACK CTR RECOV & WELLN 939 JOHNSON AVE, RONKONKOMA, NY, 11779",11779,RONKONKOMA
OPTIONS FOR COMMUNITY LIVING INC,Mental Health Services,631-361-9020,"OPTIONS FOR COMM LIV INC 25 HOWARD PL, RONKONKOMA, NY, 11779",11779,RONKONKOMA
UNIV MC STONYBROOK DIV OF CHILD,Mental Health Services,631-444-2570,"ADULT OP PSYCH DEPT LEVEL 5 STE 9, STONY BROOK, NY, 11794",11794,STONY BROOK
STONY BROOK PSYCHIATRIC ASSOC,Mental Health Services,631-444-8962,"PSYCHIATRY-BLDG 2 2500 NESCONSET HWY, STONY BROOK, NY, 11790",11790,STONY BROOK
LODESTAR CHILDREN'S SERVICES INC,Mental Health Services,631-767-1589,"LODSTR CHILDRENS SRVS INC 259 VERSA PL, SAYVILLE, NY, 11782",11782,SAYVILLE
YOUNG MEN'S CHRISTIAN ASSOC LI INC,Mental Health Services,631-580-7777,"1150 PORTION RD STE 6, HOLTSVILLE, NY, 11742",11742,HOLTSVILLE
SUFFOLK COUNTY DEPT OF HEALTH SVCS,Mental Health Services,631-854-2552,"FARMINGVILLE MH CENTER 15 HORSEBLOCK PL, FARMINGVILLE, NY, 11738",11738,FARMINGVILLE
PUTNAM FAMILY & COMMUNITY SVC INC,"Mental Health Services, Substance Abuse Outpatient",845-225-2700,"1816 RTE 6, CARMEL, NY, 10512",10512,CARMEL
FEDERATION OF ORG,Mental Health Services,631-669-5355,"PROS RECOVERY CONCEPTS 456 WAVERLY AVE, PATCHOGUE, NY, 11772",11772,PATCHOGUE
ORANGE COUNTY DEPT OF MENTAL HEALTH,Mental Health Services,845-562-2191,"NEW WINDSOR PEDIATRIACS 448 TEMPLE HILL RD, NEW WINDSOR, NY, 12553",12553,NEW WINDSOR
WEST MENTAL HEALTH BROOKHAVEN HOSP,Mental Health Services,631-854-1222,"365 E MAIN ST, PATCHOGUE, NY, 11772",11772,PATCHOGUE
PILGRIM PSYCHIATRIC CTR,Mental Health Services,631-475-7108,"PILGRIM ACT TEAM 3 GROVE AVE, PATCHOGUE, NY, 11772",11772,PATCHOGUE
INDEPENDENT LIVING INC,Mental Health Services,845-565-1162,"5 WASHINGTON TER, NEWBURGH, NY, 12550",12550,NEWBURGH
MENTAL HLTH ASSOC INORANGE CO INC,Mental Health Services,845-342-2400,"MAIN OFFICE 73 JAMES P KELLY WAY, MIDDLETOWN, NY, 10940",10940,MIDDLETOWN
FAMILY SERVICES INC,Mental Health Services,845-486-2703,"BEACON MENTAL HLTH CLINIC 223 MAIN ST, BEACON, NY, 12508",12508,BEACON
MENT HLTH AMER DUTCH CNTY,Mental Health Services,845-831-2124,"451 FISHKILL AVE, BEACON, NY, 12508",12508,BEACON
PILGRIM PSYCHIATRIY CTR,Mental Health Services,631-761-2289,"YAPHANK CENTER 31 SCOUTING BLVD, MEDFORD, NY, 11763",11763,MEDFORD
SCOTCHTOWN SITE,Mental Health Services,845-692-4454,"ACCESS SUPPORT LIVING INC 15 FORTUNE RD W, MIDDLETOWN, NY, 10941",10941,MIDDLETOWN
ORANGE COUNTY DEPT F MENTAL HEALTH,Mental Health Services,845-858-1456,"PORT JERVIS OTPT CLINIC 146 PIKE ST, PORT JERVIS, NY, 12771",12771,PORT JERVIS
PEOPLE USA,Mental Health Services,845-452-2728,"PEOPLE USA 108 ULSTER AVE, WALDEN, NY, 12586",12586,WALDEN
EAST MENTAL HEALTH BROOKHAVEN HOSP,Mental Health Services,631-852-1070,"550 MONTAUK HWY, SHIRLEY, NY, 11967",11967,SHIRLEY
ROCKLAND CHILDREN'S PSYCHIATRIC CE,Mental Health Services,845-486-4944,"DUTCHESS INTENSIVE DAY TR 5BOCES S5 S18 S19 101 105, POUGHKEEPSIE, NY, 12601",12601,POUGHKEEPSIE
GATEWAY COMMUNITY INDUSTRIES PROS,Mental Health Services,845-331-1261,"7A MANSION ST, POUGHKEEPSIE, NY, 12601",12601,POUGHKEEPSIE
DUTCH CNTY DEPT BEH HLTH,Mental Health Services,845-486-2786,"230 NORTH RD PART HSP PRG, POUGHKEEPSIE, NY, 12601",12601,POUGHKEEPSIE
REHABILITATION SUPP SERV INC,Mental Health Services,845-791-4010,"20 CRYSTAL ST, MONTICELLO, NY, 12701",12701,MONTICELLO
KINGSTON COUNSELING CENTER,Mental Health Services,845-692-4454,"SUPPORTS FOR LIVING INC 368 BROADWAY 2ND FL, KINGSTON, NY, 12401",12401,KINGSTON
MENTAL HEALTH ASSOC ULSTER CO INC,Mental Health Services,845-339-9090,"CLIFFORD BEERS CENTER 340/300 AARON CT, KINGSTON, NY, 12401",12401,KINGSTON
