row,name,meta,address,phone,zip
1,ACMH INC.,"Distance: 0.16 miles
254 W. 31st Street, 9th Floor New York 10001
(212)274-8558
Handicap Accessible","254 W. 31st Street, 9th Floor New York 10001",(212)274-8558,10001
2,"ARGUS COMMUNITY, INC.","Distance: 5.11 miles
2015 Madison Avenue New York 10035
(718)401-5700
Handicap Accessible",2015 Madison Avenue New York 10035,(718)401-5700,10035
3,ASSOCIATION TO BENEFIT CHILDREN,"Distance: 7.53 miles
1363 Jerome Avenue Bronx 10457
(646)459-6165
Handicap Accessible",1363 Jerome Avenue Bronx 10457,(646)459-6165,10457
4,ASSOCIATION TO BENEFIT CHILDREN,"Distance: 4.45 miles
158 East 115th Street New York 10029
(646)459-6165
Handicap Accessible",158 East 115th Street New York 10029,(646)459-6165,10029
5,ASTOR SERVICES FOR CHILDREN & FAMILIES,"Distance: 7.56 miles
1180 Rev James A Polite Ave, Room 230-231B Bronx 10459
(718)231-3400
Handicap Accessible","1180 Rev James A Polite Ave, Room 230-231B Bronx 10459",(718)231-3400,10459
6,ASTOR SERVICES FOR CHILDREN & FAMILIES,"Distance: 7.62 miles
1419 Shakespeare Ave, 1st Floor Bronx 10452
(718)231-7080
Handicap Accessible","1419 Shakespeare Ave, 1st Floor Bronx 10452",(718)231-7080,10452
7,ASTOR SERVICES FOR CHILDREN & FAMILIES,"Distance: 8.99 miles
2225 Webster Avenue, Room 309C Bronx 10457
(718)231-3400
Handicap Accessible","2225 Webster Avenue, Room 309C Bronx 10457",(718)231-3400,10457
8,ASTOR SERVICES FOR CHILDREN & FAMILIES,"Distance: 13.16 miles
4010 Dyre Avenue Bronx 10466
(718)231-3400
Handicap Accessible",4010 Dyre Avenue Bronx 10466,(718)231-3400,10466
9,ASTOR SERVICES FOR CHILDREN & FAMILIES,"Distance: 8.81 miles
577 East 179th Street, Rooms 122 and 201 Bronx 10452
(718)231-3400
Handicap Accessible","577 East 179th Street, Rooms 122 and 201 Bronx 10452",(718)231-3400,10452
10,BETH ISRAEL MEDICAL CENTER,"Distance: 4.97 miles
103 E 125th St New York 10035
(718)252-3000
Handicap Accessible",103 E 125th St New York 10035,(718)252-3000,10035
11,"BRIDGE BACK TO LIFE CENTER, INC.","Distance: 11.66 miles
3044 Coney Island Ave Brooklyn 11235
(718)447-5700
Handicap Accessible",3044 Coney Island Ave Brooklyn 11235,(718)447-5700,11235
12,BRIDGING ACCESS TO CARE,"Distance: 2.93 miles
Home and Community Based Location New York 10006
(347)505-5000
Handicap Accessible",Home and Community Based Location New York 10006,(347)505-5000,10006
13,BRIDGING ACCESS TO CARE,"Distance: 13.97 miles
Home and Community Based Locations (Staten Island Staten Island 10306
(347)505-5000
Handicap Accessible",Home and Community Based Locations (Staten Island Staten Island 10306,(347)505-5000,10306
14,BRONXCARE HEALTH SYSTEM,"Distance: 7.49 miles
1276 Fulton Ave Bronx 10456
(718)992-7669
Handicap Accessible",1276 Fulton Ave Bronx 10456,(718)992-7669,10456
15,"CATHOLIC CHARITIES NEIGHBORHOOD SERVICES, INC.","Distance: 8.56 miles
1623 Flatbush Ave Brooklyn 11210
(718)722-6258
Handicap Accessible",1623 Flatbush Ave Brooklyn 11210,(718)722-6258,11210
16,CENTER FOR ALTERNATIVE SENTENCING AND EMPLOYMENT SERVICES,"Distance: 4.87 miles
2090 7th Avenue, 4th Floor New York 10027
(212)553-6606
Handicap Accessible","2090 7th Avenue, 4th Floor New York 10027",(212)553-6606,10027
17,CENTER FOR ALTERNATIVE SENTENCING AND EMPLOYMENT SERVICES,"Distance: 4.87 miles
2090 Adam Clyaton Powell, Jr. Blvd, 4th & 8th Flr New York 10027
(212)553-6606
Handicap Accessible","2090 Adam Clyaton Powell, Jr. Blvd, 4th & 8th Flr New York 10027",(212)553-6606,10027
18,"COMMUNITY ASSISTANCE RESOURCES & EXTENDED SERVICES, INC","Distance: 2.42 miles
465 Grand Street New York 10002
(212)420-1970
Handicap Accessible",465 Grand Street New York 10002,(212)420-1970,10002
19,COMMUNITY COUNSELING & MEDITATION,"Distance: 4.13 miles
25 Elm Place, 2 FL Brooklyn 11201
(718)802-0666
Handicap Accessible","25 Elm Place, 2 FL Brooklyn 11201",(718)802-0666,11201
20,"FAMILY SERVICES OF WESTCHESTER, INC.","Distance: 24.54 miles
1 Gateway Plaza Port Chester 10573
(914)964-6767
Handicap Accessible",1 Gateway Plaza Port Chester 10573,(914)964-6767,10573
21,"FAMILY SERVICES OF WESTCHESTER, INC.","Distance: 13.77 miles
20 South Broadway Yonkers 10701
(914)964-6767
Handicap Accessible",20 South Broadway Yonkers 10701,(914)964-6767,10701
22,FORTUNE SOCIETY INC,"Distance: 5.69 miles
625 West 140th Street New York 10031
(212)691-7554
Handicap Accessible",625 West 140th Street New York 10031,(212)691-7554,10031
23,"GREENWICH HOUSE, INC","Distance: 1.05 miles
55 Bethune Street New York 10014
(212)242-4140
Handicap Accessible",55 Bethune Street New York 10014,(212)242-4140,10014
24,HAMILTON MADISON HOUSE- CORONA,"Distance: 2.65 miles
253 South St New York 10002
(646)284-1109
Handicap Accessible",253 South St New York 10002,(646)284-1109,10002
25,"INTERBOROUGH DEVELOPMENTAL & CONSULTATION CENTER, INC","Distance: 11.81 miles
2846 Stillwell Avenue, 6th & 7th Floors Brooklyn 11224
(718)259-6600
Handicap Accessible","2846 Stillwell Avenue, 6th & 7th Floors Brooklyn 11224",(718)259-6600,11224
26,"INTERBOROUGH DEVELOPMENTAL & CONSULTATION CENTER, INC","Distance: 8.81 miles
94-13 Flatlands Avenue Brooklyn 11226
(718)388-5176
Handicap Accessible",94-13 Flatlands Avenue Brooklyn 11226,(718)388-5176,11226
27,"INTERFAITH MEDICAL CENTER, INC.","Distance: 5.81 miles
1545 Atlantic Avenue Brooklyn 11213
(718)613-4000
Handicap Accessible",1545 Atlantic Avenue Brooklyn 11213,(718)613-4000,11213
28,"JEWISH BOARD OF FAMILY AND CHILDREN'S SERVICES, INC.","Distance: 9.08 miles
153-157 Sherman Avenue, Room 209 New York 10034
(646)254-6451
Handicap Accessible","153-157 Sherman Avenue, Room 209 New York 10034",(646)254-6451,10034
29,"JEWISH BOARD OF FAMILY AND CHILDREN'S SERVICES, INC.","Distance: 7.27 miles
255 East 98th Street Brooklyn 11212
(718)881-1524
Handicap Accessible",255 East 98th Street Brooklyn 11212,(718)881-1524,11212
30,"JEWISH BOARD OF FAMILY AND CHILDREN'S SERVICES, INC.","Distance: 6.22 miles
310 Crown Street, Room 102 Brooklyn 11225
(718)676-4210
Handicap Accessible","310 Crown Street, Room 102 Brooklyn 11225",(718)676-4210,11225
31,"JEWISH BOARD OF FAMILY AND CHILDREN'S SERVICES, INC.","Distance: 9.32 miles
5030 Broadway, Suite 201 New York 10034
(212)795-9888
Handicap Accessible","5030 Broadway, Suite 201 New York 10034",(212)795-9888,10034
32,"JULIA DYCKMAN ANDURS MEMORIAL, INC.","Distance: 17.56 miles
105 Avondale Road, Room C-214 Yonkers 10710
(914)528-2021
Handicap Accessible","105 Avondale Road, Room C-214 Yonkers 10710",(914)528-2021,10710
33,"JULIA DYCKMAN ANDURS MEMORIAL, INC.","Distance: 30.02 miles
2 Clarendon Rooad, Intern Office A Ossining 10562
(914)528-2021
Handicap Accessible","2 Clarendon Rooad, Intern Office A Ossining 10562",(914)528-2021,10562
34,"MENTAL HEALTH PROVIDERS OF WESTERN QUEENS, INC.","Distance: 4.93 miles
61-20 Woodside Avenue Woodside 11377
(718)476-0076
Handicap Accessible",61-20 Woodside Avenue Woodside 11377,(718)476-0076,11377
36,METROPOLITAN CENTER FOR MENTAL HEALTH INC,"Distance: 6.83 miles
1090 St Nicholas Ave, Bsmt New York 10032
(212)543-0004
Handicap Accessible","1090 St Nicholas Ave, Bsmt New York 10032",(212)543-0004,10032
37,METROPOLITAN CENTER FOR MENTAL HEALTH INC,"Distance: 3.53 miles
163 West 97th Street, Room 128 New York 10025
(212)543-0004
Handicap Accessible","163 West 97th Street, Room 128 New York 10025",(212)543-0004,10025
38,MONTEFIORE MEDICAL CENTER,"Distance: 10.12 miles
2527 Glebe Avenue Bronx 10461
(718)920-4231
Handicap Accessible",2527 Glebe Avenue Bronx 10461,(718)920-4231,10461
39,MOUNT SINAI HOSPITAL,"Distance: 4.36 miles
411 West 114th Street New York 10025
(212)241-6500
Handicap Accessible",411 West 114th Street New York 10025,(212)241-6500,10025
40,NEW YORK CITY CHILDREN'S CENTER (NYSOMH),"Distance: 14.31 miles
74-03 Commonwealth Blvd, bldg 57, 2nf fl front Bellerose 11426
(718)264-4586
Handicap Accessible","74-03 Commonwealth Blvd, bldg 57, 2nf fl front Bellerose 11426",(718)264-4586,11426
41,NEW YORK FOUNDLING,"Distance: 5.82 miles
244 W 144th Street, RM 115 New York 10030
(917)485-7580
Handicap Accessible","244 W 144th Street, RM 115 New York 10030",(917)485-7580,10030
42,NEW YORK FOUNDLING,"Distance: 10.44 miles
3000 East Tremont Ave, Room 166 Bronx 10461
(917)485-7580
Handicap Accessible","3000 East Tremont Ave, Room 166 Bronx 10461",(917)485-7580,10461
43,NEW YORK PSYCHOTHERAPY AND COUNSELING CENTER,"Distance: 6.21 miles
80-25 45th Avenue Elmhurst 11373
(718)478-2900
Handicap Accessible",80-25 45th Avenue Elmhurst 11373,(718)478-2900,11373
44,"NORTHSIDE CENTER FOR CHILD DEVELPOMENT, INC.","Distance: 4.24 miles
21 West 111 Street, Room 207 New York 10026
(212)426-3400
Handicap Accessible","21 West 111 Street, Room 207 New York 10026",(212)426-3400,10026
45,"NORTHSIDE CENTER FOR CHILD DEVELPOMENT, INC.","Distance: 5.32 miles
499 West 133rd Street, Room 125B, Main Fl New York 10027
(212)426-3400
Handicap Accessible","499 West 133rd Street, Room 125B, Main Fl New York 10027",(212)426-3400,10027
46,NORTHWELL / LIJ ZUCKER HILLSIDE HOSPITAL,"Distance: 12.44 miles
205-07 Hillside Avenue, Suite 5-9 Hollis 11423
(718)465-3294
Handicap Accessible","205-07 Hillside Avenue, Suite 5-9 Hollis 11423",(718)465-3294,11423
47,NORTHWELL / SOUTH OAKS HOSPITAL,"Distance: 30.39 miles
400 Sunrise Highway, 2nd Floor, Jennings Hall Amityville 11701
(631)608-5028
Handicap Accessible","400 Sunrise Highway, 2nd Floor, Jennings Hall Amityville 11701",(631)608-5028,11701
48,NORTHWELL / STATEN ISLAND UNIVERSITY HOSPITAL,"Distance: 12.33 miles
450 Seaview Ave Staten Island 10305
(718)226-8910
Handicap Accessible",450 Seaview Ave Staten Island 10305,(718)226-8910,10305
49,"NYC HEALTH + HOSPITALS / GOUVERNEUR, A GOTHAM HEALTH CENTER","Distance: 2.12 miles
109-11 Delancey St New York 10002
(718)252-3000
Handicap Accessible",109-11 Delancey St New York 10002,(718)252-3000,10002
50,NYC HEALTH + HOSPITALS / JACOBI,"Distance: 10.8 miles
1400 Pelham Parkway South Bronx 10461
(718)579-4061
Handicap Accessible",1400 Pelham Parkway South Bronx 10461,(718)579-4061,10461
51,NYC HEALTH + HOSPITALS / KINGS COUNTY,"Distance: 7.41 miles
410 Winthrop Street Brooklyn 11203
(718)579-4061
Handicap Accessible",410 Winthrop Street Brooklyn 11203,(718)579-4061,11203
52,NYC HEALTH + HOSPITALS / KINGS COUNTY,"Distance: 6.82 miles
591 Kingston Ave Brooklyn 11203
(718)579-4061
Handicap Accessible",591 Kingston Ave Brooklyn 11203,(718)579-4061,11203
53,NYC HEALTH + HOSPITALS / QUEENS,"Distance: 10.69 miles
105-59 Inwood Street Jamaica 11435
(718)883-3000
Handicap Accessible",105-59 Inwood Street Jamaica 11435,(718)883-3000,11435
54,NYU LANGONE HOSPITALS,"Distance: 7.16 miles
150 55th Street Brooklyn 11220
(646)929-7800
Handicap Accessible",150 55th Street Brooklyn 11220,(646)929-7800,11220
55,OHEL CHILDREN'S HOME AND FAMILY SERVICES DBA TIKVAH AT OHEL,"Distance: 9.18 miles
1268 East 14 street Brooklyn 11230
(718)435-5533
Handicap Accessible",1268 East 14 street Brooklyn 11230,(718)435-5533,11230
56,OHEL CHILDREN'S HOME AND FAMILY SERVICES DBA TIKVAH AT OHEL,"Distance: 9.18 miles
1268 East 14 Street Brooklyn 11230
(718)686-3306
Handicap Accessible",1268 East 14 Street Brooklyn 11230,(718)686-3306,11230
57,OHEL CHILDREN'S HOME AND FAMILY SERVICES DBA TIKVAH AT OHEL,"Distance: 12.28 miles
400 Caswell Ave, Room 2 Staten Island 10314
(718)435-5533
Handicap Accessible","400 Caswell Ave, Room 2 Staten Island 10314",(718)435-5533,10314
58,OUTREACH DEVELOPMENT CORPORATION,"Distance: 5.95 miles
1614 Weirfield Street Ridgewood 11385
(718)456-7820
Handicap Accessible",1614 Weirfield Street Ridgewood 11385,(718)456-7820,11385
59,OUTREACH DEVELOPMENT CORPORATION,"Distance: 38.04 miles
400 Crooked Hill Road Brentwood 11717
(631)469-6200
Handicap Accessible",400 Crooked Hill Road Brentwood 11717,(631)469-6200,11717
60,PESACH TIKVAH HOPE DEVELOPMENT INC.,"Distance: 7.61 miles
1449 39th Street Rm 118 Brooklyn 11218
(718)875-6900
Handicap Accessible",1449 39th Street Rm 118 Brooklyn 11218,(718)875-6900,11218
61,PESACH TIKVAH HOPE DEVELOPMENT INC.,"Distance: 8.84 miles
1470 Ocean Parkway, Rm 205 Brooklyn 11230
(718)875-6900
Handicap Accessible","1470 Ocean Parkway, Rm 205 Brooklyn 11230",(718)875-6900,11230
62,PESACH TIKVAH HOPE DEVELOPMENT INC.,"Distance: 7.96 miles
1650 56th Street Rm 16 Brooklyn 11219
(718)875-6900
Handicap Accessible",1650 56th Street Rm 16 Brooklyn 11219,(718)875-6900,11219
63,PESACH TIKVAH HOPE DEVELOPMENT INC.,"Distance: 8.56 miles
1824 53rd Street Rm 210-1 Brooklyn 11204
(718)875-6900
Handicap Accessible",1824 53rd Street Rm 210-1 Brooklyn 11204,(718)875-6900,11204
64,PESACH TIKVAH HOPE DEVELOPMENT INC.,"Distance: 3.76 miles
640 Bedford Avenue Brooklyn 11206
(718)925-2259
Handicap Accessible",640 Bedford Avenue Brooklyn 11206,(718)925-2259,11206
65,PILGRIM PSYCHIATRIC CENTER (NYSOMH),"Distance: 52.17 miles
3 Grove Avenue Patchogue 11772
(518)549-5272
Handicap Accessible",3 Grove Avenue Patchogue 11772,(518)549-5272,11772
66,POST GRADUATE CENTER FOR MENTAL HEALTH,"Distance: 8.15 miles
1775 Grand Concourse, 8th Floor Bronx 10453
(212)665-1860
Handicap Accessible","1775 Grand Concourse, 8th Floor Bronx 10453",(212)665-1860,10453
67,ROCKLAND PSYCHIATRIC CENTER (NYSOMH),"Distance: 23.08 miles
10 County Center Road White Plains 10607
(518)549-5272
Handicap Accessible",10 County Center Road White Plains 10607,(518)549-5272,10607
68,SAMARITAN DAYTOP VILLAGE INC,"Distance: 73.4 miles
767 Cape Road Ellenville 12428
(845)647-6575
Handicap Accessible",767 Cape Road Ellenville 12428,(845)647-6575,12428
69,"SAMUEL FIELD YM & YWHA, INC. DBA COMMUNITY ADVISORY PROGRAM FOR THE ELDERLY","Distance: 14.36 miles
59-28 Little Neck Parkway Little Neck 11362
(718)224-0566
Handicap Accessible",59-28 Little Neck Parkway Little Neck 11362,(718)224-0566,11362
70,"SAMUEL FIELD YM & YWHA, INC. DBA COMMUNITY ADVISORY PROGRAM FOR THE ELDERLY","Distance: 8.11 miles
67-09 108th Street Forest Hills 11375
(718)224-0566
Handicap Accessible",67-09 108th Street Forest Hills 11375,(718)224-0566,11375
71,"SERVICE PROGRAM FOR OLDER PEOPLE, INC","Distance: 2.29 miles
141 West 73rd Street Ansonia 10023
(212)787-7120
Handicap Accessible",141 West 73rd Street Ansonia 10023,(212)787-7120,10023
72,"SERVICE PROGRAM FOR OLDER PEOPLE, INC","Distance: 3.21 miles
302 West 91st Street New York 10024
(212)787-7120
Handicap Accessible",302 West 91st Street New York 10024,(212)787-7120,10024
73,SES OPERATING CORP DBA HARLEM EAST LIFE PLAN,"Distance: 4.83 miles
2367-69 2nd Avenue New York 10035
(212)876-2300
Handicap Accessible",2367-69 2nd Avenue New York 10035,(212)876-2300,10035
74,SOUTH BEACH PSYCHIATRIC CENTER (NYSOMH),"Distance: 4.3 miles
250 Baltic Street Brooklyn 11201
(718)453-3200
Handicap Accessible",250 Baltic Street Brooklyn 11201,(718)453-3200,11201
75,SOUTH BEACH PSYCHIATRIC CENTER (NYSOMH),"Distance: 11.87 miles
626 Sheepshead Bay Road, 3rd Fl Brooklyn 11224
(718)946-2600
Handicap Accessible","626 Sheepshead Bay Road, 3rd Fl Brooklyn 11224",(718)946-2600,11224
76,"START TREATMENT & RECOVERY CENTERS, INC","Distance: 7.65 miles
494 Dumont Ave Brooklyn 11206
(800)211-0996
Handicap Accessible",494 Dumont Ave Brooklyn 11206,(800)211-0996,11206
77,"THE HISPANIC COUNSELING CENTER, INC","Distance: 19.84 miles
344 Fulton Avenue Hempstead 11550
(516)358-2613
Handicap Accessible",344 Fulton Avenue Hempstead 11550,(516)358-2613,11550
78,"THE NEW HORIZON COUNSELING CENTER, INC.","Distance: 43.06 miles
11 Route 111 Smithtown 11787
(631)656-9550
Handicap Accessible",11 Route 111 Smithtown 11787,(631)656-9550,11787
79,"THE NEW HORIZON COUNSELING CENTER, INC.","Distance: 31.6 miles
445 Oak Street Copiague 11726
(631)257-5173
Handicap Accessible",445 Oak Street Copiague 11726,(631)257-5173,11726
80,THE NEW YORK FOUNDLING,"Distance: 4.46 miles
109 E 115th Street New York 10029
(718)772-0280
Handicap Accessible",109 E 115th Street New York 10029,(718)772-0280,10029
81,TRI CENTER INC,"Distance: 3.81 miles
175 Remsen Street, 6th Floor Brooklyn 11201
(718)858-4050
Handicap Accessible","175 Remsen Street, 6th Floor Brooklyn 11201",(718)858-4050,11201
82,TRI CENTER INC,"Distance: 9.43 miles
2488 Grand Concourse Bronx 10548
(212)268-8830
Handicap Accessible",2488 Grand Concourse Bronx 10548,(212)268-8830,10548
83,"UPPER MANHATTAN MENTAL HEALTH CENTER, INC.","Distance: 5.93 miles
1727 Amsterdam Avenue New York 10031
(212)694-9400
Handicap Accessible",1727 Amsterdam Avenue New York 10031,(212)694-9400,10031
84,VISITING NURSE SERVICE OF NEW YORK,"Distance: 0.46 miles
1250 Broadway New York 10001
(212)290-6565
Handicap Accessible",1250 Broadway New York 10001,(212)290-6565,10001
85,VISITING NURSE SERVICE OF NEW YORK HOME CARE,"Distance: 6.55 miles
489-493 East 153 Street Bronx 10455
(718)402-3900
Handicap Accessible",489-493 East 153 Street Bronx 10455,(718)402-3900,10455
86,VISITING NURSE SERVICE OF NEW YORK HOME CARE II,"Distance: 6.55 miles
489-493 E. 153rd Street Bronx 10455
(212)290-6565
Handicap Accessible",489-493 E. 153rd Street Bronx 10455,(212)290-6565,10455
87,"VOCATIONAL INSTRUCTION PROJECT COMMUNITY SERVICES, INC","Distance: 8.6 miles
716 Fairmount Place Bronx 10457
(718)542-8700
Handicap Accessible",716 Fairmount Place Bronx 10457,(718)542-8700,10457
88,"WELLLIFE NETWORK, INC.","Distance: 10.2 miles
2510 Westchester Avenue, Suite 102 Bronx 10461
(718)542-5805
Handicap Accessible","2510 Westchester Avenue, Suite 102 Bronx 10461",(718)542-5805,10461
89,"WELLLIFE NETWORK, INC.","Distance: 30.99 miles
55 Horizon Dr Huntington 11743
(631)920-8088
Handicap Accessible",55 Horizon Dr Huntington 11743,(631)920-8088,11743
90,WESTCHESTER JEWISH COMMUNITY SERVICES,"Distance: 12.71 miles
503 South Broadway, Suite 210 Yonkers 10705
(914)423-4433
Handicap Accessible","503 South Broadway, Suite 210 Yonkers 10705",(914)423-4433,10705
91,"ARGUS COMMUNITY, INC.","Distance: 6.91 miles
760 E. 160 Street Bronx 10456
(718)401-5700
Handicap Accessible",760 E. 160 Street Bronx 10456,(718)401-5700,10456
93,ASSOCIATION TO BENEFIT CHILDREN,"Distance: 3.93 miles
345 East 102nd Street New York 10029
(646)459-6165
Handicap Accessible",345 East 102nd Street New York 10029,(646)459-6165,10029
94,ASTOR SERVICES FOR CHILDREN & FAMILIES,"Distance: 8.53 miles
1930 Andrews Avenue, Room 216A Bronx 10453
(718)231-3400
Handicap Accessible","1930 Andrews Avenue, Room 216A Bronx 10453",(718)231-3400,10453
95,ASTOR SERVICES FOR CHILDREN & FAMILIES,"Distance: 7.22 miles
270 East 167th Street, Room 115A and 316 Bronx 10456
(718)231-3400
Handicap Accessible","270 East 167th Street, Room 115A and 316 Bronx 10456",(718)231-3400,10456
96,ASTOR SERVICES FOR CHILDREN & FAMILIES,"Distance: 8.79 miles
700 East 179th Street, Room 267 Bronx 10457
(718)231-3400
Handicap Accessible","700 East 179th Street, Room 267 Bronx 10457",(718)231-3400,10457
97,ASTOR SERVICES FOR CHILDREN & FAMILIES,"Distance: 6.82 miles
778 Forrest Avenue, Room 122 Bronx 10456
(718)231-3400
Handicap Accessible","778 Forrest Avenue, Room 122 Bronx 10456",(718)231-3400,10456
98,BETH ISRAEL MEDICAL CENTER,"Distance: 4.89 miles
140 W 125th St New York 10027
(718)252-3000
Handicap Accessible",140 W 125th St New York 10027,(718)252-3000,10027
99,BETH ISRAEL MEDICAL CENTER,"Distance: 1.25 miles
1st Avenue at 16th Street New York 10003
(212)420-2000
Handicap Accessible",1st Avenue at 16th Street New York 10003,(212)420-2000,10003
100,"BROOKLYN CENTER FOR PSYCHOTHERAPY, INC.","Distance: 5.02 miles
300 Flatbush Avenue Brooklyn 11217
(718)398-0800
Handicap Accessible",300 Flatbush Avenue Brooklyn 11217,(718)398-0800,11217
101,"CARE FOR THE HOMELESS, INC.","Distance: 4.27 miles
111 Sunken Garden Loop New York 10035
(646)553-4475
Handicap Accessible",111 Sunken Garden Loop New York 10035,(646)553-4475,10035
102,"CATHOLIC CHARITIES NEIGHBORHOOD SERVICES, INC.","Distance: 10.87 miles
161-10 Jamaica Avenue Jamaica 11432
(718)722-6258
Handicap Accessible",161-10 Jamaica Avenue Jamaica 11432,(718)722-6258,11432
103,"CATHOLIC CHARITIES NEIGHBORHOOD SERVICES, INC.","Distance: 16.31 miles
1847 Mott Avenue - 1st Floor Far Rockaway 11691
(718)722-6001
Handicap Accessible",1847 Mott Avenue - 1st Floor Far Rockaway 11691,(718)722-6001,11691
104,"CATHOLIC CHARITIES NEIGHBORHOOD SERVICES, INC.","Distance: 9.17 miles
1900 B Ralph Avenue Brooklyn 11234
(718)722-6258
Handicap Accessible",1900 B Ralph Avenue Brooklyn 11234,(718)722-6258,11234
105,"CATHOLIC CHARITIES NEIGHBORHOOD SERVICES, INC.","Distance: 6.68 miles
67-29 Myrtle Avenue Glendale 11385
(718)722-6001
Handicap Accessible",67-29 Myrtle Avenue Glendale 11385,(718)722-6001,11385
106,"COMMUNITY ASSISTANCE RESOURCES & EXTENDED SERVICES, INC","Distance: 2.42 miles
465 Grand Street, Basement New York 10002
(212)420-1970
Handicap Accessible","465 Grand Street, Basement New York 10002",(212)420-1970,10002
107,COMMUNITY COUNSELING & MEDITATION,"Distance: 4.21 miles
285 Livingston Street Brooklyn 11217
(718)935-9201
Handicap Accessible",285 Livingston Street Brooklyn 11217,(718)935-9201,11217
108,COMMUNITY COUNSELING & MEDITATION,"Distance: 5.07 miles
535 Clinton Ave, 2nd Floor Brooklyn 11238
(718)704-1986
Handicap Accessible","535 Clinton Ave, 2nd Floor Brooklyn 11238",(718)704-1986,11238
109,COMMUNITY COUNSELING & MEDITATION,"Distance: 5.55 miles
810 Classon Avenue Brooklyn 11238
(718)230-5100
Handicap Accessible",810 Classon Avenue Brooklyn 11238,(718)230-5100,11238
110,"COUNSELING SERVICE OF NEW YORK, LLC","Distance: 6.72 miles
911 Walton Ave Bronx 10452
(718)590-1790
Handicap Accessible",911 Walton Ave Bronx 10452,(718)590-1790,10452
111,"FEDCAP REHABILITATION SERVICES, INC.","Distance: 7.06 miles
1011 Washington Avenue Bronx 10456
(646)483-4124
Handicap Accessible",1011 Washington Avenue Bronx 10456,(646)483-4124,10456
112,GAY MEN'S HEALTH CRISIS INC.,"Distance: 0.53 miles
307 West 38th Street, 8th Fl New York 10018
(212)367-1225
Handicap Accessible","307 West 38th Street, 8th Fl New York 10018",(212)367-1225,10018
113,GOODWILL INDUSTRIES NY/NJ,"Distance: 5.1 miles
4502 Ditmars Blvd, Suite 1032 Astoria 11103
(718)777-6311
Handicap Accessible","4502 Ditmars Blvd, Suite 1032 Astoria 11103",(718)777-6311,11103
114,"HAMILTON-MADISON HOUSE, INC.","Distance: 2.65 miles
253 South Street New York 10002
(646)284-1109
Handicap Accessible",253 South Street New York 10002,(646)284-1109,10002
115,HENRY STREET SETTLEMENT COMMUNITY CONSULTATION CENTER,"Distance: 2.46 miles
40 Montgomery Street New York 10002
(212)233-5032
Handicap Accessible",40 Montgomery Street New York 10002,(212)233-5032,10002
116,HUDSON GUILD,"Distance: 1.75 miles
121 East Third Street, Room 215 New York 10009
(212)760-9822
Handicap Accessible","121 East Third Street, Room 215 New York 10009",(212)760-9822,10009
117,INSTITUTE FOR COMMUNITY LIVING,"Distance: 13.52 miles
221-10 Jamaica Avenue Queens Village 11428
(888)425-0501
Handicap Accessible",221-10 Jamaica Avenue Queens Village 11428,(888)425-0501,11428
118,INSTITUTE FOR COMMUNITY LIVING,"Distance: 12.71 miles
4377 Bronx Boulevard Bronx 10466
(718)234-0073
Handicap Accessible",4377 Bronx Boulevard Bronx 10466,(718)234-0073,10466
119,"INTERFAITH MEDICAL CENTER, INC.","Distance: 4.99 miles
1038 Broadway Brooklyn 11221
(718)613-4000
Handicap Accessible",1038 Broadway Brooklyn 11221,(718)613-4000,11221
120,"JEWISH BOARD OF FAMILY AND CHILDREN'S SERVICES, INC.","Distance: 12.43 miles
1466 Manor Road, Room 129 Staten Island 10314
(718)761-9800
Handicap Accessible","1466 Manor Road, Room 129 Staten Island 10314",(718)761-9800,10314
121,"JEWISH BOARD OF FAMILY AND CHILDREN'S SERVICES, INC.","Distance: 10.22 miles
2925 Goulden Ave Rooms 122C and 130 Bronx 10468
(718)329-2144
Handicap Accessible",2925 Goulden Ave Rooms 122C and 130 Bronx 10468,(718)329-2144,10468
122,"JEWISH BOARD OF FAMILY AND CHILDREN'S SERVICES, INC.","Distance: 11.08 miles
50 Avenue X, Room 106 Brooklyn 11223
(718)373-6400
Handicap Accessible","50 Avenue X, Room 106 Brooklyn 11223",(718)373-6400,11223
123,"JEWISH BOARD OF FAMILY AND CHILDREN'S SERVICES, INC.","Distance: 6.05 miles
667 Eastern Parkway, Room 430 Brooklyn 11213
(718)676-4210
Handicap Accessible","667 Eastern Parkway, Room 430 Brooklyn 11213",(718)676-4210,11213
124,"JEWISH BOARD OF FAMILY AND CHILDREN'S SERVICES, INC.","Distance: 10.52 miles
75 West 205th Street, Room 034A & 035D2 Bronx 10468
(718)817-7759
Handicap Accessible","75 West 205th Street, Room 034A & 035D2 Bronx 10468",(718)817-7759,10468
125,"JULIA DYCKMAN ANDURS MEMORIAL, INC.","Distance: 30.02 miles
100 Van Coutland Avenue, Reflection RM Office Ossining 10562
(914)528-2021
Handicap Accessible","100 Van Coutland Avenue, Reflection RM Office Ossining 10562",(914)528-2021,10562
126,"JULIA DYCKMAN ANDURS MEMORIAL, INC.","Distance: 15.32 miles
53 Fairview Street, Office 7B6 Yonkers 10703
(914)528-2021
Handicap Accessible","53 Fairview Street, Office 7B6 Yonkers 10703",(914)528-2021,10703
127,"LONG ISLAND CONSULTATION CENTER, INC.","Distance: 6.75 miles
91-31 Queens Blvd, 2nd FL. Elmhurst 11373
(718)896-3400
Handicap Accessible","91-31 Queens Blvd, 2nd FL. Elmhurst 11373",(718)896-3400,11373
128,"LONG ISLAND CONSULTATION CENTER, INC.","Distance: 6.75 miles
91-31 Queens Boulevard, Suite 222 Elmhurst 11373
(718)896-3400
Handicap Accessible","91-31 Queens Boulevard, Suite 222 Elmhurst 11373",(718)896-3400,11373
129,"MENTAL HEALTH PROVIDERS OF WESTERN QUEENS, INC.","Distance: 6.32 miles
37-08 91st Street Jackson Heights 11372
(718)476-0076
Handicap Accessible",37-08 91st Street Jackson Heights 11372,(718)476-0076,11372
130,METROPOLITAN CENTER FOR MENTAL HEALTH INC,"Distance: 3.77 miles
32 West 92nd Street, Room 214 New York 10025
(212)543-0004
Handicap Accessible","32 West 92nd Street, Room 214 New York 10025",(212)543-0004,10025
131,MONTEFIORE MEDICAL CENTER,"Distance: 11.01 miles
111 E 210th Street Bronx 10467
(718)920-4231
Handicap Accessible",111 E 210th Street Bronx 10467,(718)920-4231,10467
132,MOUNT SINAI HOSPITAL,"Distance: 3.5 miles
312-320 E. 94th Street New York 10128
(212)241-6500
Handicap Accessible",312-320 E. 94th Street New York 10128,(212)241-6500,10128
133,NEW YORK FOUNDLING,"Distance: 4.46 miles
109 E 115 Street New York 10029
(917)485-7580
Handicap Accessible",109 E 115 Street New York 10029,(917)485-7580,10029
134,"NORTHEAST FAMILY SERVICES OF NEW YORK, INC","Distance: 16.11 miles
145 Huguenot Street, Suite 330 New Rochelle 10801
(332)215-6631
Handicap Accessible","145 Huguenot Street, Suite 330 New Rochelle 10801",(332)215-6631,10801
135,"NORTHSIDE CENTER FOR CHILD DEVELPOMENT, INC.","Distance: 5.34 miles
625 West 133rd Street, Room 325K and 335F New York 10027
(212)426-3400
Handicap Accessible","625 West 133rd Street, Room 325K and 335F New York 10027",(212)426-3400,10027
136,NORTHWELL / LENOX HILL HOSPITAL,"Distance: 2.58 miles
100 East 77th Street New York 10075
(212)434-2000
Handicap Accessible",100 East 77th Street New York 10075,(212)434-2000,10075
137,NORTHWELL / LIJ ZUCKER HILLSIDE HOSPITAL,"Distance: 13.5 miles
230-17 Hillside Avenue, Rooms 135L and 112 Queens Village 11427
(718)470-8100
Handicap Accessible","230-17 Hillside Avenue, Rooms 135L and 112 Queens Village 11427",(718)470-8100,11427
138,NORTHWELL / LONG ISLAND JEWISH MEDICAL CENTER,"Distance: 9.56 miles
101-01 Rockaway Boulevard Jamaica 11417
(929)232-6100
Handicap Accessible",101-01 Rockaway Boulevard Jamaica 11417,(929)232-6100,11417
139,NYC HEALTH + HOSPITALS / CONEY ISLAND,"Distance: 11.92 miles
2925 W 19th St Brooklyn 11224
(718)579-4061
Handicap Accessible",2925 W 19th St Brooklyn 11224,(718)579-4061,11224
140,NYU HOSPITALS CENTER DBA NYU LUTHERAN FAMILY HEALTH CENTER QUALITY CARE GROUP,"Distance: 7.2 miles
514 49th St Brooklyn 11220
(718)431-2600
Handicap Accessible",514 49th St Brooklyn 11220,(718)431-2600,11220
141,OHEL CHILDREN'S HOME AND FAMILY SERVICES DBA TIKVAH AT OHEL,"Distance: 6.7 miles
60-05 Woodhaven Blvd, Room 526 Elmhurst 11373
(718)435-5533
Handicap Accessible","60-05 Woodhaven Blvd, Room 526 Elmhurst 11373",(718)435-5533,11373
142,OUTREACH DEVELOPMENT CORPORATION,"Distance: 9.26 miles
117-11 Myrtle Avenue Richmond Hill 11418
(718)849-6300
Handicap Accessible",117-11 Myrtle Avenue Richmond Hill 11418,(718)849-6300,11418
143,PESACH TIKVAH HOPE DEVELOPMENT INC.,"Distance: 4.21 miles
110 Throop Avenue, Room 206 Brooklyn 11206
(718)875-6900
Handicap Accessible","110 Throop Avenue, Room 206 Brooklyn 11206",(718)875-6900,11206
144,PESACH TIKVAH HOPE DEVELOPMENT INC.,"Distance: 8.61 miles
1818 54th Street Rm 12 Brooklyn 11204
(718)875-6900
Handicap Accessible",1818 54th Street Rm 12 Brooklyn 11204,(718)875-6900,11204
145,PESACH TIKVAH HOPE DEVELOPMENT INC.,"Distance: 7.39 miles
3913 151h Avenue Rm 201 Brooklyn 11218
(718)875-6900
Handicap Accessible",3913 151h Avenue Rm 201 Brooklyn 11218,(718)875-6900,11218
146,PESACH TIKVAH HOPE DEVELOPMENT INC.,"Distance: 8.51 miles
5309 18th Avenue Brooklyn 11204
(718)875-6900
Handicap Accessible",5309 18th Avenue Brooklyn 11204,(718)875-6900,11204
147,PESACH TIKVAH HOPE DEVELOPMENT INC.,"Distance: 8.25 miles
5901 13th Avenue Rm 400 Brooklyn 11219
(718)875-6900
Handicap Accessible",5901 13th Avenue Rm 400 Brooklyn 11219,(718)875-6900,11219
148,PESACH TIKVAH HOPE DEVELOPMENT INC.,"Distance: 8.48 miles
841-853 Ocean Parkway Rm 415 Brooklyn 11230
(718)875-6900
Handicap Accessible",841-853 Ocean Parkway Rm 415 Brooklyn 11230,(718)875-6900,11230
149,POST GRADUATE CENTER FOR MENTAL HEALTH,"Distance: 10.95 miles
163-18 Jamaica Avenue, Suite 501 Jamaica 11432
(718)291-4599
Handicap Accessible","163-18 Jamaica Avenue, Suite 501 Jamaica 11432",(718)291-4599,11432
150,"PROJECT HOSPITALITY, INC.","Distance: 9.69 miles
75 Vanderbilt Avenue Staten Island 10304
(718)447-3297
Handicap Accessible",75 Vanderbilt Avenue Staten Island 10304,(718)447-3297,10304
151,"PROMESA, INC.","Distance: 8.31 miles
1776 Clay Ave Bronx 10457
(347)352-2500
Handicap Accessible",1776 Clay Ave Bronx 10457,(347)352-2500,10457
152,RAMON VELEZ RECOVERY CENTER,"Distance: 6.55 miles
754 E 151st St Bronx 10455
(718)842-1412
Handicap Accessible",754 E 151st St Bronx 10455,(718)842-1412,10455
153,ROCKLAND CHILDREN'S PSYCHIATRIC CENTER (NYSOMH),"Distance: 14.34 miles
201 Palisade Ave, RM 200,201,212 and B04 Yonkers 10703
(914)376-8177
Handicap Accessible","201 Palisade Ave, RM 200,201,212 and B04 Yonkers 10703",(914)376-8177,10703
154,SAMARITAN DAYTOP VILLAGE INC,"Distance: 8.67 miles
338 Forbell Street Brooklyn 11208
(929)244-1456
Handicap Accessible",338 Forbell Street Brooklyn 11208,(929)244-1456,11208
155,SAMARITAN DAYTOP VILLAGE INC,"Distance: 0.39 miles
500 8th Avenue New York 10018
(718)292-4455
Handicap Accessible",500 8th Avenue New York 10018,(718)292-4455,10018
156,"SAMUEL FIELD YM & YWHA, INC. DBA COMMUNITY ADVISORY PROGRAM FOR THE ELDERLY","Distance: 6.13 miles
6852 Freshpond Road Ridgewood 11385
(718)224-0566
Handicap Accessible",6852 Freshpond Road Ridgewood 11385,(718)224-0566,11385
157,"SERVICE PROGRAM FOR OLDER PEOPLE, INC","Distance: 1.93 miles
180 Mott Street New York 10012
(212)787-7120
Handicap Accessible",180 Mott Street New York 10012,(212)787-7120,10012
158,"SERVICE PROGRAM FOR OLDER PEOPLE, INC","Distance: 1.08 miles
239 West 49th Street New York 10014
(212)787-7120
Handicap Accessible",239 West 49th Street New York 10014,(212)787-7120,10014
159,SES OPERATING CORP DBA HARLEM EAST LIFE PLAN,"Distance: 4.78 miles
2367-69 Second Avenue New York 10035
(212)876-2300
Handicap Accessible",2367-69 Second Avenue New York 10035,(212)876-2300,10035
160,SES OPERATING CORP DBA HARLEM EAST LIFE PLAN,"Distance: 4.83 miles
2369 2nd Ave, 1st and 2nd Floor New York 10035
(212)876-2300
Handicap Accessible","2369 2nd Ave, 1st and 2nd Floor New York 10035",(212)876-2300,10035
161,SES OPERATING CORP. DBA HARLEM EAST LIFE PLAN,"Distance: 4.78 miles
2367-69 Second Avenue New York 10035
(212)876-2300
Handicap Accessible",2367-69 Second Avenue New York 10035,(212)876-2300,10035
162,SHELTERING ARMS CHILDREN AND FAMILY SERVICES,"Distance: 9.64 miles
107-14 Liberty Avenue Queens 11417
(212)675-1000
Handicap Accessible",107-14 Liberty Avenue Queens 11417,(212)675-1000,11417
163,SHELTERING ARMS CHILDREN AND FAMILY SERVICES,"Distance: 10.84 miles
89-74 162nd Street Queens 11432
(212)675-1000
Handicap Accessible",89-74 162nd Street Queens 11432,(212)675-1000,11432
164,SHILOH CONSULTING LLC,"Distance: 0.53 miles
566 Seventh Avenue, 4th Floor New York 10018
(212)564-7631
Handicap Accessible","566 Seventh Avenue, 4th Floor New York 10018",(212)564-7631,10018
165,ST. MARK'S PLACE INSTITUTE FOR MENTAL HEALTH,"Distance: 1.49 miles
57 Saint Marks Pl New York 10003
(212)982-3470
Handicap Accessible",57 Saint Marks Pl New York 10003,(212)982-3470,10003
166,START TREATMENT AND RECOVERY CENTERS,"Distance: 4.81 miles
1149-55 Myrtle Ave Brooklyn 11206
(718)260-2927
Handicap Accessible",1149-55 Myrtle Ave Brooklyn 11206,(718)260-2927,11206
167,START TREATMENT AND RECOVERY CENTERS,"Distance: 4.79 miles
937 Fulton St Brooklyn 11238
(718)260-2927
Handicap Accessible",937 Fulton St Brooklyn 11238,(718)260-2927,11238
168,SUN RIVER HEALTH,"Distance: 7.31 miles
1543-1545 Inwood Avenue Bronx 10452
(855)681-8700
Handicap Accessible",1543-1545 Inwood Avenue Bronx 10452,(855)681-8700,10452
169,"THE BRIDGE, INC","Distance: 5.05 miles
551 West 125th Street New York 10025
(212)663-3000
Handicap Accessible",551 West 125th Street New York 10025,(212)663-3000,10025
170,THE CHILDREN'S AID SOCIETY,"Distance: 4.56 miles
14-32 118th Street New York 10026
(347)767-2200
Handicap Accessible",14-32 118th Street New York 10026,(347)767-2200,10026
171,THE INSTITUTE FOR FAMILY HEALTH,"Distance: 3.7 miles
300 Cadman Plaza West, 17th Floor Brooklyn 11201
(844)434-2778
Handicap Accessible","300 Cadman Plaza West, 17th Floor Brooklyn 11201",(844)434-2778,11201
172,"THE NEW HORIZON COUNSELING CENTER, INC.","Distance: 14.48 miles
115-02 Ocean Promenade, Park Inn H.F.A. Far Rockaway 11694
(718)634-6081
Handicap Accessible","115-02 Ocean Promenade, Park Inn H.F.A. Far Rockaway 11694",(718)634-6081,11694
173,THE NEW YORK FOUNDLING,"Distance: 9.75 miles
119 Tompkins Avenue Staten Island 10304
(718)772-0280
Handicap Accessible",119 Tompkins Avenue Staten Island 10304,(718)772-0280,10304
174,WAVERLY CLINIC SATELLITE AT JERUSALEM AVENUE (NYSOMH),"Distance: 24.04 miles
2351 Jerusalem Avenue Bellmore 11710
(631)654-2077
Handicap Accessible",2351 Jerusalem Avenue Bellmore 11710,(631)654-2077,11710
175,WILLIAM F RYAN COMMUNITY HEALTH CENTER INC,"Distance: 2.06 miles
279 East 3rd Street New York 10009
(212)477-8500
Handicap Accessible",279 East 3rd Street New York 10009,(212)477-8500,10009
176,WILLIAM F RYAN COMMUNITY HEALTH CENTER INC,"Distance: 3.61 miles
801 Amsterdam Avenue New York 10025
(212)749-1820
Handicap Accessible",801 Amsterdam Avenue New York 10025,(212)749-1820,10025
177,ADVANCED CENTER FOR PSYCHOTHERAPY,"Distance: 7.9 miles
103-26 68th Road Forest Hills 11375
(718)261-3330
Handicap Accessible",103-26 68th Road Forest Hills 11375,(718)261-3330,11375
178,"ARGUS COMMUNITY, INC.","Distance: 5.11 miles
2015 Madison Avenue, 1st Floor New York 10035
(212)690-4625
Handicap Accessible","2015 Madison Avenue, 1st Floor New York 10035",(212)690-4625,10035
179,ASSOCIATION TO BENEFIT CHILDREN,"Distance: 7.53 miles
1366 Inwood Ave Bronx 10452
(646)459-6165
Handicap Accessible",1366 Inwood Ave Bronx 10452,(646)459-6165,10452
180,ASTOR SERVICES FOR CHILDREN & FAMILIES,"Distance: 5.57 miles
333 East 135th Street, Room 136A Bronx 10454
(718)231-3400
Handicap Accessible","333 East 135th Street, Room 136A Bronx 10454",(718)231-3400,10454
181,ASTOR SERVICES FOR CHILDREN & FAMILIES,"Distance: 10.81 miles
650 Hollywood Avenue, Room 422 Bronx 10465
(718)231-3400
Handicap Accessible","650 Hollywood Avenue, Room 422 Bronx 10465",(718)231-3400,10465
182,ASTOR SERVICES FOR CHILDREN & FAMILIES,"Distance: 7.46 miles
730 Bryant Avenue Bronx 10474
(718)231-3400
Handicap Accessible",730 Bryant Avenue Bronx 10474,(718)231-3400,10474
183,"BAILEY HOUSE, INC.","Distance: 4.79 miles
1751 Park Ave New York 10035
(212)289-6008
Handicap Accessible",1751 Park Ave New York 10035,(212)289-6008,10035
184,BETANCES HEALTH CENTER,"Distance: 2.5 miles
280 Henry Street New York 10002
(212)227-8401
Handicap Accessible",280 Henry Street New York 10002,(212)227-8401,10002
185,BLANTON-PEALE INSTITUTE,"Distance: 0.52 miles
7 West 30th Street, Floors 9 and 10 New York 10001
(212)725-7850
Handicap Accessible","7 West 30th Street, Floors 9 and 10 New York 10001",(212)725-7850,10001
186,BRIDGING ACCESS TO CARE,"Distance: 8.85 miles
2261 Church Ave NY 11236
(347)505-5000
Handicap Accessible",2261 Church Ave NY 11236,(347)505-5000,11236
187,BRIDGING ACCESS TO CARE,"Distance: 7.29 miles
Home and Community Based Locations Bronx 10456
(347)505-5000
Handicap Accessible",Home and Community Based Locations Bronx 10456,(347)505-5000,10456
188,BRONX PSYCHIATRIC CENTER (NYSOMH),"Distance: 10.52 miles
3050 White Plains Road, 2nd Fl Bronx 10467
(718)944-7115
Handicap Accessible","3050 White Plains Road, 2nd Fl Bronx 10467",(718)944-7115,10467
189,CHILDRENS AID SOCIETY,"Distance: 8.13 miles
910 E 172 Street Bronx 10460
(347)767-2200
Handicap Accessible",910 E 172 Street Bronx 10460,(347)767-2200,10460
190,COMMUNITY COUNSELING & MEDITATION,"Distance: 0.75 miles
15 W 39th St, 2FL New York 10018
(212)564-6006
Handicap Accessible","15 W 39th St, 2FL New York 10018",(212)564-6006,10018
191,FORTUNE SOCIETY INC,"Distance: 5.69 miles
625 West 140th Street, 1st Floor New York 10031
(212)862-0614
Handicap Accessible","625 West 140th Street, 1st Floor New York 10031",(212)862-0614,10031
192,HAMASPIK OF KINGS COUNTY,"Distance: 3.55 miles
295 Division Ave. Brooklyn 11211
(718) 80-9989
Handicap Accessible",295 Division Ave. Brooklyn 11211,(718) 80-9989,11211
193,"HOUSING WORKS HEALTH SERVICES III, INC.","Distance: 1.93 miles
743-749 East 9th Street New York 10009
(212)645-8111
Handicap Accessible",743-749 East 9th Street New York 10009,(212)645-8111,10009
194,INSTITUTE FOR COMMUNITY LIVING,"Distance: 7.16 miles
2581 Atlantic Avenue Brooklyn 11207
(718)495-6700
Handicap Accessible",2581 Atlantic Avenue Brooklyn 11207,(718)495-6700,11207
196,"INTERBOROUGH DEVELOPMENTAL & CONSULTATION CENTER, INC","Distance: 6.78 miles
921 East New York Ave Brooklyn 11203
(718)778-0485
Handicap Accessible",921 East New York Ave Brooklyn 11203,(718)778-0485,11203
197,JEWISH ASSOCIATION FOR SERVICES FOR THE AGED,"Distance: 9.57 miles
1 Fordham Plaza Bronx 10458
(913)308-0848
Handicap Accessible",1 Fordham Plaza Bronx 10458,(913)308-0848,10458
198,"JEWISH BOARD OF FAMILY AND CHILDREN'S SERVICES, INC.","Distance: 14.48 miles
1765 South Avenue Staten Island 10314
(718)761-9800
Handicap Accessible",1765 South Avenue Staten Island 10314,(718)761-9800,10314
199,"JEWISH BOARD OF FAMILY AND CHILDREN'S SERVICES, INC.","Distance: 12.04 miles
2928 West 36th Street Brooklyn 11224
(718)372-3300
Handicap Accessible",2928 West 36th Street Brooklyn 11224,(718)372-3300,11224
200,JEWISH CHILD CARE ASSOCIATION OF NEW YORK,"Distance: 3.06 miles
120 Wall St., 20th Floor; Limitation: Not Accepti New York 10005
(917)808-4800
Handicap Accessible","120 Wall St., 20th Floor; Limitation: Not Accepti New York 10005",(917)808-4800,10005
201,JEWISH CHILD CARE ASSOCIATION OF NEW YORK,"Distance: 8.61 miles
870 E. 29th St. Brooklyn 11210
(917)808-4800
Handicap Accessible",870 E. 29th St. Brooklyn 11210,(917)808-4800,11210
202,"JULIA DYCKMAN ANDURS MEMORIAL, INC.","Distance: 16.89 miles
1 Montclair Place, Room 14A Yonkers 10710
(914)528-2021
Handicap Accessible","1 Montclair Place, Room 14A Yonkers 10710",(914)528-2021,10710
203,"JULIA DYCKMAN ANDURS MEMORIAL, INC.","Distance: 14.53 miles
260 Warburton Avenue, Room 121B Yonkers 10701
(914)528-2021
Handicap Accessible","260 Warburton Avenue, Room 121B Yonkers 10701",(914)528-2021,10701
204,"JULIA DYCKMAN ANDURS MEMORIAL, INC.","Distance: 14.44 miles
27 Poplar Street, Room 131C Yonkers 10701
(914)528-2021
Handicap Accessible","27 Poplar Street, Room 131C Yonkers 10701",(914)528-2021,10701
205,"JULIA DYCKMAN ANDURS MEMORIAL, INC.","Distance: 30.02 miles
30 Ryder Road, Stage Office 1 Ossining 10562
(914)528-2021
Handicap Accessible","30 Ryder Road, Stage Office 1 Ossining 10562",(914)528-2021,10562
206,"JULIA DYCKMAN ANDURS MEMORIAL, INC.","Distance: 39.34 miles
3401 Old Yorktown Road, Room 217A Yorktown Heights 10598
(914)965-1109
Handicap Accessible","3401 Old Yorktown Road, Room 217A Yorktown Heights 10598",(914)965-1109,10598
207,"JULIA DYCKMAN ANDURS MEMORIAL, INC.","Distance: 15.3 miles
579 Wartburton Avenue, Room 12C Yonkers 10701
(914)528-2021
Handicap Accessible","579 Wartburton Avenue, Room 12C Yonkers 10701",(914)528-2021,10701
208,METROPOLITAN CENTER FOR MENTAL HEALTH INC,"Distance: 3.31 miles
336 Central Park West New York 10025
(212)543-0004
Handicap Accessible",336 Central Park West New York 10025,(212)543-0004,10025
209,MONTEFIORE MEDICAL CENTER,"Distance: 12.86 miles
4401 Bronx Boulevard Bronx 10470
(718)920-4321
Handicap Accessible",4401 Bronx Boulevard Bronx 10470,(718)920-4321,10470
210,MOUNT SINAI HOSPITAL,"Distance: 3.68 miles
1 Gustave L Levy Place New York 10029
(212)241-6500
Handicap Accessible",1 Gustave L Levy Place New York 10029,(212)241-6500,10029
211,"NEW HORIZON COUNSELING CENTER, INC.","Distance: 10.05 miles
156-28 Cross Bay Boulevard Howard Beach 11414
(718)471-8671
Handicap Accessible",156-28 Cross Bay Boulevard Howard Beach 11414,(718)471-8671,11414
212,"NORTHSIDE CENTER FOR CHILD DEVELPOMENT, INC.","Distance: 4.01 miles
1573 Madison Avenue, Room 120C New York 10029
(212)426-3400
Handicap Accessible","1573 Madison Avenue, Room 120C New York 10029",(212)426-3400,10029
213,NORTHWELL / LIJ ZUCKER HILLSIDE HOSPITAL,"Distance: 14.94 miles
75-59 263rd Street, Amb Care Pavilion Bsmt Glen Oaks 11004
(718)470-8120
Handicap Accessible","75-59 263rd Street, Amb Care Pavilion Bsmt Glen Oaks 11004",(718)470-8120,11004
214,NORTHWELL / LONG ISLAND JEWISH MEDICAL CENTER,"Distance: 15.2 miles
270-05 76th Ave New Hyde Park 11040
(718)470-4747
Handicap Accessible",270-05 76th Ave New Hyde Park 11040,(718)470-4747,11040
215,NORTHWELL / LONG ISLAND JEWISH MEDICAL CENTER,"Distance: 7.71 miles
999 Jamaica Ave, Brooklyn Brooklyn 11208
(718)235-1087
Handicap Accessible","999 Jamaica Ave, Brooklyn Brooklyn 11208",(718)235-1087,11208
216,NORTHWELL / NORTHERN WESTCHESTER HOSPITAL ASSOCIATION,"Distance: 34.09 miles
400 East Main Street Mount Kisco 10549
(914)666-1200
Handicap Accessible",400 East Main Street Mount Kisco 10549,(914)666-1200,10549
217,NYC HEALTH + HOSPITALS / BELLEVUE,"Distance: 1.28 miles
462 1st Ave New York 10016
(212)562-5555
Handicap Accessible",462 1st Ave New York 10016,(212)562-5555,10016
218,"NYC HEALTH + HOSPITALS / GOUVERNEUR, A GOTHAM HEALTH CENTER","Distance: 2.48 miles
227 Madison Street New York 10002
(212)238-7000
Handicap Accessible",227 Madison Street New York 10002,(212)238-7000,10002
219,NYC HEALTH + HOSPITALS / QUEENS,"Distance: 10.02 miles
75-02 162nd Street Flushing 11366
(718)883-3000
Handicap Accessible",75-02 162nd Street Flushing 11366,(718)883-3000,11366
220,NYU LANGONE HOSPITALS,"Distance: 1.26 miles
550 First Avenue New York 10016
(646)929-7800
Handicap Accessible",550 First Avenue New York 10016,(646)929-7800,10016
221,"PARK SLOPE CENTER FOR MENTAL HEALTH, INC.","Distance: 5.79 miles
257 15th Street Brooklyn 11215
(718)788-5101
Handicap Accessible",257 15th Street Brooklyn 11215,(718)788-5101,11215
222,PESACH TIKVAH HOPE DEVELOPMENT INC.,"Distance: 8.03 miles
1533 48th Street Suite 203 Brooklyn 11219
(718)875-6900
Handicap Accessible",1533 48th Street Suite 203 Brooklyn 11219,(718)875-6900,11219
223,PESACH TIKVAH HOPE DEVELOPMENT INC.,"Distance: 3.97 miles
18 Middleton Street Brooklyn 11206
(718)875-6900
Handicap Accessible",18 Middleton Street Brooklyn 11206,(718)875-6900,11206
224,PESACH TIKVAH HOPE DEVELOPMENT INC.,"Distance: 3.99 miles
414 Flushing Avenue Rm 213 Brooklyn 11205
(718)875-6900
Handicap Accessible",414 Flushing Avenue Rm 213 Brooklyn 11205,(718)875-6900,11205
225,PESACH TIKVAH HOPE DEVELOPMENT INC.,"Distance: 9.1 miles
5110 18th Avenue Rm 27A Brooklyn 11204
(718)875-6900
Handicap Accessible",5110 18th Avenue Rm 27A Brooklyn 11204,(718)875-6900,11204
226,POST GRADUATE CENTER FOR MENTAL HEALTH,"Distance: 0.41 miles
213 West 35th Street, Suite 403 New York 10001
(212)576-4104
Handicap Accessible","213 West 35th Street, Suite 403 New York 10001",(212)576-4104,10001
227,"PUERTO RICAN FAMILY INSTITUTE, INC.","Distance: 8.45 miles
4123 Third Avenue Bronx 10457
(212)924-6320
Handicap Accessible",4123 Third Avenue Bronx 10457,(212)924-6320,10457
228,"PUERTO RICAN ORGANIZATION TO MOTIVATE, ENLIGHTEN AND SERVE ADDICTS, INC","Distance: 5.22 miles
561 Court St. 1st - 4th FL. Brooklyn 11231
(718)780-7421
Handicap Accessible",561 Court St. 1st - 4th FL. Brooklyn 11231,(718)780-7421,11231
229,RICHMOND UNIVERSITY MEDICAL CENTER,"Distance: 9.74 miles
690 Castleton Avenue Staten Island 10310
(718)818-1234
Handicap Accessible",690 Castleton Avenue Staten Island 10310,(718)818-1234,10310
230,ROCKLAND PSYCHIATRIC CENTER (NYSOMH),"Distance: 66.57 miles
26 Oakley Street Poughkeepsie 12601
(518)549-5272
Handicap Accessible",26 Oakley Street Poughkeepsie 12601,(518)549-5272,12601
231,SAMARITAN DAYTOP VILLAGE INC,"Distance: 10.27 miles
144-10 Jamaica Ave Jamaica 11435
(718)292-4455
Handicap Accessible",144-10 Jamaica Ave Jamaica 11435,(718)292-4455,11435
232,SAMARITAN DAYTOP VILLAGE INC,"Distance: 6.55 miles
477 Willis Avenue Bronx 10455
(718)292-4640
Handicap Accessible",477 Willis Avenue Bronx 10455,(718)292-4640,10455
233,"SAMUEL FIELD YM & YWHA, INC.","Distance: 14.36 miles
59-28 Little Neck Parkway Little Neck 11362
(718)445-6983
Handicap Accessible",59-28 Little Neck Parkway Little Neck 11362,(718)445-6983,11362
234,ST LUKE'S ROOSEVELT HOSPITAL,"Distance: 1.56 miles
1000 10th Ave New York 10019
(212)523-4000
Handicap Accessible",1000 10th Ave New York 10019,(212)523-4000,10019
235,START TREATMENT AND RECOVERY CENTERS,"Distance: 4.91 miles
119-121 W 124th St New York 10027
(718)260-2927
Handicap Accessible",119-121 W 124th St New York 10027,(718)260-2927,10027
236,"THE BRIDGE, INC","Distance: 4.89 miles
72 West 125th Street, Lower Level New York 10027
(212)663-3000
Handicap Accessible","72 West 125th Street, Lower Level New York 10027",(212)663-3000,10027
237,THE BROOKDALE HOSPITAL MEDICAL CENTER,"Distance: 6.24 miles
One Brooklyn Health System, Inc. Brooklyn 11213
(347)585-6563
Handicap Accessible","One Brooklyn Health System, Inc. Brooklyn 11213",(347)585-6563,11213
238,"THE CHILD CENTER OF NY, INC.","Distance: 10.95 miles
163-18 Jamaica Avenue 2nd Floor Jamaica 11432
(718)297-8000
Handicap Accessible",163-18 Jamaica Avenue 2nd Floor Jamaica 11432,(718)297-8000,11432
239,THE ELIZABETH L STURZ OUTPATIENT CTR,"Distance: 6.91 miles
760 E 160th St. Bronx 10456
(718)401-5700
Handicap Accessible",760 E 160th St. Bronx 10456,(718)401-5700,10456
240,"THE NEW HORIZON COUNSELING CENTER, INC.","Distance: 14.88 miles
245 Beach 79th Street, Room149A Far Rockaway 11693
(718)845-2620
Handicap Accessible","245 Beach 79th Street, Room149A Far Rockaway 11693",(718)845-2620,11693
241,"TRANSITIONAL SERVICES FOR NEW YORK, INC.","Distance: 14.29 miles
242-01 Braddock Avenue Bellerose 11427
(718)526-8400
Handicap Accessible",242-01 Braddock Avenue Bellerose 11427,(718)526-8400,11427
242,UNION SETTLEMENT/JOHNSON COUNSELING CENTER,"Distance: 4.37 miles
1829 Lexington Avenue New York 10029
(212)828-6144
Handicap Accessible",1829 Lexington Avenue New York 10029,(212)828-6144,10029
243,UNION SETTLEMENT/JOHNSON COUNSELING CENTER,"Distance: 3.67 miles
1893 Second Avenue New York 10029
(212)828-6144
Handicap Accessible",1893 Second Avenue New York 10029,(212)828-6144,10029
244,"VIP COMMUNITY SERVICES, INC.","Distance: 8.55 miles
764 E 176th St Bronx 10460
(718)542-8700
Handicap Accessible",764 E 176th St Bronx 10460,(718)542-8700,10460
245,VISITING NURSE SERVICE OF NEW YORK HOME CARE,"Distance: 4.91 miles
148 West 125th Street New York 10027
(212)609-7840
Handicap Accessible",148 West 125th Street New York 10027,(212)609-7840,10027
246,VISITING NURSE SERVICE OF NEW YORK HOME CARE II,"Distance: 9.79 miles
1630 East 15th Street Brooklyn 11229
(212)290-6565
Handicap Accessible",1630 East 15th Street Brooklyn 11229,(212)290-6565,11229
247,"VOCATIONAL INSTRUCTION PROJECT COMMUNITY SERVICES, INC","Distance: 8.63 miles
1910 Arthur Avenune Bronx 10457
(718)542-8700
Handicap Accessible",1910 Arthur Avenune Bronx 10457,(718)542-8700,10457
248,"WELLLIFE NETWORK, INC.","Distance: 43.06 miles
11 Route 111, 1st Floor Smithtown 11787
(631)920-8300
Handicap Accessible","11 Route 111, 1st Floor Smithtown 11787",(631)920-8300,11787
249,WESTCHESTER JEWISH COMMUNITY SERVICES,"Distance: 13.06 miles
75 Morris Street Yonkers 10705
(914)376-8174
Handicap Accessible",75 Morris Street Yonkers 10705,(914)376-8174,10705
250,AHAVA MEDICAL & REHABILITATION LLC,"Distance: 9.11 miles
2555 Nostrand Avenue Brooklyn 11210
(718)951-8800
Handicap Accessible",2555 Nostrand Avenue Brooklyn 11210,(718)951-8800,11210
251,"AIDS CENTER OF QUEENS COUNTY, INC.","Distance: 4.96 miles
62-07 Woodside Avenue, 3rd Floor Woodside 11377
(718)472-9400
Handicap Accessible","62-07 Woodside Avenue, 3rd Floor Woodside 11377",(718)472-9400,11377
252,ASSOCIATION TO BENEFIT CHILDREN,"Distance: 4.45 miles
158 East 115th Steet, 1st Floor New York 10029
(646)459-6165
Handicap Accessible","158 East 115th Steet, 1st Floor New York 10029",(646)459-6165,10029
253,ASSOCIATION TO BENEFIT CHILDREN,"Distance: 3.2 miles
419 East 86th Street New York 10028
(646)459-6165
Handicap Accessible",419 East 86th Street New York 10028,(646)459-6165,10028
254,ASTOR SERVICES FOR CHILDREN & FAMILIES,"Distance: 8.51 miles
1551 East 172nd Street, Room 216 C Bronx 10472
(718)231-3400
Handicap Accessible","1551 East 172nd Street, Room 216 C Bronx 10472",(718)231-3400,10472
255,ASTOR SERVICES FOR CHILDREN & FAMILIES,"Distance: 8.83 miles
885 Bolton Avenue, Room 101A Bronx 10473
(718)231-3400
Handicap Accessible","885 Bolton Avenue, Room 101A Bronx 10473",(718)231-3400,10473
256,BETH ISRAEL MEDICAL CENTER,"Distance: 1.25 miles
First Avenue at 16th Street New York 10003
(718)252-3000
Handicap Accessible",First Avenue at 16th Street New York 10003,(718)252-3000,10003
257,"BEVERLEY MACK HARRY CONSULTING SERVICES, INC.","Distance: 6.66 miles
738 Crown Street Brooklyn 11213
(718)363-0100
Handicap Accessible",738 Crown Street Brooklyn 11213,(718)363-0100,11213
258,BRIDGING ACCESS TO CARE,"Distance: 3.37 miles
260 Broadway Brooklyn 11211
(347)505-5000
Handicap Accessible",260 Broadway Brooklyn 11211,(347)505-5000,11211
259,C.C.M.S.,"Distance: 5.55 miles
810 Classon Ave Brooklyn 11238
(718)802-0666
Handicap Accessible",810 Classon Ave Brooklyn 11238,(718)802-0666,11238
260,"CATHOLIC CHARITIES NEIGHBORHOOD SERVICES, INC.","Distance: 10.87 miles
161-10 Jamaica Avenue, 2nd Floor Jamaica 11432
(718)722-6001
Handicap Accessible","161-10 Jamaica Avenue, 2nd Floor Jamaica 11432",(718)722-6001,11432
261,"CATHOLIC CHARITIES NEIGHBORHOOD SERVICES, INC.","Distance: 6.21 miles
5440 74th Street - Rooms 433C, 433D, 433E Maspeth 11373
(718)722-6001
Handicap Accessible","5440 74th Street - Rooms 433C, 433D, 433E Maspeth 11373",(718)722-6001,11373
262,"CATHOLIC CHARITIES NEIGHBORHOOD SERVICES, INC.","Distance: 6.34 miles
91-14 37th Avenue Jackson Heights 11372
(718)722-6001
Handicap Accessible",91-14 37th Avenue Jackson Heights 11372,(718)722-6001,11372
263,CATHOLIC GUARDIAN SERVICES,"Distance: 1.83 miles
1011 First Avenue, 10th Floor New York 10022
(212)371-1011
Handicap Accessible","1011 First Avenue, 10th Floor New York 10022",(212)371-1011,10022
264,"CHILDREN OF PROMISE, NYC","Distance: 8.55 miles
1842 Webster Ave Bronx 10457
(718)483-9290
Handicap Accessible",1842 Webster Ave Bronx 10457,(718)483-9290,10457
265,CHILDRENS AID SOCIETY,"Distance: 4.38 miles
14-32 W. 118 Street New York 10026
(347)767-2200
Handicap Accessible",14-32 W. 118 Street New York 10026,(347)767-2200,10026
266,"COMMUNITY ASSOCIATION OF PROGRESSIVE DOMINICANS, INC.","Distance: 6.94 miles
3940 Broadway, 2nd Floor New York 10032
(212)781-5500
Handicap Accessible","3940 Broadway, 2nd Floor New York 10032",(212)781-5500,10032
267,FLUSHING HOSPITAL MEDICAL CENTER,"Distance: 9.44 miles
146-01 45th Avenue Flushing 11355
(718)670-5000
Handicap Accessible",146-01 45th Avenue Flushing 11355,(718)670-5000,11355
268,FORTUNE SOCIETY INC,"Distance: 3.26 miles
29-76 Northern Blvd, 2nd FL. Long Island City 11101
(212)691-7554
Handicap Accessible","29-76 Northern Blvd, 2nd FL. Long Island City 11101",(212)691-7554,11101
271,INSTITUTE FOR COMMUNITY LIVING,"Distance: 12.23 miles
777 Seaview Ave. Staten Island 10305
(212)385-3030
Handicap Accessible",777 Seaview Ave. Staten Island 10305,(212)385-3030,10305
272,INTENSIVE DAY TREATMENT PROGRAM (NYSOMH),"Distance: 31.6 miles
197 Half Hollow Road Dix Hills 11746
(631)370-1883
Handicap Accessible",197 Half Hollow Road Dix Hills 11746,(631)370-1883,11746
273,"INTERBOROUGH DEVELOPMENTAL & CONSULTATION CENTER, INC","Distance: 11.81 miles
2846 Stillwell Ave Brooklyn 11224
(718)975-4888
Handicap Accessible",2846 Stillwell Ave Brooklyn 11224,(718)975-4888,11224
274,JAMAICA HOSPITAL MEDICAL CENTER,"Distance: 10.02 miles
8900 Van Wyck Expressway Jamaica 11418
(718)206-6000
Handicap Accessible",8900 Van Wyck Expressway Jamaica 11418,(718)206-6000,11418
275,JEWISH ASSOCIATION FOR SERVICES FOR THE AGED,"Distance: 10.2 miles
2705 Schley Avenue Bronx 10465
(913)308-0848
Handicap Accessible",2705 Schley Avenue Bronx 10465,(913)308-0848,10465
276,"JEWISH BOARD OF FAMILY AND CHILDREN'S SERVICES, INC.","Distance: 2.45 miles
34 Chambers Street, Room 236P New York 10282
(212)632-4646
Handicap Accessible","34 Chambers Street, Room 236P New York 10282",(212)632-4646,10282
277,"JEWISH BOARD OF FAMILY AND CHILDREN'S SERVICES, INC.","Distance: 5.6 miles
34 West 139th Street New York 10037
(212)690-7234
Handicap Accessible",34 West 139th Street New York 10037,(212)690-7234,10037
278,"JEWISH BOARD OF FAMILY AND CHILDREN'S SERVICES, INC.","Distance: 9.32 miles
5030 Broadway New York 10034
(212)795-9888
Handicap Accessible",5030 Broadway New York 10034,(212)795-9888,10034
279,"JEWISH BOARD OF FAMILY AND CHILDREN'S SERVICES, INC.","Distance: 7.37 miles
928 Simpson St, Rm 226C Bronx 10459
(718)893-5178
Handicap Accessible","928 Simpson St, Rm 226C Bronx 10459",(718)893-5178,10459
280,"JEWISH BOARD OF FAMILY AND CHILDREN'S SERVICES, INC.","Distance: 7.37 miles
97-77 Queens Blvd Rego Park 11374
(718)896-9090
Handicap Accessible",97-77 Queens Blvd Rego Park 11374,(718)896-9090,11374
281,JEWISH CHILD CARE ASSOCIATION OF NEW YORK,"Distance: 6.24 miles
555 Bergen Ave. Bronx 10455
(917)808-4800
Handicap Accessible",555 Bergen Ave. Bronx 10455,(917)808-4800,10455
282,"JULIA DYCKMAN ANDURS MEMORIAL, INC.","Distance: 40.5 miles
3634 Lexington Avenue, Office A Mohegan Lake 10547
(914)528-2021
Handicap Accessible","3634 Lexington Avenue, Office A Mohegan Lake 10547",(914)528-2021,10547
283,"JULIA DYCKMAN ANDURS MEMORIAL, INC.","Distance: 38.1 miles
50 Dayton Lane Peekskill 10566
(914)965-1109
Handicap Accessible",50 Dayton Lane Peekskill 10566,(914)965-1109,10566
284,"LAFAYETTE MEDICAL APPROACH, LLC","Distance: 1.8 miles
233 Lafayette Street New York 10012
(212)966-7193
Handicap Accessible",233 Lafayette Street New York 10012,(212)966-7193,10012
285,"MENTAL HEALTH PROVIDERS OF WESTERN QUEENS, INC.","Distance: 4.02 miles
44-04 Queens Boulevard, 2nd Floor Sunnyside 11104
(718)706-1663
Handicap Accessible","44-04 Queens Boulevard, 2nd Floor Sunnyside 11104",(718)706-1663,11104
286,MIH EXPERIENCE LTD,"Distance: 8.47 miles
4580 Broadway New York 10040
(212)928-2020
Handicap Accessible",4580 Broadway New York 10040,(212)928-2020,10040
288,MONTEFIORE MEDICAL CENTER,"Distance: 10.57 miles
1510 Waters Pl Bronx 10461
(718)920-4321
Handicap Accessible",1510 Waters Pl Bronx 10461,(718)920-4321,10461
289,MONTEFIORE MEDICAL CENTER,"Distance: 8.98 miles
1967 Turnbull Avenue Bronx 10473
(718)920-4231
Handicap Accessible",1967 Turnbull Avenue Bronx 10473,(718)920-4231,10473
290,MONTEFIORE MEDICAL CENTER,"Distance: 12.86 miles
4401 Bronx Boulevard Bronx 10466
(718)920-4231
Handicap Accessible",4401 Bronx Boulevard Bronx 10466,(718)920-4231,10466
291,"MORRIS HEIGHTS HEALTH CENTER, INC.","Distance: 8.64 miles
57-69 West Burnside Avenue Bronx 10453
(718)716-4400
Handicap Accessible",57-69 West Burnside Avenue Bronx 10453,(718)716-4400,10453
292,"NEW HORIZON COUNSELING CENTER, INC.","Distance: 43.06 miles
11 Route 111 Smithtown 11780
(718)471-8671
Handicap Accessible",11 Route 111 Smithtown 11780,(718)471-8671,11780
293,NEW YORK CITY CHILDREN'S CENTER (NYSOMH),"Distance: 6.45 miles
595 Gerard Avenue Bronx 10451
(929)348-4560
Handicap Accessible",595 Gerard Avenue Bronx 10451,(929)348-4560,10451
294,NEW YORK PSYCHOTHERAPY AND COUNSELING CENTER,"Distance: 5.92 miles
80-20 45th Avenue Elmhurst 11373
(718)482-2100
Handicap Accessible",80-20 45th Avenue Elmhurst 11373,(718)482-2100,11373
295,"NNCC DBA NEIGHBORHOOD COUNSELING CENTER, INC.","Distance: 8.99 miles
7701 13th Avenue Brooklyn 11228
(718)232-1351
Handicap Accessible",7701 13th Avenue Brooklyn 11228,(718)232-1351,11228
296,NORTHWELL / LIJ ZUCKER HILLSIDE HOSPITAL,"Distance: 14.94 miles
75-59 263rd Street Glen Oaks 11004
(718)470-8130
Handicap Accessible",75-59 263rd Street Glen Oaks 11004,(718)470-8130,11004
298,NORTHWELL / LONG ISLAND JEWISH MEDICAL CENTER,"Distance: 15.91 miles
821 Bay 25th St, Far Rockaway Far Rockaway 11691
(718)337-9441
Handicap Accessible","821 Bay 25th St, Far Rockaway Far Rockaway 11691",(718)337-9441,11691
299,NORTHWELL / PHELPS MEMORIAL HOSPITAL,"Distance: 25.92 miles
701 North Broadway Sleepy Hollow 10591
(914)366-3565
Handicap Accessible",701 North Broadway Sleepy Hollow 10591,(914)366-3565,10591
301,NYC HEALTH + HOSPITALS / ELMHURST,"Distance: 5.82 miles
79-01 Broadway Elmhurst 11373
(718)334-5597
Handicap Accessible",79-01 Broadway Elmhurst 11373,(718)334-5597,11373
302,NYC HEALTH + HOSPITALS / KINGS COUNTY,"Distance: 7.41 miles
Home and Community based Locations Brooklyn 11203
(718)579-4061
Handicap Accessible",Home and Community based Locations Brooklyn 11203,(718)579-4061,11203
303,NYC HEALTH + HOSPITALS / QUEENS,"Distance: 3.94 miles
100 N Portland Ave Brooklyn 11205
(718)579-4061
Handicap Accessible",100 N Portland Ave Brooklyn 11205,(718)579-4061,11205
304,NYC HEALTH + HOSPITALS / QUEENS,"Distance: 10.29 miles
82-50 164th Street Jamaica 11432
(718)579-4061
Handicap Accessible",82-50 164th Street Jamaica 11432,(718)579-4061,11432
305,NYU HOSPITALS CENTER DBA NYU LUTHERAN FAMILY HEALTH CENTER QUALITY CARE GROUP,"Distance: 7.71 miles
6025 6th Ave, 1st & 2nd Fl Brooklyn 11220
(718)630-7991
Handicap Accessible","6025 6th Ave, 1st & 2nd Fl Brooklyn 11220",(718)630-7991,11220
306,"PARK SLOPE CENTER FOR MENTAL HEALTH, INC.","Distance: 5.8 miles
348 13th Street, Suite 202 & 203 Brooklyn 11215
(718)788-5101
Handicap Accessible","348 13th Street, Suite 202 & 203 Brooklyn 11215",(718)788-5101,11215
307,PESACH TIKVAH HOPE DEVELOPMENT INC.,"Distance: 7.91 miles
1353 50th Street Rm 103 Brooklyn 11219
(718)875-6900
Handicap Accessible",1353 50th Street Rm 103 Brooklyn 11219,(718)875-6900,11219
308,PESACH TIKVAH HOPE DEVELOPMENT INC.,"Distance: 8.67 miles
1774 58th Street Rm 403 Brooklyn 11204
(718)875-6900
Handicap Accessible",1774 58th Street Rm 403 Brooklyn 11204,(718)875-6900,11204
309,PESACH TIKVAH HOPE DEVELOPMENT INC.,"Distance: 3.47 miles
206 Wilson Street, Room 310 Brooklyn 11211
(718)875-6900
Handicap Accessible","206 Wilson Street, Room 310 Brooklyn 11211",(718)875-6900,11211
310,PESACH TIKVAH HOPE DEVELOPMENT INC.,"Distance: 3.83 miles
762 Wythe Avenue, Room 516 Brooklyn 11249
(718)875-6900
Handicap Accessible","762 Wythe Avenue, Room 516 Brooklyn 11249",(718)875-6900,11249
311,PILGRIM PSYCHIATRIC CENTER (NYSOMH),"Distance: 37.27 miles
998 Crooked Hill Road, Building 47 West Brentwood 11717
(631)761-2581
Handicap Accessible","998 Crooked Hill Road, Building 47 West Brentwood 11717",(631)761-2581,11717
312,RICHMOND UNIVERSITY MEDICAL CENTER,"Distance: 9.63 miles
669 Castleton Avenue Staten Island 10301
(718)818-1234
Handicap Accessible",669 Castleton Avenue Staten Island 10301,(718)818-1234,10301
313,ROCKLAND CHILDREN'S PSYCHIATRIC CENTER (NYSOMH),"Distance: 13.6 miles
75 Riverdale Ave, VIVE School, Rm 210, 211, 212, Yonkers 10701
(914)721-8788
Handicap Accessible","75 Riverdale Ave, VIVE School, Rm 210, 211, 212, Yonkers 10701",(914)721-8788,10701
314,SAMARITAN DAYTOP VILLAGE INC,"Distance: 10.27 miles
144-10 Jamaica Avenue Jamaica 11435
(718)206-1990
Handicap Accessible",144-10 Jamaica Avenue Jamaica 11435,(718)206-1990,11435
315,SAMARITAN DAYTOP VILLAGE INC,"Distance: 4.87 miles
2090 Adam Clayton Powell Blvd New York 10027
(212)864-4128
Handicap Accessible",2090 Adam Clayton Powell Blvd New York 10027,(212)864-4128,10027
316,SAMARITAN DAYTOP VILLAGE INC,"Distance: 10.33 miles
2614-16 Halperin Ave Bronx 10461
(718)292-4455
Handicap Accessible",2614-16 Halperin Ave Bronx 10461,(718)292-4455,10461
317,SAMARITAN DAYTOP VILLAGE INC,"Distance: 10.04 miles
88-83 Van Wyck Expy Jamaica 11435
(718)292-4455
Handicap Accessible",88-83 Van Wyck Expy Jamaica 11435,(718)292-4455,11435
318,"SAMUEL FIELD YM & YWHA, INC. DBA COMMUNITY ADVISORY PROGRAM FOR THE ELDERLY","Distance: 3.72 miles
43-31 39th Street Sunnyside 11104
(718)224-0566
Handicap Accessible",43-31 39th Street Sunnyside 11104,(718)224-0566,11104
319,"SAMUEL FIELD YM & YWHA, INC. DBA COMMUNITY ADVISORY PROGRAM FOR THE ELDERLY","Distance: 5.58 miles
69-61 Grand Avenue Maspeth 11378
(718)224-0566
Handicap Accessible",69-61 Grand Avenue Maspeth 11378,(718)224-0566,11378
320,"SERVICE PROGRAM FOR OLDER PEOPLE, INC","Distance: 0.21 miles
305 7th Avenue, 15th Fl New York 10001
(212)787-7120
Handicap Accessible","305 7th Avenue, 15th Fl New York 10001",(212)787-7120,10001
321,"SERVICE PROGRAM FOR OLDER PEOPLE, INC","Distance: 2.61 miles
415 East 73rd Street New York 10021
(212)787-7120
Handicap Accessible",415 East 73rd Street New York 10021,(212)787-7120,10021
322,"SERVICE PROGRAM FOR OLDER PEOPLE, INC","Distance: 3.91 miles
81 Wolloughby Street Brooklyn 11201
(212)787-7120
Handicap Accessible",81 Wolloughby Street Brooklyn 11201,(212)787-7120,11201
323,SES OPERATING CORP DBA HARLEM EAST LIFE PLAN,"Distance: 4.83 miles
2367-69 2nd Ave, 1st and 3rd Floor New York 10035
(212)876-2300
Handicap Accessible","2367-69 2nd Ave, 1st and 3rd Floor New York 10035",(212)876-2300,10035
325,SHELTERING ARMS CHILDREN AND FAMILY SERVICES,"Distance: 10.84 miles
89-74 162nd Street Jamaica 11432
(212)886-5619
Handicap Accessible",89-74 162nd Street Jamaica 11432,(212)886-5619,11432
326,SHILOH CONSULTING LLC,"Distance: 0.66 miles
566 7th Ave New York 10018
(347)866-8867
Handicap Accessible",566 7th Ave New York 10018,(347)866-8867,10018
327,"ST. JOHNS EPISCOPAL HOSPITAL DBA EPISCOPAL HEALTH SERVICES, INC.","Distance: 16.44 miles
327 Beach 19th Street Far Rockaway 11691
(718)869-7000
Handicap Accessible",327 Beach 19th Street Far Rockaway 11691,(718)869-7000,11691
328,"START TREATMENT & RECOVERY CENTERS, INC","Distance: 4.71 miles
2191 Third Avenue New York 10035
(800)211-0996
Handicap Accessible",2191 Third Avenue New York 10035,(800)211-0996,10035
329,THE BROOKDALE HOSPITAL MEDICAL CENTER,"Distance: 5.36 miles
One Brooklyn Health System, Inc. Brooklyn 11221
(718)613-4000
Handicap Accessible","One Brooklyn Health System, Inc. Brooklyn 11221",(718)613-4000,11221
332,"THE CHILD CENTER OF NY, INC.","Distance: 8.96 miles
118-35 Queens Blvd., 6th Floor Forest Hills 11375
(718)651-7770
Handicap Accessible","118-35 Queens Blvd., 6th Floor Forest Hills 11375",(718)651-7770,11375
333,"THE CHILD CENTER OF NY, INC.","Distance: 6.21 miles
81-14 Queens Blvd, Ground Floor Elmhurst 11373
(718)458-4243
Handicap Accessible","81-14 Queens Blvd, Ground Floor Elmhurst 11373",(718)458-4243,11373
334,THE FLOATING HOSPITAL INC.,"Distance: 7.77 miles
285 East 171st Street Bronx 10457
(718)784-2240
Handicap Accessible",285 East 171st Street Bronx 10457,(718)784-2240,10457
335,"THE FORTUNE SOCIETY, INC.","Distance: 2.96 miles
NAME CHANGE Long Island City 11101
(212)691-7554
Handicap Accessible",NAME CHANGE Long Island City 11101,(212)691-7554,11101
336,THE INSTITUTE FOR FAMILY HEALTH,"Distance: 0.54 miles
230 W 17th Street New York 10011
(212)423-4200
Handicap Accessible",230 W 17th Street New York 10011,(212)423-4200,10011
337,THE INSTITUTE FOR FAMILY HEALTH,"Distance: 8.8 miles
731 White Plains Road Bronx 10473
(718)589-8775
Handicap Accessible",731 White Plains Road Bronx 10473,(718)589-8775,10473
338,"THE NEW HORIZON COUNSELING CENTER, INC.","Distance: 9.95 miles
108-19 Rockaway Boulevard South Ozone Park 11420
(718)845-2620
Handicap Accessible",108-19 Rockaway Boulevard South Ozone Park 11420,(718)845-2620,11420
339,THE NEW YORK FOUNDLING,"Distance: 3.49 miles
33-00 Northern Blvd. Long Island City 11101
(718)772-0280
Handicap Accessible",33-00 Northern Blvd. Long Island City 11101,(718)772-0280,11101
340,UNION SETTLEMENT ASSOCIATION DBA JAMES WELDON JOHNSON COUNSE,"Distance: 4.45 miles
2089 Third Avenue New York 10029
(212)828-6144
Handicap Accessible",2089 Third Avenue New York 10029,(212)828-6144,10029
341,UNION SETTLEMENT/JOHNSON COUNSELING CENTER,"Distance: 3.95 miles
1565 Madison Avenue New York 10029
(212)828-6144
Handicap Accessible",1565 Madison Avenue New York 10029,(212)828-6144,10029
342,URBAN HEALTH PLAN INC.,"Distance: 7.21 miles
900 Intervale Avenue, 5th and 6th Floor Bronx 10459
(718)364-7700
Handicap Accessible","900 Intervale Avenue, 5th and 6th Floor Bronx 10459",(718)364-7700,10459
343,"VOCATIONAL INSTRUCTION PROJECT COMMUNITY SERVICES, INC","Distance: 8.55 miles
770 East 176th St. 4th FL. Bronx 10460
(718)583-5150
Handicap Accessible",770 East 176th St. 4th FL. Bronx 10460,(718)583-5150,10460
344,"WELLLIFE NETWORK, INC.","Distance: 7.41 miles
323-325 East 48th Street Brooklyn 11203
(917)563-3347
Handicap Accessible",323-325 East 48th Street Brooklyn 11203,(917)563-3347,11203
345,WESTCHESTER JEWISH COMMUNITY SERVICES,"Distance: 12.74 miles
487 South Broadway Yonkers 10705
(914)423-4433
Handicap Accessible",487 South Broadway Yonkers 10705,(914)423-4433,10705
346,"WESTCHESTER JEWISH COMMUNITY SERVICES, INC.","Distance: 12.74 miles
487 South Broadway Yonkers 10705
(914)761-0600
Handicap Accessible",487 South Broadway Yonkers 10705,(914)761-0600,10705
347,"AIDS CENTER OF QUEENS COUNTY, INC.","Distance: 16.19 miles
1600 Central Avenue, 3rd FL. Far Rockaway 11691
(718)896-2500
Handicap Accessible","1600 Central Avenue, 3rd FL. Far Rockaway 11691",(718)896-2500,11691
348,"AIDS CENTER OF QUEENS COUNTY, INC.","Distance: 10.93 miles
89-31 161 Street Jamaica 11432
(718)472-9400
Handicap Accessible",89-31 161 Street Jamaica 11432,(718)472-9400,11432
349,"ARGUS COMMUNITY, INC.","Distance: 6.55 miles
402 East 156th Street Bronx 10455
(718)993-3183
Handicap Accessible",402 East 156th Street Bronx 10455,(718)993-3183,10455
350,"ARGUS COMMUNITY, INC.","Distance: 5.93 miles
507 W 145th St New York 10031
(718)401-5700
Handicap Accessible",507 W 145th St New York 10031,(718)401-5700,10031
351,"ARGUS COMMUNITY, INC.","Distance: 6.91 miles
760 East 160th Street, Cellar Bronx 10456
(347)503-5527
Handicap Accessible","760 East 160th Street, Cellar Bronx 10456",(347)503-5527,10456
352,ASSOCIATION TO BENEFIT CHILDREN,"Distance: 7.53 miles
1366 Inwood Avenue Bronx 10457
(646)459-6165
Handicap Accessible",1366 Inwood Avenue Bronx 10457,(646)459-6165,10457
353,ASSOCIATION TO BENEFIT CHILDREN,"Distance: 4.84 miles
508 East 120th St, Room 427 New York 10035
(646)459-6165
Handicap Accessible","508 East 120th St, Room 427 New York 10035",(646)459-6165,10035
354,ASTOR SERVICES FOR CHILDREN & FAMILIES,"Distance: 6.97 miles
1000 Teller Avenue Bronx 10456
(718)231-3400
Handicap Accessible",1000 Teller Avenue Bronx 10456,(718)231-3400,10456
355,ASTOR SERVICES FOR CHILDREN & FAMILIES,"Distance: 7.17 miles
200 W 167th Street Bronx 10452
(718)231-3400
Handicap Accessible",200 W 167th Street Bronx 10452,(718)231-3400,10452
356,ASTOR SERVICES FOR CHILDREN & FAMILIES,"Distance: 11.61 miles
3710 Barnes Avenue, Room 150 and 350 Bronx 10467
(718)231-3400
Handicap Accessible","3710 Barnes Avenue, Room 150 and 350 Bronx 10467",(718)231-3400,10467
357,ASTOR SERVICES FOR CHILDREN & FAMILIES,"Distance: 10.04 miles
950 Rhinelander Ave, Room 252 Bronx 10462
(718)863-1993
Handicap Accessible","950 Rhinelander Ave, Room 252 Bronx 10462",(718)863-1993,10462
358,BETH ISRAEL MEDICAL CENTER,"Distance: 9.4 miles
3201 Kings Highway Brooklyn 11234
(718)252-3000
Handicap Accessible",3201 Kings Highway Brooklyn 11234,(718)252-3000,11234
359,"BLEULER PSYCHOTHERAPY CENTER, INC.","Distance: 8.11 miles
104-70 Queens Boulevard Forest Hills 11375
(347)891-6783
Handicap Accessible",104-70 Queens Boulevard Forest Hills 11375,(347)891-6783,11375
360,"BRIDGE BACK TO LIFE CENTER, INC.","Distance: 11.38 miles
1688 Victory Boulevard Staten Island 10314
(718)447-5700
Handicap Accessible",1688 Victory Boulevard Staten Island 10314,(718)447-5700,10314
361,"BROOKLYN CENTER FOR PSYCHOTHERAPY, INC.","Distance: 4.44 miles
500 Atlantic Avenue Brooklyn 11217
(718)622-2000
Handicap Accessible",500 Atlantic Avenue Brooklyn 11217,(718)622-2000,11217
362,"CARE FOR THE HOMELESS, INC.","Distance: 7.88 miles
1605-11 Nelson Avenue Bronx 10453
(347)269-4625
Handicap Accessible",1605-11 Nelson Avenue Bronx 10453,(347)269-4625,10453
363,"CARE FOR THE HOMELESS, INC.","Distance: 5.88 miles
691 East 138th Street Bronx 10454
(347)269-0437
Handicap Accessible",691 East 138th Street Bronx 10454,(347)269-0437,10454
364,FLUSHING HOSPITAL MEDICAL CENTER,"Distance: 9.5 miles
4500 Parsons Boulevard Flushing 11355
(718)670-5000
Handicap Accessible",4500 Parsons Boulevard Flushing 11355,(718)670-5000,11355
365,HAMASPIK OF KINGS COUNTY,"Distance: 7.65 miles
4102 14th Ave Brooklyn 11219
(718) 80-9989
Handicap Accessible",4102 14th Ave Brooklyn 11219,(718) 80-9989,11219
366,HUDSON GUILD,"Distance: 0.26 miles
441 West 26th Street New York 10001
(212)760-9857
Handicap Accessible",441 West 26th Street New York 10001,(212)760-9857,10001
367,ICL HEALTHCARE CHOICES INC,"Distance: 8.66 miles
6209 16th Ave Brooklyn 11204
(718)234-0073
Handicap Accessible",6209 16th Ave Brooklyn 11204,(718)234-0073,11204
368,INSTITUTE FOR COMMUNITY LIVING,"Distance: 8.5 miles
1310 Rockaway Parkway Brooklyn 11236
(718)272-3300
Handicap Accessible",1310 Rockaway Parkway Brooklyn 11236,(718)272-3300,11236
369,"INTERBOROUGH DEVELOPMENTAL & CONSULTATION CENTER, INC","Distance: 9.86 miles
1664 East 14th Street Brooklyn 11229
(718)954-3800
Handicap Accessible",1664 East 14th Street Brooklyn 11229,(718)954-3800,11229
370,"INTERBOROUGH DEVELOPMENTAL & CONSULTATION CENTER, INC","Distance: 11.81 miles
2846 Stillwell Avenue Brooklyn 11224
(718)388-5176
Handicap Accessible",2846 Stillwell Avenue Brooklyn 11224,(718)388-5176,11224
371,"INTERBOROUGH DEVELOPMENTAL & CONSULTATION CENTER, INC","Distance: 8.85 miles
94 -13 Flatlands Ave Brooklyn 11236
(718)272-1600
Handicap Accessible",94 -13 Flatlands Ave Brooklyn 11236,(718)272-1600,11236
372,"JEWISH BOARD OF FAMILY AND CHILDREN'S SERVICES, INC.","Distance: 7.98 miles
1273 53rd Street Brooklyn 11219
(718)435-5700
Handicap Accessible",1273 53rd Street Brooklyn 11219,(718)435-5700,11219
373,"JEWISH BOARD OF FAMILY AND CHILDREN'S SERVICES, INC.","Distance: 9.81 miles
2020 Coney Island Avenue Brooklyn 11223
(718)676-4210
Handicap Accessible",2020 Coney Island Avenue Brooklyn 11223,(718)676-4210,11223
374,"JEWISH BOARD OF FAMILY AND CHILDREN'S SERVICES, INC.","Distance: 9.43 miles
2488 Grand Concourse, 2nd Floor Bronx 10458
(718)881-7600
Handicap Accessible","2488 Grand Concourse, 2nd Floor Bronx 10458",(718)881-7600,10458
375,"JEWISH BOARD OF FAMILY AND CHILDREN'S SERVICES, INC.","Distance: 10.79 miles
521 West 239th Street Bronx 10463
(718)601-2280
Handicap Accessible",521 West 239th Street Bronx 10463,(718)601-2280,10463
376,"JULIA DYCKMAN ANDURS MEMORIAL, INC.","Distance: 22.68 miles
19 Greenridge Avenue White Plains 10605
(914)528-2021
Handicap Accessible",19 Greenridge Avenue White Plains 10605,(914)528-2021,10605
377,"JULIA DYCKMAN ANDURS MEMORIAL, INC.","Distance: 37.47 miles
300 Crotona Avenue, Speech Room Cortlandt Manor 10567
(914)965-1109
Handicap Accessible","300 Crotona Avenue, Speech Room Cortlandt Manor 10567",(914)965-1109,10567
378,"JULIA DYCKMAN ANDURS MEMORIAL, INC.","Distance: 37.68 miles
980 Pemant Street, Room 108 Peekskill 10566
(914)965-1109
Handicap Accessible","980 Pemant Street, Room 108 Peekskill 10566",(914)965-1109,10566
379,KINGSBORO PSYCHIATRIC CENTER (NYSOMH),"Distance: 5.37 miles
754 Lexington Ave Brooklyn 11221
(718)453-200
Handicap Accessible",754 Lexington Ave Brooklyn 11221,(718)453-200,11221
380,"LA CASA DE SALUD, INC.","Distance: 7.23 miles
966 Prospect Avenue Bronx 10459
(718)842-1412
Handicap Accessible",966 Prospect Avenue Bronx 10459,(718)842-1412,10459
381,"LEXINGTON CENTER FOR MENTAL HEALTH SERVICES, INC.","Distance: 5.45 miles
26-26 75th Street East Elmhurst 11370
(718)350-3110
Handicap Accessible",26-26 75th Street East Elmhurst 11370,(718)350-3110,11370
382,"LOWER EASTSIDE SERVICE CENTER, INC.","Distance: 2.39 miles
46 East Broadway, 2nd & 7th Floor New York 10002
(212)566-3563
Handicap Accessible","46 East Broadway, 2nd & 7th Floor New York 10002",(212)566-3563,10002
383,"MENTAL HEALTH PROVIDERS OF WESTERN QUEENS, INC.","Distance: 4.02 miles
44-04 Queens Boulevard Sunnyside 11104
(718)672-1705
Handicap Accessible",44-04 Queens Boulevard Sunnyside 11104,(718)672-1705,11104
384,MOUNT SINAI HOSPITAL,"Distance: 1.56 miles
1000 10th Ave New York 10019
(212)523-4000
Handicap Accessible",1000 10th Ave New York 10019,(212)523-4000,10019
385,MOUNT SINAI HOSPITAL,"Distance: 3.95 miles
1249 5th Avenue New York 10029
(212)241-6500
Handicap Accessible",1249 5th Avenue New York 10029,(212)241-6500,10029
386,"NEW HORIZON COUNSELING CENTER, INC.","Distance: 10.77 miles
108-19 Rockaway Boulevard Ozone Park 11420
(718)471-8671
Handicap Accessible",108-19 Rockaway Boulevard Ozone Park 11420,(718)471-8671,11420
387,"NEW HORIZON COUNSELING CENTER, INC.","Distance: 14.48 miles
115-02 Ocean Promenade Rockaway Park 11694
(718)471-8671
Handicap Accessible",115-02 Ocean Promenade Rockaway Park 11694,(718)471-8671,11694
388,"NEW YORK COUNSELING FOR CHANGE, LLC","Distance: 3.29 miles
30-46 Northern Boulevard Long Island City 11101
(718)424-6191
Handicap Accessible",30-46 Northern Boulevard Long Island City 11101,(718)424-6191,11101
389,NORTHWELL / LIJ ZUCKER HILLSIDE HOSPITAL,"Distance: 14.88 miles
75-59 263rd Street, Basement, 1st Floor, SW 2nd F Glen Oaks 11004
(718)470-8120
Handicap Accessible","75-59 263rd Street, Basement, 1st Floor, SW 2nd F Glen Oaks 11004",(718)470-8120,11004
390,NORTHWELL / SOUTH OAKS HOSPITAL,"Distance: 30.39 miles
400 Sunrise Highway Amityville 11701
(631)608-5028
Handicap Accessible",400 Sunrise Highway Amityville 11701,(631)608-5028,11701
391,NORTHWELL / STATEN ISLAND UNIVERSITY HOSPITAL,"Distance: 19.19 miles
392 Seguine Ave Staten Island 10309
(718)226-3498
Handicap Accessible",392 Seguine Ave Staten Island 10309,(718)226-3498,10309
392,NORTHWELL/NSUH - SYOSSET HOSPITAL,"Distance: 25.93 miles
221 Jericho Turnpike Syosset 11791
(516)496-6400
Handicap Accessible",221 Jericho Turnpike Syosset 11791,(516)496-6400,11791
393,NYC HEALTH + HOSPITALS / METROPOLITAN,"Distance: 3.71 miles
1901 First Avenue New York 10029
(718)579-4061
Handicap Accessible",1901 First Avenue New York 10029,(718)579-4061,10029
394,NYU LANGONE HOSPITALS,"Distance: 7.2 miles
514 49th Street Brooklyn 11220
(646)929-7800
Handicap Accessible",514 49th Street Brooklyn 11220,(646)929-7800,11220
395,OHEL CHILDREN'S HOME AND FAMILY SERVICES DBA TIKVAH AT OHEL,"Distance: 16.64 miles
613 Beach 9th St, Room BR100 Far Rockaway 11691
(718)435-5533
Handicap Accessible","613 Beach 9th St, Room BR100 Far Rockaway 11691",(718)435-5533,11691
396,OUTREACH DEVELOPMENT CORPORATION,"Distance: 2.5 miles
960 Manhattan Ave Brooklyn 11222
(718)383-7200
Handicap Accessible",960 Manhattan Ave Brooklyn 11222,(718)383-7200,11222
397,PESACH TIKVAH HOPE DEVELOPMENT INC.,"Distance: 7.39 miles
4111 18th Avenue Brooklyn 11218
(718)875-6900
Handicap Accessible",4111 18th Avenue Brooklyn 11218,(718)875-6900,11218
398,PESACH TIKVAH HOPE DEVELOPMENT INC.,"Distance: 3.39 miles
6 Lee Avenue Rm 305 Brooklyn 11211
(718)875-6900
Handicap Accessible",6 Lee Avenue Rm 305 Brooklyn 11211,(718)875-6900,11211
399,PESACH TIKVAH HOPE DEVELOPMENT INC.,"Distance: 7.11 miles
945 39th Street Rm 100 Brooklyn 11219
(718)875-6900
Handicap Accessible",945 39th Street Rm 100 Brooklyn 11219,(718)875-6900,11219
400,PILGRIM PSYCHIATRIC CENTER (NYSOMH),"Distance: 54.49 miles
31 Industrial Boulevard Medford 11763
(518)549-5272
Handicap Accessible",31 Industrial Boulevard Medford 11763,(518)549-5272,11763
401,POST GRADUATE CENTER FOR MENTAL HEALTH,"Distance: 5.88 miles
164 20th Street, 4th Floor Brooklyn 11232
(718)431-8725
Handicap Accessible","164 20th Street, 4th Floor Brooklyn 11232",(718)431-8725,11232
402,ROCKLAND CHILDREN'S PSYCHIATRIC CENTER (NYSOMH),"Distance: 15.63 miles
100 California Road Mount Vernon 10552
(518)549-5272
Handicap Accessible",100 California Road Mount Vernon 10552,(518)549-5272,10552
403,"SAFE HORIZON, INC.","Distance: 3.88 miles
50 Court Street Brooklyn 11201
(212)316-2100
Handicap Accessible",50 Court Street Brooklyn 11201,(212)316-2100,11201
404,"SAFE HORIZON, INC.","Distance: 3.88 miles
50 Court Street, Suite 901 Brooklyn 11201
(347)328-8110
Handicap Accessible","50 Court Street, Suite 901 Brooklyn 11201",(347)328-8110,11201
405,SAMARITAN DAYTOP VILLAGE INC,"Distance: 11.78 miles
1915 Forest Ave Staten Island 10303
(718)292-4455
Handicap Accessible",1915 Forest Ave Staten Island 10303,(718)292-4455,10303
406,SAMARITAN DAYTOP VILLAGE INC,"Distance: 79.33 miles
88 Fox Hollow Road Rhinebeck 12572
(845)876-3789
Handicap Accessible",88 Fox Hollow Road Rhinebeck 12572,(845)876-3789,12572
407,"SAMUEL FIELD YM & YWHA, INC. DBA COMMUNITY ADVISORY PROGRAM FOR THE ELDERLY","Distance: 9.09 miles
45-25 Kissena Boulevard Flushing 11355
(718)224-0566
Handicap Accessible",45-25 Kissena Boulevard Flushing 11355,(718)224-0566,11355
408,"SERVICE PROGRAM FOR OLDER PEOPLE, INC","Distance: 0.83 miles
127 West 43rd Street New York 10036
(212)787-7120
Handicap Accessible",127 West 43rd Street New York 10036,(212)787-7120,10036
409,"SERVICE PROGRAM FOR OLDER PEOPLE, INC","Distance: 2.38 miles
49 East 73rd Street New York 10021
(212)787-7120
Handicap Accessible",49 East 73rd Street New York 10021,(212)787-7120,10021
410,"SERVICE PROGRAM FOR OLDER PEOPLE, INC","Distance: 2.63 miles
546 Main Street New York 10044
(212)787-7120
Handicap Accessible",546 Main Street New York 10044,(212)787-7120,10044
411,SOUTH BEACH PSYCHIATRIC CENTER (NYSOMH),"Distance: 4.27 miles
25 Flatbush Avenue Brooklyn 11217
(718)453-3200
Handicap Accessible",25 Flatbush Avenue Brooklyn 11217,(718)453-3200,11217
412,SOUTH BEACH PSYCHIATRIC CENTER (NYSOMH),"Distance: 11.11 miles
777 Seaview Avenue. Bldg 10, 2nd Fl Staten Island 10305
(718)667-2662
Handicap Accessible","777 Seaview Avenue. Bldg 10, 2nd Fl Staten Island 10305",(718)667-2662,10305
413,"THE CHILD CENTER OF NY, INC.","Distance: 9.01 miles
140-15B Sanford Avenue, 2nd Floor Flushing 11355
(718)358-8288
Handicap Accessible","140-15B Sanford Avenue, 2nd Floor Flushing 11355",(718)358-8288,11355
414,"THE FAMILY CENTER, INC.","Distance: 5.29 miles
493 Nostrand Avenue Brooklyn 11216
(718)230-1379
Handicap Accessible",493 Nostrand Avenue Brooklyn 11216,(718)230-1379,11216
415,THE FLOATING HOSPITAL INC.,"Distance: 3.03 miles
41-40 27th Street Long Island City 11101
(718)784-2240
Handicap Accessible",41-40 27th Street Long Island City 11101,(718)784-2240,11101
416,THE JEWISH ASSOCIATION FOR SERVICES FOR THE AGED,"Distance: 8.11 miles
1490 Southern Boulevard Bronx 10460
(212)273-5200
Handicap Accessible",1490 Southern Boulevard Bronx 10460,(212)273-5200,10460
417,"THE NEW HORIZON COUNSELING CENTER, INC.","Distance: 16.2 miles
1622 Central Avenue Far Rockaway 11691
(718)327-9001
Handicap Accessible",1622 Central Avenue Far Rockaway 11691,(718)327-9001,11691
418,THE NEW YORK FOUNDLING,"Distance: 4.09 miles
180 Livingston St. Brooklyn 11201
(718)772-0280
Handicap Accessible",180 Livingston St. Brooklyn 11201,(718)772-0280,11201
419,"THE PAC PROGRAM OF THE BRONX, INC.","Distance: 6.65 miles
40-11 Warren St Elmhurst 11373
(718)729-8686
Handicap Accessible",40-11 Warren St Elmhurst 11373,(718)729-8686,11373
420,"TRANSITIONAL SERVICES FOR NEW YORK, INC.","Distance: 10.39 miles
90-27 Sutphin Boulevard Jamaica 11435
(718)526-8400
Handicap Accessible",90-27 Sutphin Boulevard Jamaica 11435,(718)526-8400,11435
421,"VIP COMMUNITY SERVICES, INC.","Distance: 8.6 miles
716 Fairmount Pl Bronx 10457
(718)542-8700
Handicap Accessible",716 Fairmount Pl Bronx 10457,(718)542-8700,10457
422,VISITING NURSE SERVICE OF NEW YORK,"Distance: 11.05 miles
1200 Waters Pl Bronx 10461
(212)290-6565
Handicap Accessible",1200 Waters Pl Bronx 10461,(212)290-6565,10461
423,"WELLLIFE NETWORK, INC.","Distance: 52.77 miles
3600 Route 112 Coram 11727
(631)920-8302
Handicap Accessible",3600 Route 112 Coram 11727,(631)920-8302,11727
424,WESTCHESTER JEWISH COMMUNITY SERVICES,"Distance: 14.09 miles
131 Warburton Avenue, Rooms 5-6 Yonkers 10701
(914)231-2924
Handicap Accessible","131 Warburton Avenue, Rooms 5-6 Yonkers 10701",(914)231-2924,10701
425,ACMH INC.,"Distance: 0.16 miles
254 West 31 Street, 2nd FL. (Office) New York 10001
(212)274-8558
Handicap Accessible","254 West 31 Street, 2nd FL. (Office) New York 10001",(212)274-8558,10001
426,"ACMH, INC.","Distance: 1.9 miles
165 E. 2nd Street New York 10009
(212)253-6377
Handicap Accessible",165 E. 2nd Street New York 10009,(212)253-6377,10009
427,"ACMH, INC.","Distance: 6.01 miles
462 E. 144th Street Bronx 10454
(212)253-6377
Handicap Accessible",462 E. 144th Street Bronx 10454,(212)253-6377,10454
428,ASTOR SERVICES FOR CHILDREN & FAMILIES,"Distance: 8.14 miles
1001 Jennings Street, Room 400 Bronx 10460
(718)231-3400
Handicap Accessible","1001 Jennings Street, Room 400 Bronx 10460",(718)231-3400,10460
429,"BROOKLYN CENTER FOR FAMILIES IN CRISIS, INC.","Distance: 8.84 miles
1309-1311 Foster Ave. Brooklyn 11230
(718)282-0010
Handicap Accessible",1309-1311 Foster Ave. Brooklyn 11230,(718)282-0010,11230
430,"CATHOLIC CHARITIES NEIGHBORHOOD SERVICES, INC.","Distance: 5.92 miles
35-24 83rd Street Jackson Heights 11372
(718)722-6258
Handicap Accessible",35-24 83rd Street Jackson Heights 11372,(718)722-6258,11372
431,"CHILDREN OF PROMISE, NYC","Distance: 5.41 miles
54 Mac Donough Street Brooklyn 11216
(718)483-9290
Handicap Accessible",54 Mac Donough Street Brooklyn 11216,(718)483-9290,11216
432,DENNELISSE LHCSA,"Distance: 6.07 miles
460 Will Avenue Bronx 10455
(212)420-1970
Handicap Accessible",460 Will Avenue Bronx 10455,(212)420-1970,10455
433,"FAMILY SERVICES OF WESTCHESTER, INC.","Distance: 23.17 miles
7-11 South Broadway White Plains 10601
(914)948-8004
Handicap Accessible",7-11 South Broadway White Plains 10601,(914)948-8004,10601
434,FIFTH AVENUE COUNSELING CENTER INC.,"Distance: 0.77 miles
5 East 17th Street, 2nd Floor New York 10003
(212)989-2990
Handicap Accessible","5 East 17th Street, 2nd Floor New York 10003",(212)989-2990,10003
435,FLUSHING HOSPITAL MEDICAL CENTER,"Distance: 9.09 miles
45th Avenue at Parsons Boulevard Flushing 11355
(718)670-5000
Handicap Accessible",45th Avenue at Parsons Boulevard Flushing 11355,(718)670-5000,11355
436,HAMASPIK OF KINGS COUNTY,"Distance: 3.55 miles
295 Division Ave Brooklyn 11211
(718) 80-9989
Handicap Accessible",295 Division Ave Brooklyn 11211,(718) 80-9989,11211
437,"HAMILTON-MADISON HOUSE, INC.","Distance: 2.65 miles
253 South Street, 3rd Fl New York 10002
(212)720-4540
Handicap Accessible","253 South Street, 3rd Fl New York 10002",(212)720-4540,10002
438,HEIGHTS-HILL MENTAL HEALTH SERVICE SBPC COMMUNITY,"Distance: 4.27 miles
25 Flatbush Avenue, Third Floor Brooklyn 11217
(718)852-5212
Handicap Accessible","25 Flatbush Avenue, Third Floor Brooklyn 11217",(718)852-5212,11217
439,"HISPANIC COUNSELING CENTER, INC.","Distance: 19.84 miles
344 Fulton Avenue Hempstead 11550
(516)538-2613
Handicap Accessible",344 Fulton Avenue Hempstead 11550,(516)538-2613,11550
440,"HOUSING WORKS HEALTH SERVICES III, INC.","Distance: 8.17 miles
2640 Pitkin Avenue Brooklyn 11208
(718)277-0386
Handicap Accessible",2640 Pitkin Avenue Brooklyn 11208,(718)277-0386,11208
441,INSTITUTE FOR COMMUNITY LIVING,"Distance: 3.27 miles
125 Broad Street New York 10004
(718)234-0073
Handicap Accessible",125 Broad Street New York 10004,(718)234-0073,10004
442,INSTITUTE FOR COMMUNITY LIVING,"Distance: 12.71 miles
4377 Bronx Boulevard, Suite 302 Bronx 10477
(888)425-0501
Handicap Accessible","4377 Bronx Boulevard, Suite 302 Bronx 10477",(888)425-0501,10477
444,"INTERBOROUGH DEVELOPMENTAL & CONSULTATION CENTER, INC","Distance: 6.78 miles
921 East New york Avenue Brooklyn 11203
(718)388-5176
Handicap Accessible",921 East New york Avenue Brooklyn 11203,(718)388-5176,11203
445,"JEWISH BOARD OF FAMILY AND CHILDREN'S SERVICES, INC.","Distance: 2.61 miles
80 Catherine Street, Rm 217 & 239, New York 10038
(212)632-4646
Handicap Accessible","80 Catherine Street, Rm 217 & 239, New York 10038",(212)632-4646,10038
446,"JULIA DYCKMAN ANDURS MEMORIAL, INC.","Distance: 14.44 miles
15 St. Mary's Place, Room 31 Yonkers 10701
(914)528-2021
Handicap Accessible","15 St. Mary's Place, Room 31 Yonkers 10701",(914)528-2021,10701
447,"JULIA DYCKMAN ANDURS MEMORIAL, INC.","Distance: 29.36 miles
29 South Highland Avenue, Room L3 Ossining 10562
(914)965-1109
Handicap Accessible","29 South Highland Avenue, Room L3 Ossining 10562",(914)965-1109,10562
448,"JULIA DYCKMAN ANDURS MEMORIAL, INC.","Distance: 40.77 miles
3477 Kahmi Drive, Room 206 Yorktown Heights 10598
(914)736-3371
Handicap Accessible","3477 Kahmi Drive, Room 206 Yorktown Heights 10598",(914)736-3371,10598
449,"JULIA DYCKMAN ANDURS MEMORIAL, INC.","Distance: 13.91 miles
35 Dock Street Yonkers 10701
(914)965-1109
Handicap Accessible",35 Dock Street Yonkers 10701,(914)965-1109,10701
450,"JULIA DYCKMAN ANDURS MEMORIAL, INC.","Distance: 22.88 miles
98 South Goodwin Avenue, Room 123 Elmsford 10523
(914)528-2021
Handicap Accessible","98 South Goodwin Avenue, Room 123 Elmsford 10523",(914)528-2021,10523
451,KINGSBORO PSYCHIATRIC CENTER (NYSOMH),"Distance: 7.41 miles
681 Clarkson Ave, Building #1 First Fl - West Brooklyn 11203
(718)257-7780
Handicap Accessible","681 Clarkson Ave, Building #1 First Fl - West Brooklyn 11203",(718)257-7780,11203
452,KOREAN COMMUNITY SERVICES OF METROPOLITAN NY,"Distance: 10.12 miles
42-16 162nd St Flushing 11358
(718)939-6137
Handicap Accessible",42-16 162nd St Flushing 11358,(718)939-6137,11358
453,"MENTAL HEALTH PROVIDERS OF WESTERN QUEENS, INC.","Distance: 4.96 miles
62-07 Woodside Avenue, 4th Floor Woodside 11377
(718)898-5085
Handicap Accessible","62-07 Woodside Avenue, 4th Floor Woodside 11377",(718)898-5085,11377
454,"MORRIS HEIGHTS HEALTH CENTER, INC.","Distance: 8.64 miles
57 West Burnside Avenue Bronx 10453
(718)716-4400
Handicap Accessible",57 West Burnside Avenue Bronx 10453,(718)716-4400,10453
455,"NEW ALTERNATIVES FOR CHILDREN, INC","Distance: 8.15 miles
1775 Grand Concourse Bronx 10457
(212)696-1550
Handicap Accessible",1775 Grand Concourse Bronx 10457,(212)696-1550,10457
456,"NEW ALTERNATIVES FOR CHILDREN, INC","Distance: 8.15 miles
1775 Grand Concourse, Suite 703 Bronx 10453
(212)696-1552
Handicap Accessible","1775 Grand Concourse, Suite 703 Bronx 10453",(212)696-1552,10453
457,"NEW HORIZON COUNSELING CENTER, INC.","Distance: 16.52 miles
242 Beach 20th Street Far Rockaway 11691
(718)471-8671
Handicap Accessible",242 Beach 20th Street Far Rockaway 11691,(718)471-8671,11691
458,"NEW HORIZON COUNSELING CENTER, INC.","Distance: 16.2 miles
50 W Hawthorne Ave Valley Stream 11580
(718)471-8671
Handicap Accessible",50 W Hawthorne Ave Valley Stream 11580,(718)471-8671,11580
459,"NEW HORIZON COUNSELING CENTER, INC.","Distance: 15.08 miles
66-03 Beach Channel Drive Arvene 11692
(718)471-8671
Handicap Accessible",66-03 Beach Channel Drive Arvene 11692,(718)471-8671,11692
460,"NEW HORIZON COUNSELING CENTER, INC.","Distance: 16.31 miles
720 Beach 20th Street Far Rockaway 11691
(718)471-8671
Handicap Accessible",720 Beach 20th Street Far Rockaway 11691,(718)471-8671,11691
461,NEW YORK CITY CHILDREN'S CENTER (NYSOMH),"Distance: 6.14 miles
595 Gerard Avenue, 2nd FL Bronx 10451
(929)348-4560
Handicap Accessible","595 Gerard Avenue, 2nd FL Bronx 10451",(929)348-4560,10451
462,NEW YORK CITY CHILDREN'S CENTER (NYSOMH),"Distance: 14.31 miles
74-03 Commonwealth Blvd, Bldg 57, 1st FL Bellerose 11426
(718)264-4640
Handicap Accessible","74-03 Commonwealth Blvd, Bldg 57, 1st FL Bellerose 11426",(718)264-4640,11426
463,NEW YORK PSYCHOTHERAPY AND COUNSELING CENTER,"Distance: 9 miles
140-40 Sanford Avenue Flushing 11355
(718)939-7160
Handicap Accessible",140-40 Sanford Avenue Flushing 11355,(718)939-7160,11355
464,NORTHWELL / LONG ISLAND JEWISH MEDICAL CENTER,"Distance: 16.36 miles
1045 Nameoke St, Far Rockaway Far Rockaway 11691
(718)327-3823
Handicap Accessible","1045 Nameoke St, Far Rockaway Far Rockaway 11691",(718)327-3823,11691
465,NYC HEALTH + HOSPITALS / CONEY ISLAND,"Distance: 11.38 miles
2601 Ocean Parkway Brooklyn 11235
(718)579-4061
Handicap Accessible",2601 Ocean Parkway Brooklyn 11235,(718)579-4061,11235
466,NYC HEALTH + HOSPITALS / CONEY ISLAND,"Distance: 11.63 miles
Coney Island Hospital ACT II Brooklyn 11235
(718)616-3000
Handicap Accessible",Coney Island Hospital ACT II Brooklyn 11235,(718)616-3000,11235
467,"NYC HEALTH + HOSPITALS / CUMBERLAND, A GOTHAM HEALTH CENTER","Distance: 3.94 miles
100 N. Portland Avenue Brooklyn 11205
(718)579-4061
Handicap Accessible",100 N. Portland Avenue Brooklyn 11205,(718)579-4061,11205
469,"NYC HEALTH + HOSPITALS / EAST NEW YORK, A GOTHAM HEALTH CENTER","Distance: 7.65 miles
494 Dumont Ave Brooklyn 11207
(718)260-2927
Handicap Accessible",494 Dumont Ave Brooklyn 11207,(718)260-2927,11207
471,"NYC HEALTH + HOSPITALS / MORRISANIA, A GOTHAM HEALTH CENTER","Distance: 7.27 miles
1225 Gerard Avenue Bronx 10452
(718)579-4061
Handicap Accessible",1225 Gerard Avenue Bronx 10452,(718)579-4061,10452
472,OHEL CHILDREN'S HOME AND FAMILY SERVICES DBA TIKVAH AT OHEL,"Distance: 8.76 miles
75-24 Grand Central Parkway, 3rd Floor, Room 2 Forest Hills 11375
(718)435-5533
Handicap Accessible","75-24 Grand Central Parkway, 3rd Floor, Room 2 Forest Hills 11375",(718)435-5533,11375
473,OUTREACH DEVELOPMENT CORPORATION,"Distance: 21.94 miles
27A Washington Place Roosevelt 11575
(516)623-7741
Handicap Accessible",27A Washington Place Roosevelt 11575,(516)623-7741,11575
474,PESACH TIKVAH HOPE DEVELOPMENT INC.,"Distance: 7.96 miles
4706 106th Avenue Rm 103 Brooklyn 11219
(718)875-6900
Handicap Accessible",4706 106th Avenue Rm 103 Brooklyn 11219,(718)875-6900,11219
475,PILGRIM PSYCHIATRIC CENTER (NYSOMH),"Distance: 71.2 miles
550 East Main Street Riverhead 11901
(518)549-5272
Handicap Accessible",550 East Main Street Riverhead 11901,(518)549-5272,11901
476,PILGRIM PSYCHIATRIC CENTER (NYSOMH),"Distance: 37.27 miles
998 Crooked Hill Road West Brentwood 11717
(518)549-5272
Handicap Accessible",998 Crooked Hill Road West Brentwood 11717,(518)549-5272,11717
477,"PROJECT HOSPITALITY, INC.","Distance: 8.61 miles
14 Slosson Terrace Staten Island 10301
(718)273-8409
Handicap Accessible",14 Slosson Terrace Staten Island 10301,(718)273-8409,10301
478,"PUERTO RICAN ORGANIZATION TO MOTIVATE, ENLIGHTEN AND SERVE ADDICTS, INC","Distance: 8.31 miles
1776 Clay Avenue, 1st & 3rd FL. Bronx 10457
(718)960-7599
Handicap Accessible","1776 Clay Avenue, 1st & 3rd FL. Bronx 10457",(718)960-7599,10457
479,"PUERTO RICAN ORGANIZATION TO MOTIVATE, ENLIGHTEN AND SERVE ADDICTS, INC","Distance: 8.31 miles
1776 Clay Avenue, 2nd Floor Bronx 10457
(718)960-7663
Handicap Accessible","1776 Clay Avenue, 2nd Floor Bronx 10457",(718)960-7663,10457
480,RICHMOND UNIVERSITY MEDICAL CENTER,"Distance: 13.23 miles
1130 South Avenue Staten Island 10314
(718)818-1234
Handicap Accessible",1130 South Avenue Staten Island 10314,(718)818-1234,10314
481,"RIVERDALE MENTAL HEALTH ASSOCIATION, INC. DBA MOSAIC MENTAL HEALTH","Distance: 11.95 miles
5676 Riverdale Avenue 2nd FL Rm 201 & 202 Bronx 10471
(718)796-5300
Handicap Accessible",5676 Riverdale Avenue 2nd FL Rm 201 & 202 Bronx 10471,(718)796-5300,10471
482,ROCKLAND CHILDREN'S PSYCHIATRIC CENTER (NYSOMH),"Distance: 16.15 miles
160 Bolmer Avenue Yonkers 10703
(914)793-5220
Handicap Accessible",160 Bolmer Avenue Yonkers 10703,(914)793-5220,10703
483,"SAFE HORIZON, INC.","Distance: 4.78 miles
100 East 122nd Street New York 10035
(347)328-8110
Handicap Accessible",100 East 122nd Street New York 10035,(347)328-8110,10035
484,SAMARITAN DAYTOP VILLAGE INC,"Distance: 32.66 miles
2075 New York Avenue Huntington Station 11746
(631)981-3136
Handicap Accessible",2075 New York Avenue Huntington Station 11746,(631)981-3136,11746
485,SAMARITAN DAYTOP VILLAGE INC,"Distance: 4.87 miles
2090 Adam Clayton Powell, Jr Boulevard New York 10027
(718)292-4455
Handicap Accessible","2090 Adam Clayton Powell, Jr Boulevard New York 10027",(718)292-4455,10027
486,SAMARITAN DAYTOP VILLAGE INC,"Distance: 6.55 miles
2776-2778 3rd Avenue Bronx 10455
(718)402-9000
Handicap Accessible",2776-2778 3rd Avenue Bronx 10455,(718)402-9000,10455
487,"SAMUEL FIELD YM & YWHA, INC. DBA COMMUNITY ADVISORY PROGRAM FOR THE ELDERLY","Distance: 12.96 miles
169-65 137th Avenue Rochdale 11434
(718)224-0566
Handicap Accessible",169-65 137th Avenue Rochdale 11434,(718)224-0566,11434
488,"SAMUEL FIELD YM & YWHA, INC. DBA COMMUNITY ADVISORY PROGRAM FOR THE ELDERLY","Distance: 11.34 miles
208-11 26th Avenue Bayside 11360
(718)224-0566
Handicap Accessible",208-11 26th Avenue Bayside 11360,(718)224-0566,11360
489,"SERVICE PROGRAM FOR OLDER PEOPLE, INC.","Distance: 3.02 miles
188 W 88th Street New York 10024
(212)787-7120
Handicap Accessible",188 W 88th Street New York 10024,(212)787-7120,10024
490,SHELTERING ARMS CHILDREN AND FAMILY SERVICES,"Distance: 16.19 miles
1600 Central Avenue Far Rockaway 11691
(212)675-1000
Handicap Accessible",1600 Central Avenue Far Rockaway 11691,(212)675-1000,11691
492,"START TREATMENT & RECOVERY CENTERS, INC","Distance: 4.81 miles
1149-55 Myrtle Avenue Brooklyn 11206
(800)211-0996
Handicap Accessible",1149-55 Myrtle Avenue Brooklyn 11206,(800)211-0996,11206
493,START TREATMENT AND RECOVERY CENTERS,"Distance: 4.71 miles
2191 Third Ave New York 10035
(718)260-2927
Handicap Accessible",2191 Third Ave New York 10035,(718)260-2927,10035
495,THE CHILDREN'S AID SOCIETY,"Distance: 8.35 miles
4600 Broadway, I.S. 218 New York 10040
(212)567-3500
Handicap Accessible","4600 Broadway, I.S. 218 New York 10040",(212)567-3500,10040
496,THE INSTITUTE FOR FAMILY HEALTH,"Distance: 0.54 miles
230 West 17th Street, Floors 6-8 New York 10011
(212)206-5200
Handicap Accessible","230 West 17th Street, Floors 6-8 New York 10011",(212)206-5200,10011
497,THE INSTITUTE FOR FAMILY HEALTH,"Distance: 3.7 miles
300 Cadman Plaza West Brooklyn 11201
(212)423-4200
Handicap Accessible",300 Cadman Plaza West Brooklyn 11201,(212)423-4200,11201
498,THE JEWISH ASSOCIATION FOR SERVICES FOR THE AGED,"Distance: 8.13 miles
910 East 172nd Street, 1st Floor Bronx 10460
(718)365-4044
Handicap Accessible","910 East 172nd Street, 1st Floor Bronx 10460",(718)365-4044,10460
499,"THE NEW HORIZON COUNSELING CENTER, INC.","Distance: 16.26 miles
718-720 Beach 20th Street Far Rockaway 11691
(718)327-7163
Handicap Accessible",718-720 Beach 20th Street Far Rockaway 11691,(718)327-7163,11691
500,THE NEW YORK FOUNDLING,"Distance: 4.87 miles
2090 Adam Clayton Powell Jr Boulevard New York 10027
(718)772-0280
Handicap Accessible",2090 Adam Clayton Powell Jr Boulevard New York 10027,(718)772-0280,10027
501,THE NEW YORK FOUNDLING,"Distance: 6.49 miles
501 Southern Blvd. Bronx 10455
(718)772-0280
Handicap Accessible",501 Southern Blvd. Bronx 10455,(718)772-0280,10455
502,"TRANSITIONAL SERVICES FOR NEW YORK, INC.","Distance: 10.14 miles
5th Floo90-27 Sutphin Boulevardr Jamaica 11435
(718)526-8400
Handicap Accessible",5th Floo90-27 Sutphin Boulevardr Jamaica 11435,(718)526-8400,11435
503,TRI CENTER INC,"Distance: 0.53 miles
1369 Broadway New York 10018
(212)268-8830
Handicap Accessible",1369 Broadway New York 10018,(212)268-8830,10018
504,UNIVERSITY SETTLEMENT SOCIETY OF NEW YORK,"Distance: 1.96 miles
184 Eldridge Street New York 10002
(212)453-4522
Handicap Accessible",184 Eldridge Street New York 10002,(212)453-4522,10002
505,URBAN HEALTH PLAN INC.,"Distance: 8.98 miles
4419 3rd Avenue Bronx 10457
(718)364-7700
Handicap Accessible",4419 3rd Avenue Bronx 10457,(718)364-7700,10457
506,VISITING NURSE SERVICE OF NEW YORK HOME CARE II,"Distance: 6.22 miles
349 E. 149th Street Bronx 10455
(212)290-6565
Handicap Accessible",349 E. 149th Street Bronx 10455,(212)290-6565,10455
507,"VOCATIONAL INSTRUCTION PROJECT COMMUNITY SERVICES, INC","Distance: 8.63 miles
1910 Arthur Avenue Bronx 10457
(718)542-8700
Handicap Accessible",1910 Arthur Avenue Bronx 10457,(718)542-8700,10457
508,WESTCHESTER JEWISH COMMUNITY SERVICES,"Distance: 36.91 miles
612 Depew Street Peekskill 10566
(914)773-4135
Handicap Accessible",612 Depew Street Peekskill 10566,(914)773-4135,10566
509,WESTCHESTER JEWISH COMMUNITY SERVICES,"Distance: 16.3 miles
631 Tuckahoe Road, Room 248 Yonkers 10701
(914)237-6089
Handicap Accessible","631 Tuckahoe Road, Room 248 Yonkers 10701",(914)237-6089,10701
510,ACMH INC.,"Distance: 9.11 miles
120-34 Queens Blvd. Ste.205 (office) Kew Gardens 11415
(718)261-5131
Handicap Accessible",120-34 Queens Blvd. Ste.205 (office) Kew Gardens 11415,(718)261-5131,11415
511,"ACMH, INC.","Distance: 9.11 miles
120-34 Queens Boulevard Kew Gardens 11415
(212)253-6377
Handicap Accessible",120-34 Queens Boulevard Kew Gardens 11415,(212)253-6377,11415
512,ASSOCIATION TO BENEFIT CHILDREN,"Distance: 3.4 miles
404 East 91st Street New York 10028
(646)459-6165
Handicap Accessible",404 East 91st Street New York 10028,(646)459-6165,10028
513,ASSOCIATION TO BENEFIT CHILDREN,"Distance: 3.3 miles
421 E 88th St, Room 402 New York 10128
(646)459-6165
Handicap Accessible","421 E 88th St, Room 402 New York 10128",(646)459-6165,10128
514,ASTOR SERVICES FOR CHILDREN & FAMILIES,"Distance: 7.3 miles
1110 Boston Road, Room 201 Bronx 10452
(718)231-3400
Handicap Accessible","1110 Boston Road, Room 201 Bronx 10452",(718)231-3400,10452
515,ASTOR SERVICES FOR CHILDREN & FAMILIES,"Distance: 10.75 miles
149 East Mosholu Parkway, Room 414C Bronx 10467
(718)231-3400
Handicap Accessible","149 East Mosholu Parkway, Room 414C Bronx 10467",(718)231-3400,10467
516,ASTOR SERVICES FOR CHILDREN & FAMILIES,"Distance: 8.45 miles
4143 Third Avenue, Room 218B Bronx 10472
(718)231-3400
Handicap Accessible","4143 Third Avenue, Room 218B Bronx 10472",(718)231-3400,10472
517,BETH ISRAEL MEDICAL CENTER,"Distance: 5.27 miles
25 12th St Brooklyn 11215
(718)252-3000
Handicap Accessible",25 12th St Brooklyn 11215,(718)252-3000,11215
518,BETH ISRAEL MEDICAL CENTER,"Distance: 1.85 miles
26 Avenue A New York 10009
(718)252-3000
Handicap Accessible",26 Avenue A New York 10009,(718)252-3000,10009
519,"BLEULER PSYCHOTHERAPY CENTER, INC.","Distance: 7.97 miles
104-70 Queens Boulevard, 3rd Floor Forest Hills 11375
(718)275-6010
Handicap Accessible","104-70 Queens Boulevard, 3rd Floor Forest Hills 11375",(718)275-6010,11375
520,BRONXCARE HEALTH SYSTEM,"Distance: 7.3 miles
401 E. 167th Street Bronx 10456
(718)992-7669
Handicap Accessible",401 E. 167th Street Bronx 10456,(718)992-7669,10456
521,BROOKDALE HOSPITAL MEDICAL CENTER,"Distance: 6.24 miles
1545 Atlantic Ave Brooklyn 11213
(718)240-6059
Handicap Accessible",1545 Atlantic Ave Brooklyn 11213,(718)240-6059,11213
522,"BROOKLYN CENTER FOR PSYCHOTHERAPY, INC.","Distance: 249.27 miles
33 Chestnut St Rochester 14604
(718)398-0800
Handicap Accessible",33 Chestnut St Rochester 14604,(718)398-0800,14604
523,CENTER FOR ALTERNATIVE SENTENCING AND EMPLOYMENT SERVICES,"Distance: 3.99 miles
151 Lawrence Street, 4th Floor Brooklyn 11201
(212)553-6300
Handicap Accessible","151 Lawrence Street, 4th Floor Brooklyn 11201",(212)553-6300,11201
524,CENTER FOR HEARING AND COMMUNICATION,"Distance: 3.03 miles
50 Broadway New York 10004
(917)305-7700
Handicap Accessible",50 Broadway New York 10004,(917)305-7700,10004
525,CENTER FOR URBAN COMMUNITY SERVICES,"Distance: 7.94 miles
1307 Southern Boulevard Bronx 10459
(718)519-8326
Handicap Accessible",1307 Southern Boulevard Bronx 10459,(718)519-8326,10459
526,"COMMUNITY ASSOCIATION OF PROGRESSIVE DOMINICANS, INC.","Distance: 8.32 miles
1865 Morris Avenue, Room 116 Bronx 10453
(212)781-5500
Handicap Accessible","1865 Morris Avenue, Room 116 Bronx 10453",(212)781-5500,10453
527,"COMMUNITY ASSOCIATION OF PROGRESSIVE DOMINICANS, INC.","Distance: 6.94 miles
3940 Broadway New York 10032
(212)781-5500
Handicap Accessible",3940 Broadway New York 10032,(212)781-5500,10032
528,"FAMILY SERVICES OF WESTCHESTER, INC.","Distance: 16.33 miles
15 Summit Ave New Rochelle 10801
(914)355-2625
Handicap Accessible",15 Summit Ave New Rochelle 10801,(914)355-2625,10801
529,GODDARD RIVERSIDE COMMUNITY CENTER,"Distance: 5.64 miles
140 West 140th Street New York 10030
(212)531-2727
Handicap Accessible",140 West 140th Street New York 10030,(212)531-2727,10030
530,"GREENWICH HOUSE, INC","Distance: 2.03 miles
210-212 Canal Street, Units 403 & 404 New York 10013
(212)242-4140
Handicap Accessible","210-212 Canal Street, Units 403 & 404 New York 10013",(212)242-4140,10013
531,INSTITUTE FOR COMMUNITY LIVING,"Distance: 6.96 miles
2384 Atlantic Avenue Brooklyn 11233
(718)234-0073
Handicap Accessible",2384 Atlantic Avenue Brooklyn 11233,(718)234-0073,11233
532,"INTERBOROUGH DEVELOPMENTAL & CONSULTATION CENTER, INC","Distance: 3.9 miles
819 Grand Street Brooklyn 11211
(718)388-5176
Handicap Accessible",819 Grand Street Brooklyn 11211,(718)388-5176,11211
533,JAMAICA HOSPITAL MEDICAL CENTER,"Distance: 10.11 miles
9009 Van Wyck Expressway Jamaica 11435
(718)206-6000
Handicap Accessible",9009 Van Wyck Expressway Jamaica 11435,(718)206-6000,11435
534,JEWISH ASSOCIATION FOR SERVICES FOR THE AGED,"Distance: 3.82 miles
202 Graham Avenue Brooklyn 11206
(913)308-0848
Handicap Accessible",202 Graham Avenue Brooklyn 11206,(913)308-0848,11206
535,JEWISH CHILD CARE ASSOCIATION OF NEW YORK,"Distance: 28.92 miles
1075 Broadway Pleasantville 10570
(917)808-4800
Handicap Accessible",1075 Broadway Pleasantville 10570,(917)808-4800,10570
536,"JULIA DYCKMAN ANDURS MEMORIAL, INC.","Distance: 22.04 miles
128 Grandview Avenue, Room 245 White Plains 10605
(914)965-1109
Handicap Accessible","128 Grandview Avenue, Room 245 White Plains 10605",(914)965-1109,10605
537,"JULIA DYCKMAN ANDURS MEMORIAL, INC.","Distance: 37.36 miles
212 Ringgold Street, Room 221 Peekskill 10566
(914)965-1109
Handicap Accessible","212 Ringgold Street, Room 221 Peekskill 10566",(914)965-1109,10566
538,"JULIA DYCKMAN ANDURS MEMORIAL, INC.","Distance: 16.57 miles
65 Main Street, Office 7, Room 340 Tuckahoe 10707
(914)528-2021
Handicap Accessible","65 Main Street, Office 7, Room 340 Tuckahoe 10707",(914)528-2021,10707
539,KINGSBORO PSYCHIATRIC CENTER (NYSOMH),"Distance: 8.85 miles
9801 Foster Avenue, #441 Brooklyn 11236
(718)257-7780
Handicap Accessible","9801 Foster Avenue, #441 Brooklyn 11236",(718)257-7780,11236
540,KINGSBROOK JEWISH MEDICAL CENTER,"Distance: 6.97 miles
585 Schenectady Avenue Brooklyn 11203
(718)604-5615
Handicap Accessible",585 Schenectady Avenue Brooklyn 11203,(718)604-5615,11203
541,MOUNT SINAI HOSPITAL,"Distance: 4.02 miles
25-10 30th Avenue Long Island City 11102
(718)392-1000
Handicap Accessible",25-10 30th Avenue Long Island City 11102,(718)392-1000,11102
543,"NEW ALTERNATIVES FOR CHILDREN, INC","Distance: 0.42 miles
37 West 26th Street New York 10010
(212)696-1550
Handicap Accessible",37 West 26th Street New York 10010,(212)696-1550,10010
545,NEW YORK CITY CHILDREN'S CENTER (NYSOMH),"Distance: 6.46 miles
1819 Bergen Street Brooklyn 11233
(518)549-5272
Handicap Accessible",1819 Bergen Street Brooklyn 11233,(518)549-5272,11233
546,NEW YORK CITY CHILDREN'S CENTER (NYSOMH),"Distance: 14.31 miles
74-03 Commonwealth Blvd , bldg 57, 2nd FL, Rear Bellerose 11426
(718)264-4586
Handicap Accessible","74-03 Commonwealth Blvd , bldg 57, 2nd FL, Rear Bellerose 11426",(718)264-4586,11426
547,NEW YORK FOUNDLING,"Distance: 4.78 miles
123 Morningside Drive, Room 258 New York 10027
(917)485-7580
Handicap Accessible","123 Morningside Drive, Room 258 New York 10027",(917)485-7580,10027
548,NEW YORK FOUNDLING,"Distance: 4.51 miles
45-11 31st Ave, RM 429A Astoria 11103
(917)485-7580
Handicap Accessible","45-11 31st Ave, RM 429A Astoria 11103",(917)485-7580,11103
549,NEW YORK PSYCHIATRIC INSTITUTE (NYSOMH),"Distance: 7.04 miles
1051 Riverside Drive, 1st Fl New York 10032
(646)774-8459
Handicap Accessible","1051 Riverside Drive, 1st Fl New York 10032",(646)774-8459,10032
550,NEW YORK PSYCHIATRIC INSTITUTE (NYSOMH),"Distance: 6.98 miles
513 W. 166th Street, 4th Fl New York 10032
(212)928-8300
Handicap Accessible","513 W. 166th Street, 4th Fl New York 10032",(212)928-8300,10032
551,NEW YORK PSYCHOTHERAPY AND COUNSELING CENTER,"Distance: 6.45 miles
579 Courtlandt Avenue Bronx 10451
(718)485-2100
Handicap Accessible",579 Courtlandt Avenue Bronx 10451,(718)485-2100,10451
552,"NORTHSIDE CENTER FOR CHILD DEVELPOMENT, INC.","Distance: 4.08 miles
35 E 110th Street New York 10029
(212)426-3400
Handicap Accessible",35 E 110th Street New York 10029,(212)426-3400,10029
553,NORTHWELL / PHELPS MEMORIAL HOSPITAL,"Distance: 25.97 miles
755 North Broadway Sleepy Hollow 10591
(914)366-3600
Handicap Accessible",755 North Broadway Sleepy Hollow 10591,(914)366-3600,10591
554,NORTHWELL / SOUTH OAKS HOSPITAL,"Distance: 30.39 miles
400 Sunrise Highway, Admin Bldg, 2nd Floor Amityville 11701
(631)608-5900
Handicap Accessible","400 Sunrise Highway, Admin Bldg, 2nd Floor Amityville 11701",(631)608-5900,11701
556,NYC HEALTH + HOSPITALS / NORTH CENTRAL BRONX,"Distance: 10.98 miles
3424 Kossuth Avenue Bronx 10467
(718)579-4061
Handicap Accessible",3424 Kossuth Avenue Bronx 10467,(718)579-4061,10467
557,NYC HEALTH + HOSPITALS / QUEENS,"Distance: 10.29 miles
82-68 164th Street Jamaica 11432
(718)579-4061
Handicap Accessible",82-68 164th Street Jamaica 11432,(718)579-4061,11432
558,NYC HEALTH + HOSPITALS / QUEENS,"Distance: 10.93 miles
82-70 164th Street Jamaica 11432
(718)579-4061
Handicap Accessible",82-70 164th Street Jamaica 11432,(718)579-4061,11432
559,OHEL CHILDREN'S HOME AND FAMILY SERVICES DBA TIKVAH AT OHEL,"Distance: 16.97 miles
156 Beach 9th Street Far Rockaway 11691
(718)435-5533
Handicap Accessible",156 Beach 9th Street Far Rockaway 11691,(718)435-5533,11691
560,OUTREACH DEVELOPMENT CORPORATION,"Distance: 38.76 miles
452 Suffolk Avenue Brentwood 11717
(631)436-6065
Handicap Accessible",452 Suffolk Avenue Brentwood 11717,(631)436-6065,11717
561,PESACH TIKVAH HOPE DEVELOPMENT INC.,"Distance: 7.93 miles
1601 42nd Street Rm 312 Brooklyn 11204
(718)875-6900
Handicap Accessible",1601 42nd Street Rm 312 Brooklyn 11204,(718)875-6900,11204
563,PESACH TIKVAH HOPE DEVELOPMENT INC.,"Distance: 8.78 miles
40 Lynch Street Rm 115 Brooklyn 11206
(718)875-6900
Handicap Accessible",40 Lynch Street Rm 115 Brooklyn 11206,(718)875-6900,11206
564,PESACH TIKVAH HOPE DEVELOPMENT INC.,"Distance: 10.86 miles
4315 16th Avenue Rm 1 Bronx 10467
(718)875-6900
Handicap Accessible",4315 16th Avenue Rm 1 Bronx 10467,(718)875-6900,10467
565,PESACH TIKVAH HOPE DEVELOPMENT INC.,"Distance: 7.39 miles
550 Ocean Parkway Rm 102 Brooklyn 11218
(718)875-6900
Handicap Accessible",550 Ocean Parkway Rm 102 Brooklyn 11218,(718)875-6900,11218
566,"PROMESA RESIDENTIAL HEALTH CARE FACILITY, INC. DBA CASA PROMESA","Distance: 5.22 miles
561 Court St Brooklyn 11231
(347)352-2500
Handicap Accessible",561 Court St Brooklyn 11231,(347)352-2500,11231
567,"PUERTO RICAN FAMILY INSTITUTE, INC.","Distance: 0.67 miles
145 West 15th Street New York 10011
(212)924-6320
Handicap Accessible",145 West 15th Street New York 10011,(212)924-6320,10011
568,ROCKLAND CHILDREN'S PSYCHIATRIC CENTER (NYSOMH),"Distance: 69.17 miles
5 BOCES Road, Rms S5, S18-S20, Offices 101, 115 Poughkeepsie 12601
(845)486-4944
Handicap Accessible","5 BOCES Road, Rms S5, S18-S20, Offices 101, 115 Poughkeepsie 12601",(845)486-4944,12601
569,ROCKLAND PSYCHIATRIC CENTER (NYSOMH),"Distance: 14.16 miles
100 E 1st Street Mount Vernon 10550
(518)549-5272
Handicap Accessible",100 E 1st Street Mount Vernon 10550,(518)549-5272,10550
570,ROCKLAND PSYCHIATRIC CENTER (NYSOMH),"Distance: 14.16 miles
100 East 1st Street Mount Vernon 10550
(914)363-1510
Handicap Accessible",100 East 1st Street Mount Vernon 10550,(914)363-1510,10550
571,ROCKLAND PSYCHIATRIC CENTER (NYSOMH),"Distance: 14.37 miles
2 Park Avenue Yonkers 10703
(518)549-5272
Handicap Accessible",2 Park Avenue Yonkers 10703,(518)549-5272,10703
572,SAMARITAN DAYTOP VILLAGE INC,"Distance: 5.73 miles
250 Grand Concourse Bronx 10451
(718)292-4455
Handicap Accessible",250 Grand Concourse Bronx 10451,(718)292-4455,10451
573,SAMARITAN DAYTOP VILLAGE INC,"Distance: 5.73 miles
250 Grand Concourse Avenue Bronx 10451
(718)292-4455
Handicap Accessible",250 Grand Concourse Avenue Bronx 10451,(718)292-4455,10451
574,SAMARITAN DAYTOP VILLAGE INC,"Distance: 10.88 miles
900 Arnow Ave Bronx 10469
(718)292-4455
Handicap Accessible",900 Arnow Ave Bronx 10469,(718)292-4455,10469
575,"SERVICE PROGRAM FOR OLDER PEOPLE, INC","Distance: 3.96 miles
135 West 106th Street New York 10025
(212)787-7120
Handicap Accessible",135 West 106th Street New York 10025,(212)787-7120,10025
576,"SERVICE PROGRAM FOR OLDER PEOPLE, INC","Distance: 4.23 miles
312 East 109th Street New York 10029
(212)787-7120
Handicap Accessible",312 East 109th Street New York 10029,(212)787-7120,10029
577,"SERVICE PROGRAM FOR OLDER PEOPLE, INC","Distance: 1.38 miles
331 East 12th Street New York 10003
(212)787-7120
Handicap Accessible",331 East 12th Street New York 10003,(212)787-7120,10003
578,SHELTERING ARMS CHILDREN AND FAMILY SERVICES,"Distance: 6.14 miles
412 East 147th Stree Bronx N.Y. 10455
(212)675-1000
Handicap Accessible",412 East 147th Stree Bronx N.Y. 10455,(212)675-1000,10455
579,"START TREATMENT & RECOVERY CENTERS, INC","Distance: 4.91 miles
119-121 West 124th Street New York 10027
(800)211-0996
Handicap Accessible",119-121 West 124th Street New York 10027,(800)211-0996,10027
580,"THE BRIDGE, INC","Distance: 6.59 miles
560 Southern Blvd Bronx 10455
(212)663-3000
Handicap Accessible",560 Southern Blvd Bronx 10455,(212)663-3000,10455
581,"THE CHILD CENTER OF NY, INC.","Distance: 15.79 miles
426 Beach 40th Street Far Rockaway 11691
(718)651-7770
Handicap Accessible",426 Beach 40th Street Far Rockaway 11691,(718)651-7770,11691
582,THE CHILDREN'S AID SOCIETY,"Distance: 8.13 miles
910 E. 172nd Street Bronx 10460
(347)767-2200
Handicap Accessible",910 E. 172nd Street Bronx 10460,(347)767-2200,10460
583,THE FLOATING HOSPITAL INC.,"Distance: 2.78 miles
10-29 41st Avenue Long Island City 11101
(718)784-2240
Handicap Accessible",10-29 41st Avenue Long Island City 11101,(718)784-2240,11101
584,THE JEWISH ASSOCIATION FOR SERVICES FOR THE AGED,"Distance: 12.39 miles
1220 East 229th Street Bronx 10466
(718)365-4044
Handicap Accessible",1220 East 229th Street Bronx 10466,(718)365-4044,10466
585,THE JEWISH ASSOCIATION FOR SERVICES FOR THE AGED,"Distance: 8.81 miles
80 E 181st Street Bronx 10453
(718)365-4044
Handicap Accessible",80 E 181st Street Bronx 10453,(718)365-4044,10453
586,"THE NEW HORIZON COUNSELING CENTER, INC.","Distance: 16.52 miles
242 Beach 20th Street Far Rockaway 11691
(718)471-0982
Handicap Accessible",242 Beach 20th Street Far Rockaway 11691,(718)471-0982,11691
587,"UPPER ROOM AIDS MINISTRY, INC.","Distance: 5.31 miles
163 West 133rd Street, 1st Floor New York 10030
(646)762-4950
Handicap Accessible","163 West 133rd Street, 1st Floor New York 10030",(646)762-4950,10030
588,VIP COMMUNITY SERVICES,"Distance: 8.55 miles
770 E 176th St Bronx 10460
(718)542-8700
Handicap Accessible",770 E 176th St Bronx 10460,(718)542-8700,10460
589,"WELLLIFE NETWORK, INC.","Distance: 6.87 miles
1900 Sterling Place, 1st and 2nd Floor Brooklyn 11223
(917)563-3347
Handicap Accessible","1900 Sterling Place, 1st and 2nd Floor Brooklyn 11223",(917)563-3347,11223
590,"WELLLIFE NETWORK, INC.","Distance: 13.08 miles
209-11 Jamaica Avenue Queens Village 11428
(718)297-1718
Handicap Accessible",209-11 Jamaica Avenue Queens Village 11428,(718)297-1718,11428
591,WESTCHESTER JEWISH COMMUNITY SERVICES,"Distance: 37.81 miles
1101 Main Street Peekskill 10566
(914)737-7338
Handicap Accessible",1101 Main Street Peekskill 10566,(914)737-7338,10566
592,"ACMH, INC.","Distance: 11.21 miles
90-26 171st Street Jamaica 11432
(212)253-6377
Handicap Accessible",90-26 171st Street Jamaica 11432,(212)253-6377,11432
594,ARISTA CENTER FOR PSYCHOTHERAPY,"Distance: 8.4 miles
110-20 71st Road, Suite 111 Forest Hills 11375
(718)793-3133
Handicap Accessible","110-20 71st Road, Suite 111 Forest Hills 11375",(718)793-3133,11375
595,ASTOR SERVICES FOR CHILDREN & FAMILIES,"Distance: 8.57 miles
516 East Treamont Avenue Bronx 10457
(718)231-3400
Handicap Accessible",516 East Treamont Avenue Bronx 10457,(718)231-3400,10457
596,BALTIC STREET CLINIC (NYSOMH),"Distance: 4.3 miles
250 Baltic Street Brooklyn 11201
(718)855-3131
Handicap Accessible",250 Baltic Street Brooklyn 11201,(718)855-3131,11201
597,"BRIDGE BACK TO LIFE CENTER, INC.","Distance: 3.81 miles
175 Remsen St Brooklyn 11201
(718)447-5700
Handicap Accessible",175 Remsen St Brooklyn 11201,(718)447-5700,11201
598,"BRIDGE BACK TO LIFE CENTER, INC.","Distance: 27.1 miles
4271 Hempstead Turnpike Bethpage 11714
(516)520-6600
Handicap Accessible",4271 Hempstead Turnpike Bethpage 11714,(516)520-6600,11714
599,BRIDGING ACCESS TO CARE,"Distance: 7.06 miles
2261 Church Avenue, 1st Floor Brooklyn 11226
(347)505-5117
Handicap Accessible","2261 Church Avenue, 1st Floor Brooklyn 11226",(347)505-5117,11226
600,C.C.M.S.,"Distance: 0.39 miles
115 West 31st Street New York 10001
(718)802-0666
Handicap Accessible",115 West 31st Street New York 10001,(718)802-0666,10001
601,C.C.M.S.,"Distance: 4.13 miles
25 Elm Place Brooklyn 11201
(718)802-0666
Handicap Accessible",25 Elm Place Brooklyn 11201,(718)802-0666,11201
602,"CATHOLIC CHARITIES NEIGHBORHOOD SERVICES, INC.","Distance: 16.31 miles
1847 Mott Avenue Far Rockawa 11691
(718)722-6258
Handicap Accessible",1847 Mott Avenue Far Rockawa 11691,(718)722-6258,11691
603,"CATHOLIC CHARITIES NEIGHBORHOOD SERVICES, INC.","Distance: 4.13 miles
Mercy Gardens Brooklyn 11205
(718)722-6258
Handicap Accessible",Mercy Gardens Brooklyn 11205,(718)722-6258,11205
604,"CHILDREN OF PROMISE, NYC","Distance: 5.41 miles
54 Macdonough Street Brooklyn 11216
(718)483-9290
Handicap Accessible",54 Macdonough Street Brooklyn 11216,(718)483-9290,11216
605,"FAMILY SERVICES OF WESTCHESTER, INC.","Distance: 23.52 miles
106 North Broadway White Plains 10603
(914)422-8100
Handicap Accessible",106 North Broadway White Plains 10603,(914)422-8100,10603
606,"FAMILY SERVICES OF WESTCHESTER, INC.","Distance: 15.48 miles
507 5th Ave. Pelham 10803
(914)738-1728
Handicap Accessible",507 5th Ave. Pelham 10803,(914)738-1728,10803
607,"FAMILY SERVICES OF WESTCHESTER, INC.","Distance: 18.03 miles
78 Main Street Hastings-on-Hudson 10706
(914)274-8334
Handicap Accessible",78 Main Street Hastings-on-Hudson 10706,(914)274-8334,10706
608,"HAITIAN CENTERS COUNCIL, INC","Distance: 7.3 miles
3807 Church Avenue Brooklyn 11203
(718)940-2200
Handicap Accessible",3807 Church Avenue Brooklyn 11203,(718)940-2200,11203
609,INSTITUTE FOR COMMUNITY LIVING,"Distance: 5.39 miles
14 Bruckner Boulevard Bronx 10454
(212)385-3030
Handicap Accessible",14 Bruckner Boulevard Bronx 10454,(212)385-3030,10454
610,INSTITUTE FOR COMMUNITY LIVING,"Distance: 16.55 miles
4434 Amboy Road Staten Island 10312
(888)425-0501
Handicap Accessible",4434 Amboy Road Staten Island 10312,(888)425-0501,10312
611,INSTITUTE FOR COMMUNITY LIVING,"Distance: 4.3 miles
50 Nevins Street Brooklyn 11217
(888)425-0501
Handicap Accessible",50 Nevins Street Brooklyn 11217,(888)425-0501,11217
612,"INTERBOROUGH DEVELOPMENTAL & CONSULTATION CENTER, INC","Distance: 6.45 miles
1117 Eastern Parkway Brooklyn 11213
(718)684-7774
Handicap Accessible",1117 Eastern Parkway Brooklyn 11213,(718)684-7774,11213
613,"INTERBOROUGH DEVELOPMENTAL & CONSULTATION CENTER, INC","Distance: 8.85 miles
94 - 13 Flatlands Ave. Brooklyn 11236
(718)272-1600
Handicap Accessible",94 - 13 Flatlands Ave. Brooklyn 11236,(718)272-1600,11236
614,"JEWISH BOARD OF FAMILY AND CHILDREN'S SERVICES, INC.","Distance: 9.09 miles
1600 Avenue L, Room 124 Brooklyn 11230
(718)258-9283
Handicap Accessible","1600 Avenue L, Room 124 Brooklyn 11230",(718)258-9283,11230
615,JEWISH CHILD CARE ASSOCIATION OF NEW YORK,"Distance: 8.61 miles
858 East 29th Street Brooklyn 11210
(718)859-4500
Handicap Accessible",858 East 29th Street Brooklyn 11210,(718)859-4500,11210
616,"JULIA DYCKMAN ANDURS MEMORIAL, INC.","Distance: 12.71 miles
195 McLean Avenue, Office 1, 1st Fl Yonkers 10705
(914)528-2021
Handicap Accessible","195 McLean Avenue, Office 1, 1st Fl Yonkers 10705",(914)528-2021,10705
617,MANHATTAN PSYCHIATRIC CENTER (NYSOMH),"Distance: 4.93 miles
163 W 125th Street New York 10027
(518)549-5272
Handicap Accessible",163 W 125th Street New York 10027,(518)549-5272,10027
618,MENTAL HEALTH ASSN OF NYC INC DBA VIBRANT,"Distance: 9.43 miles
2488 Grand Concourse, Suite 301 Bronx 10458
(646)532-3560
Handicap Accessible","2488 Grand Concourse, Suite 301 Bronx 10458",(646)532-3560,10458
619,METROPOLITAN CENTER FOR MENTAL HEALTH INC,"Distance: 2.92 miles
160 West 86th St. Bsmt New York 10024
(212)543-0004
Handicap Accessible",160 West 86th St. Bsmt New York 10024,(212)543-0004,10024
620,NEIGHBORHOOD COUNSELING CENTER,"Distance: 8.99 miles
7701 13th Avenue Brooklyn 11228
(718)232-1351
Handicap Accessible",7701 13th Avenue Brooklyn 11228,(718)232-1351,11228
621,"NEW HORIZON COUNSELING CENTER, INC.","Distance: 43.06 miles
11 Route 111 Smithtown 11787
(718)471-8671
Handicap Accessible",11 Route 111 Smithtown 11787,(718)471-8671,11787
622,"NEW HORIZON COUNSELING CENTER, INC.","Distance: 16.57 miles
1526 New Haven Avenue Far Rockaway 11691
(718)471-8671
Handicap Accessible",1526 New Haven Avenue Far Rockaway 11691,(718)471-8671,11691
623,"NEW HORIZON COUNSELING CENTER, INC.","Distance: 31.6 miles
445 Oak Street Copiague 11726
(718)471-8671
Handicap Accessible",445 Oak Street Copiague 11726,(718)471-8671,11726
625,NEW YORK FOUNDLING,"Distance: 4.73 miles
216 East 120th Street, 1st Flr, RM 222, New York 10035
(917)485-7580
Handicap Accessible","216 East 120th Street, 1st Flr, RM 222, New York 10035",(917)485-7580,10035
626,NEW YORK FOUNDLING,"Distance: 5.63 miles
240 Convent Ave, RM 111, NY NY 10031 New York 10031
(917)485-7580
Handicap Accessible","240 Convent Ave, RM 111, NY NY 10031 New York 10031",(917)485-7580,10031
627,NEW YORK PSYCHOTHERAPY AND COUNSELING CENTER,"Distance: 9.03 miles
2857 Linden Boulevard Brooklyn 11208
(718)235-3100
Handicap Accessible",2857 Linden Boulevard Brooklyn 11208,(718)235-3100,11208
628,"NORTHSIDE CENTER FOR CHILD DEVELPOMENT, INC.","Distance: 6.48 miles
250 East 156th Street, Room 413B Bronx 10451
(212)426-3400
Handicap Accessible","250 East 156th Street, Room 413B Bronx 10451",(212)426-3400,10451
629,NORTHWELL / HUNTINGTON HOSPITAL ASSOCIATION,"Distance: 31.71 miles
270 Park Avenue Huntington 11743
(631)351-2434
Handicap Accessible",270 Park Avenue Huntington 11743,(631)351-2434,11743
630,NORTHWELL / PHELPS MEMORIAL HOSPITAL,"Distance: 28.07 miles
315 South Highland Avenue Briarcliff Manor 10510
(914)923-5700
Handicap Accessible",315 South Highland Avenue Briarcliff Manor 10510,(914)923-5700,10510
631,"NYC HEALTH + HOSPITALS / EAST NEW YORK, A GOTHAM HEALTH CENTER","Distance: 7.52 miles
2094 Pitkin Avenue Brooklyn 11207
(718)579-4061
Handicap Accessible",2094 Pitkin Avenue Brooklyn 11207,(718)579-4061,11207
632,"NYC HEALTH + HOSPITALS / GOUVERNEUR, A GOTHAM HEALTH CENTER","Distance: 1.63 miles
540 E. 13th Street New York 10009
(718)579-4061
Handicap Accessible",540 E. 13th Street New York 10009,(718)579-4061,10009
633,NYC HEALTH + HOSPITALS / HARLEM,"Distance: 4.97 miles
103 E 125th St New York 10035
(718)252-3000
Handicap Accessible",103 E 125th St New York 10035,(718)252-3000,10035
634,NYC HEALTH + HOSPITALS / HARLEM,"Distance: 5.42 miles
512 Lenox Avenue New York 10037
(718)579-4061
Handicap Accessible",512 Lenox Avenue New York 10037,(718)579-4061,10037
635,NYC HEALTH + HOSPITALS / LINCOLN,"Distance: 6.09 miles
234 E. 149th Street Bronx 10451
(718)579-4061
Handicap Accessible",234 E. 149th Street Bronx 10451,(718)579-4061,10451
636,NYC HEALTH + HOSPITALS / NORTH CENTRAL,"Distance: 10.98 miles
3424 Kossuth Avenue Bronx 10467
(718)918-5700
Handicap Accessible",3424 Kossuth Avenue Bronx 10467,(718)918-5700,10467
637,NYU HOSPITALS CENTER DBA NYU LUTHERAN FAMILY HEALTH CENTER QUALITY CARE GROUP,"Distance: 3.82 miles
215 Heyward Street, Rm 240 Brooklyn 11206
(718)388-3872
Handicap Accessible","215 Heyward Street, Rm 240 Brooklyn 11206",(718)388-3872,11206
638,OUTREACH DEVELOPMENT CORPORATION,"Distance: 54.89 miles
11 Farber Drive Bellport 11713
(631)286-0700
Handicap Accessible",11 Farber Drive Bellport 11713,(631)286-0700,11713
639,"PARK SLOPE CENTER FOR MENTAL HEALTH, INC.","Distance: 5.8 miles
348 13th Street Brooklyn 11215
(516)564-2973
Handicap Accessible",348 13th Street Brooklyn 11215,(516)564-2973,11215
640,PESACH TIKVAH HOPE DEVELOPMENT INC.,"Distance: 8.78 miles
12 Franklin Avenue Rm 410 Brooklyn 11249
(718)875-6900
Handicap Accessible",12 Franklin Avenue Rm 410 Brooklyn 11249,(718)875-6900,11249
641,PESACH TIKVAH HOPE DEVELOPMENT INC.,"Distance: 3.97 miles
18 Middleton St Brooklyn 11206
(718)875-6900
Handicap Accessible",18 Middleton St Brooklyn 11206,(718)875-6900,11206
642,PESACH TIKVAH HOPE DEVELOPMENT INC.,"Distance: 3.8 miles
62 Harrison Avenue Rm 230 Brooklyn 11211
(718)875-6900
Handicap Accessible",62 Harrison Avenue Rm 230 Brooklyn 11211,(718)875-6900,11211
643,POST GRADUATE CENTER FOR MENTAL HEALTH,"Distance: 6.25 miles
391 East 149th Street, 4th Floor Bronx 10455
(718)215-1117
Handicap Accessible","391 East 149th Street, 4th Floor Bronx 10455",(718)215-1117,10455
644,"QSA SERVICES, INC. DBA THE PAC PROGRAM OF QUEENS","Distance: 6.65 miles
40-11 Warren Street Elmhurst 11373
(718)729-8686
Handicap Accessible",40-11 Warren Street Elmhurst 11373,(718)729-8686,11373
645,ROCKLAND PSYCHIATRIC CENTER (NYSOMH),"Distance: 37.82 miles
1040 Main Street Peekskill 10566
(518)549-5272
Handicap Accessible",1040 Main Street Peekskill 10566,(518)549-5272,10566
646,SAMARITAN DAYTOP VILLAGE INC,"Distance: 79.13 miles
190 Fox Hollow Road Rhinebeck 12572
(845)876-3789
Handicap Accessible",190 Fox Hollow Road Rhinebeck 12572,(845)876-3789,12572
647,SAMARITAN DAYTOP VILLAGE INC,"Distance: 8.84 miles
Home and Community Based Locations - Kings County Brooklyn 11230
(718)292-4455
Handicap Accessible",Home and Community Based Locations - Kings County Brooklyn 11230,(718)292-4455,11230
648,"SERVICE PROGRAM FOR OLDER PEOPLE, INC","Distance: 3.02 miles
188 West 88th Street New York 10024
(212)787-7120
Handicap Accessible",188 West 88th Street New York 10024,(212)787-7120,10024
649,"SERVICE PROGRAM FOR OLDER PEOPLE, INC","Distance: 2.42 miles
197 East Broadway, New York 10002
(212)787-7120
Handicap Accessible","197 East Broadway, New York 10002",(212)787-7120,10002
650,SHELTERING ARMS CHILDREN AND FAMILY SERVICES,"Distance: 0.2 miles
2nd Fl., 305 Seventh Avenue New York 10001
(212)675-1000
Handicap Accessible","2nd Fl., 305 Seventh Avenue New York 10001",(212)675-1000,10001
651,ST. BARNABAS HOSPITAL,"Distance: 9.12 miles
4422 Third Avenue Bronx 10457
(718)960-6636
Handicap Accessible",4422 Third Avenue Bronx 10457,(718)960-6636,10457
652,"START TREATMENT & RECOVERY CENTERS, INC","Distance: 4.79 miles
937 Fulton Street Brooklyn 11238
(800)211-0996
Handicap Accessible",937 Fulton Street Brooklyn 11238,(800)211-0996,11238
653,SUN RIVER HEALTH,"Distance: 8.53 miles
56 Bay St Staten Island 10301
(914)384-2375
Handicap Accessible",56 Bay St Staten Island 10301,(914)384-2375,10301
654,THE BROOKDALE HOSPITAL MEDICAL CENTER,"Distance: 7.83 miles
One Brookdale Plaza Brooklyn 11212
(718)240-5000
Handicap Accessible",One Brookdale Plaza Brooklyn 11212,(718)240-5000,11212
655,THE CHILDREN'S AID SOCIETY,"Distance: 7.06 miles
21 Jumel Place, Rooms 127F and 127K New York 10032
(212)923-1495
Handicap Accessible","21 Jumel Place, Rooms 127F and 127K New York 10032",(212)923-1495,10032
656,THE CHILDREN'S AID SOCIETY,"Distance: 8.13 miles
910 East 172nd Street, 3rd Floor Bronx 10460
(347)767-2200
Handicap Accessible","910 East 172nd Street, 3rd Floor Bronx 10460",(347)767-2200,10460
657,"THE FAMILY CENTER, INC.","Distance: 5.29 miles
493 Nostrand Avenue, 3rd & 4th Floors Brooklyn 11216
(718)230-1379
Handicap Accessible","493 Nostrand Avenue, 3rd & 4th Floors Brooklyn 11216",(718)230-1379,11216
658,"THE HISPANIC COUNSELING CENTER, INC","Distance: 19.84 miles
344 Fulron Avenue, 1st and 2nd Floors Hempstead 11550
(516)358-2613
Handicap Accessible","344 Fulron Avenue, 1st and 2nd Floors Hempstead 11550",(516)358-2613,11550
659,"THE NEW HORIZON COUNSELING CENTER, INC.","Distance: 10 miles
156-28 Crossway Boulevard Howard Beach 11414
(718)738-6800
Handicap Accessible",156-28 Crossway Boulevard Howard Beach 11414,(718)738-6800,11414
660,TRI CENTER INC,"Distance: 9.43 miles
2488 Grand Concourse, Suite 415-423 Bronx 10458
(718)584-7204
Handicap Accessible","2488 Grand Concourse, Suite 415-423 Bronx 10458",(718)584-7204,10458
661,VISITING NURSE SERVICE OF NEW YORK HOME CARE,"Distance: 9.79 miles
1630 East 15th Street Brooklyn 11229
(718)840-4058
Handicap Accessible",1630 East 15th Street Brooklyn 11229,(718)840-4058,11229
663,"VOCATIONAL INSTRUCTION PROJECT COMMUNITY SERVICES, INC","Distance: 8.55 miles
764 East 176 Street Bronx 10457
(718)542-8700
Handicap Accessible",764 East 176 Street Bronx 10457,(718)542-8700,10457
664,"VOCATIONAL INSTRUCTION PROJECT COMMUNITY SERVICES, INC","Distance: 8.55 miles
770 East 176th St. 2nd FL. Bronx 10460
(718)583-5150
Handicap Accessible",770 East 176th St. 2nd FL. Bronx 10460,(718)583-5150,10460
665,"VOCATIONAL INSTRUCTION PROJECT COMMUNITY SERVICES, INC","Distance: 8.55 miles
770 East 176th Street Bronx 10460
(718)542-8700
Handicap Accessible",770 East 176th Street Bronx 10460,(718)542-8700,10460
666,WANTAGH DAY TREATMENT PROGRAM (NYSOMH),"Distance: 24.67 miles
2850 North Jerusalem Road Wantagh 11793
(516)396-2955
Handicap Accessible",2850 North Jerusalem Road Wantagh 11793,(516)396-2955,11793
667,"WELLLIFE NETWORK, INC.","Distance: 15.2 miles
800 Northern Blvd, 1st Floor Great Neck 11021
(516)829-9666
Handicap Accessible","800 Northern Blvd, 1st Floor Great Neck 11021",(516)829-9666,11021
668,WESTCHESTER JEWISH COMMUNITY SERVICES,"Distance: 14.22 miles
135 Locust Hill Avenue Yonkers 10701
(914)237-6089
Handicap Accessible",135 Locust Hill Avenue Yonkers 10701,(914)237-6089,10701
669,WESTCHESTER JEWISH COMMUNITY SERVICES,"Distance: 21.66 miles
141 North Central Avenue Hartsdale 10530
(914)949-7699
Handicap Accessible",141 North Central Avenue Hartsdale 10530,(914)949-7699,10530
670,WESTCHESTER JEWISH COMMUNITY SERVICES,"Distance: 16.15 miles
160 Bolmer Avenue, Rooms 17 & 4B Yonkers 10703
(914)376-8174
Handicap Accessible","160 Bolmer Avenue, Rooms 17 & 4B Yonkers 10703",(914)376-8174,10703
671,"WESTCHESTER JEWISH COMMUNITY SERVICES, INC.","Distance: 14.08 miles
11 West Prospect Avenue Mount Vernon 10550
(914)761-0600
Handicap Accessible",11 West Prospect Avenue Mount Vernon 10550,(914)761-0600,10550
672,ACMH INC.,"Distance: 12.93 miles
80-45 Winchester BLVD Creedmoor PC Bg.74 Queens Village 11427
(718)465-6750
Handicap Accessible",80-45 Winchester BLVD Creedmoor PC Bg.74 Queens Village 11427,(718)465-6750,11427
673,ADVANCED CENTER FOR PSYCHOTHERAPY,"Distance: 11.36 miles
178-10 Wexford Terrace Jamaica 11432
(718)261-3330
Handicap Accessible",178-10 Wexford Terrace Jamaica 11432,(718)261-3330,11432
674,"AIDS CENTER OF QUEENS COUNTY, INC.","Distance: 10.84 miles
161-21 Jamaica Avenue Jamaica 11432
(718)472-9400
Handicap Accessible",161-21 Jamaica Avenue Jamaica 11432,(718)472-9400,11432
676,ASSOCIATION TO BENEFIT CHILDREN,"Distance: 5.03 miles
1841 Park Ave New York 10035
(646)459-6165
Handicap Accessible",1841 Park Ave New York 10035,(646)459-6165,10035
677,ASTOR SERVICES FOR CHILDREN & FAMILIES,"Distance: 8.79 miles
700 East 179th Street, Room 223 Bronx 10457
(718)231-3400
Handicap Accessible","700 East 179th Street, Room 223 Bronx 10457",(718)231-3400,10457
678,ASTOR SERVICES FOR CHILDREN & FAMILIES,"Distance: 11.3 miles
750 Tilden Street Bronx 10467
(718)231-3400
Handicap Accessible",750 Tilden Street Bronx 10467,(718)231-3400,10467
679,ASTOR SERVICES FOR CHILDREN & FAMILIES,"Distance: 7.15 miles
888 Rev. J.A. Polite Avenue, Room 316 Bronx 10459
(718)231-3400
Handicap Accessible","888 Rev. J.A. Polite Avenue, Room 316 Bronx 10459",(718)231-3400,10459
680,BRONXCARE HEALTH SYSTEM,"Distance: 7.49 miles
1285 Fulton Ave Bronx 10456
(718)992-7669
Handicap Accessible",1285 Fulton Ave Bronx 10456,(718)992-7669,10456
681,"BROOKLYN CENTER FOR FAMILIES IN CRISIS, INC.","Distance: 7.49 miles
330 Rugby Road, Room B-9 Brooklyn 11226
(718)282-0010
Handicap Accessible","330 Rugby Road, Room B-9 Brooklyn 11226",(718)282-0010,11226
682,"BROOKLYN CENTER FOR PSYCHOTHERAPY, INC.","Distance: 4.44 miles
500 Atlantic Ave Brooklyn 11217
(718)398-0800
Handicap Accessible",500 Atlantic Ave Brooklyn 11217,(718)398-0800,11217
683,"CATHOLIC CHARITIES NEIGHBORHOOD SERVICES, INC.","Distance: 9.47 miles
2037 Utica Avenue Brooklyn 11234
(718)722-6258
Handicap Accessible",2037 Utica Avenue Brooklyn 11234,(718)722-6258,11234
684,EAST HARLEM COUNCIL FOR HUMAN SERVICES INC.,"Distance: 4.9 miles
2265 Third Avenue New York 10035
(212)289-6650
Handicap Accessible",2265 Third Avenue New York 10035,(212)289-6650,10035
685,"FAMILY SERVICES OF WESTCHESTER, INC.","Distance: 14.07 miles
6 Granatan Avenue Mount Vernon 10550
(914)305-6842
Handicap Accessible",6 Granatan Avenue Mount Vernon 10550,(914)305-6842,10550
686,"FAMILY SERVICES OF WESTCHESTER, INC.","Distance: 24.54 miles
One Gateway Plaza Port Chester 10573
(914)240-2241
Handicap Accessible",One Gateway Plaza Port Chester 10573,(914)240-2241,10573
687,"HAMILTON-MADISON HOUSE, INC.","Distance: 2.65 miles
253 South Street, 3rd Fl New York 10022
(212)720-4540
Handicap Accessible","253 South Street, 3rd Fl New York 10022",(212)720-4540,10022
688,HEIGHTS HILL CLINIC (NYSOMH),"Distance: 4.27 miles
25 Flatbush Avenue Brooklyn 11217
(718)875-1420
Handicap Accessible",25 Flatbush Avenue Brooklyn 11217,(718)875-1420,11217
689,HUDSON GUILD,"Distance: 0.46 miles
351 West 18th Street New York 10011
(212)760-9857
Handicap Accessible",351 West 18th Street New York 10011,(212)760-9857,10011
691,"INTERBOROUGH DEVELOPMENTAL & CONSULTATION CENTER, INC","Distance: 9.83 miles
1623 Kings Highway Brooklyn 11229
(718)375-1200
Handicap Accessible",1623 Kings Highway Brooklyn 11229,(718)375-1200,11229
692,"INTERBOROUGH DEVELOPMENTAL & CONSULTATION CENTER, INC","Distance: 6.78 miles
921 E. New York Ave. Brooklyn 11203
(718)778-0485
Handicap Accessible",921 E. New York Ave. Brooklyn 11203,(718)778-0485,11203
693,"JEWISH BOARD OF FAMILY AND CHILDREN'S SERVICES, INC.","Distance: 1.16 miles
135 West 50th Street, 6th Floor New York 10020
(212)632-4646
Handicap Accessible","135 West 50th Street, 6th Floor New York 10020",(212)632-4646,10020
694,"JEWISH BOARD OF FAMILY AND CHILDREN'S SERVICES, INC.","Distance: 7.84 miles
1526 Grand Concourse Bronx 10457
(718)282-3425
Handicap Accessible",1526 Grand Concourse Bronx 10457,(718)282-3425,10457
695,"JEWISH BOARD OF FAMILY AND CHILDREN'S SERVICES, INC.","Distance: 2.03 miles
333 East 4th Street, Room 103 New York 10009
(212)632-4646
Handicap Accessible","333 East 4th Street, Room 103 New York 10009",(212)632-4646,10009
696,"JEWISH BOARD OF FAMILY AND CHILDREN'S SERVICES, INC.","Distance: 1.42 miles
444 West 56th Street, 6th Floor, Room 2012 New York 10019
(212)633-4646
Handicap Accessible","444 West 56th Street, 6th Floor, Room 2012 New York 10019",(212)633-4646,10019
697,"JEWISH BOARD OF FAMILY AND CHILDREN'S SERVICES, INC.","Distance: 7.37 miles
97-77 Queens Blvd, Penthouse Rego Park 11374
(718)423-6200
Handicap Accessible","97-77 Queens Blvd, Penthouse Rego Park 11374",(718)423-6200,11374
698,JEWISH CHILD CARE ASSOCIATION OF NEW YORK,"Distance: 6.22 miles
384 East 149th Street Bronx 10455
(917)808-4800
Handicap Accessible",384 East 149th Street Bronx 10455,(917)808-4800,10455
699,"JULIA DYCKMAN ANDURS MEMORIAL, INC.","Distance: 37.47 miles
1072 Elm Street, Room PR 3 Peekskill 10566
(914)965-1109
Handicap Accessible","1072 Elm Street, Room PR 3 Peekskill 10566",(914)965-1109,10566
700,"JULIA DYCKMAN ANDURS MEMORIAL, INC.","Distance: 30.02 miles
190 Croton AVenue, Literacy Office Ossining 10562
(914)965-1109
Handicap Accessible","190 Croton AVenue, Literacy Office Ossining 10562",(914)965-1109,10562
701,"KAREN HORNEY CLINIC, INC.","Distance: 2.07 miles
329 East 62nd Street New York 10065
(212)838-4333
Handicap Accessible",329 East 62nd Street New York 10065,(212)838-4333,10065
703,"LOWER EASTSIDE SERVICE CENTER, INC.","Distance: 2.26 miles
7 Gouverneur Slip East New York 10002
(212)343-3681
Handicap Accessible",7 Gouverneur Slip East New York 10002,(212)343-3681,10002
704,MAIMONIDES MEDICAL CENTER,"Distance: 7.46 miles
920 48th Street Brooklyn 11219
(718)283-6000
Handicap Accessible",920 48th Street Brooklyn 11219,(718)283-6000,11219
705,MENTAL HEALTH ASSN OF NYC INC DBA VIBRANT,"Distance: 4.89 miles
116 East 124th Street, 3rd Floor New York 10035
(212)876-6083
Handicap Accessible","116 East 124th Street, 3rd Floor New York 10035",(212)876-6083,10035
706,"MENTAL HEALTH PROVIDERS OF WESTERN QUEENS, INC.","Distance: 4.96 miles
62-07 Woodside Ave Woodside 11377
(718)672-1705
Handicap Accessible",62-07 Woodside Ave Woodside 11377,(718)672-1705,11377
708,MONTEFIORE MEDICAL CENTER,"Distance: 5.91 miles
804 E 138th St Bronx 10454
(718)920-4321
Handicap Accessible",804 E 138th St Bronx 10454,(718)920-4321,10454
709,NEW YORK FOUNDLING,"Distance: 0.66 miles
590 Avenue of Americas New York 10011
(212)633-9300
Handicap Accessible",590 Avenue of Americas New York 10011,(212)633-9300,10011
710,"NORTHSIDE CENTER FOR CHILD DEVELPOMENT, INC.","Distance: 5.98 miles
201 East 144 Street, Room 309 Bronx 10451
(212)426-3400
Handicap Accessible","201 East 144 Street, Room 309 Bronx 10451",(212)426-3400,10451
712,NORTHWELL / LIJ ZUCKER HILLSIDE HOSPITAL,"Distance: 16.38 miles
1554 Northern Boulevard Manhasset 11030
(516)719-3717
Handicap Accessible",1554 Northern Boulevard Manhasset 11030,(516)719-3717,11030
713,NORTHWELL / PHELPS MEMORIAL HOSPITAL,"Distance: 28.23 miles
22 Rockledge Avenue Ossining 10562
(914)944-5220
Handicap Accessible",22 Rockledge Avenue Ossining 10562,(914)944-5220,10562
714,NORTHWELL / STATEN ISLAND UNIVERSITY HOSPITAL,"Distance: 19.11 miles
375 Seguine Avenue Staten Island 10309
(718)226-2800
Handicap Accessible",375 Seguine Avenue Staten Island 10309,(718)226-2800,10309
716,NYC HEALTH + HOSPITALS / ELMHURST,"Distance: 3.57 miles
14-30 Broadway Long Island City 11106
(718)932-1185
Handicap Accessible",14-30 Broadway Long Island City 11106,(718)932-1185,11106
718,NYC HEALTH + HOSPITALS / KINGS COUNTY,"Distance: 6.94 miles
451 Clarkson Avenue Brooklyn 11203
(718)579-4061
Handicap Accessible",451 Clarkson Avenue Brooklyn 11203,(718)579-4061,11203
719,OUTREACH DEVELOPMENT CORPORATION,"Distance: 37.27 miles
998 Crooked Hill Road Brentwood 11717
(631)521-8400
Handicap Accessible",998 Crooked Hill Road Brentwood 11717,(631)521-8400,11717
720,PESACH TIKVAH HOPE DEVELOPMENT INC.,"Distance: 7.68 miles
1177 48th Street Rm 209 Brooklyn 11219
(718)875-6900
Handicap Accessible",1177 48th Street Rm 209 Brooklyn 11219,(718)875-6900,11219
721,PESACH TIKVAH HOPE DEVELOPMENT INC.,"Distance: 7.42 miles
13 Church Avenue, Room 207 Brooklyn 11218
(718)875-6900
Handicap Accessible","13 Church Avenue, Room 207 Brooklyn 11218",(718)875-6900,11218
722,PESACH TIKVAH HOPE DEVELOPMENT INC.,"Distance: 7.39 miles
1402 40th Street Rm 204 Brooklyn 11218
(718)875-6900
Handicap Accessible",1402 40th Street Rm 204 Brooklyn 11218,(718)875-6900,11218
723,PESACH TIKVAH HOPE DEVELOPMENT INC.,"Distance: 8.43 miles
1876 50th Street Rm 109 Brooklyn 11204
(718)875-6900
Handicap Accessible",1876 50th Street Rm 109 Brooklyn 11204,(718)875-6900,11204
724,PESACH TIKVAH HOPE DEVELOPMENT INC.,"Distance: 7.34 miles
4314 10th Avenue. Rm 1-Lobby Brooklyn 11219
(718)875-6900
Handicap Accessible",4314 10th Avenue. Rm 1-Lobby Brooklyn 11219,(718)875-6900,11219
725,PESACH TIKVAH HOPE DEVELOPMENT INC.,"Distance: 7.64 miles
600 McDonald Avenue Rm 225 Brooklyn 11218
(718)875-6900
Handicap Accessible",600 McDonald Avenue Rm 225 Brooklyn 11218,(718)875-6900,11218
726,PESACH TIKVAH HOPE DEVELOPMENT INC.,"Distance: 3.52 miles
75 Ross Street Rm 103 Brooklyn 11211
(718)875-6900
Handicap Accessible",75 Ross Street Rm 103 Brooklyn 11211,(718)875-6900,11211
727,PESACH TIKVAH HOPE DEVELOPMENT INC.,"Distance: 4.34 miles
926 Bedford Avenue Brooklyn 11206
(718)875-6900
Handicap Accessible",926 Bedford Avenue Brooklyn 11206,(718)875-6900,11206
728,PILGRIM PSYCHIATRIC CENTER (NYSOMH),"Distance: 71.2 miles
550 East Main Street, Suite 103 Riverhead 11901
(631)369-1277
Handicap Accessible","550 East Main Street, Suite 103 Riverhead 11901",(631)369-1277,11901
729,PILGRIM PSYCHIATRIC CENTER (NYSOMH),"Distance: 37.27 miles
998 Crooked Hill Road, Bldg 57 West Brentwood 11717
(631)761-2082
Handicap Accessible","998 Crooked Hill Road, Bldg 57 West Brentwood 11717",(631)761-2082,11717
730,ROCKLAND PSYCHIATRIC CENTER (NYSOMH),"Distance: 23.08 miles
10 County Center Rd White Plains 10607
(914)948-1192
Handicap Accessible",10 County Center Rd White Plains 10607,(914)948-1192,10607
731,ROCKLAND PSYCHIATRIC CENTER (NYSOMH),"Distance: 68.67 miles
10 Ross Circle Poughkeepsie 12601
(518)549-5272
Handicap Accessible",10 Ross Circle Poughkeepsie 12601,(518)549-5272,12601
732,SAGAMORE CHILDREN'S PSYCHIATRIC CENTER (NYSOMH),"Distance: 50.56 miles
118 Spring Street Port Jefferson 11777
(631)240-8920
Handicap Accessible",118 Spring Street Port Jefferson 11777,(631)240-8920,11777
733,SAMARITAN DAYTOP VILLAGE INC,"Distance: 9.84 miles
130-20 89th Rd Richmond Hill 11418
(718)292-4455
Handicap Accessible",130-20 89th Rd Richmond Hill 11418,(718)292-4455,11418
734,SAMARITAN DAYTOP VILLAGE INC,"Distance: 9.84 miles
13020 89th Road Richmond Hill 11418
(718)441-8913
Handicap Accessible",13020 89th Road Richmond Hill 11418,(718)441-8913,11418
735,SAMARITAN DAYTOP VILLAGE INC,"Distance: 11.78 miles
1915 Forest Avenue Staten Island 10303
(718)981-3136
Handicap Accessible",1915 Forest Avenue Staten Island 10303,(718)981-3136,10303
736,SAMARITAN DAYTOP VILLAGE INC,"Distance: 6.55 miles
2776-2778 3rd Ave Bronx 10455
(718)292-4455
Handicap Accessible",2776-2778 3rd Ave Bronx 10455,(718)292-4455,10455
737,SAMARITAN DAYTOP VILLAGE INC,"Distance: 8.67 miles
338 Forbell St Brooklyn 11208
(718)292-4455
Handicap Accessible",338 Forbell St Brooklyn 11208,(718)292-4455,11208
738,"SAMUEL FIELD YM & YWHA, INC. DBA COMMUNITY ADVISORY PROGRAM FOR THE ELDERLY","Distance: 5.61 miles
7501 Broadway Elmhurst 11373
(718)224-0566
Handicap Accessible",7501 Broadway Elmhurst 11373,(718)224-0566,11373
739,"SAMUEL FIELD YM & YWHA, INC. DBA COMMUNITY ADVISORY PROGRAM FOR THE ELDERLY","Distance: 11.04 miles
92-47 165th Street Jamaica 11434
(718)224-0566
Handicap Accessible",92-47 165th Street Jamaica 11434,(718)224-0566,11434
740,"SBH COMMUNITY SERVICE NETWORK, INC.","Distance: 9.98 miles
1955 Mc Donald Ave Brooklyn 11223
(718)787-1600
Handicap Accessible",1955 Mc Donald Ave Brooklyn 11223,(718)787-1600,11223
741,"SERVICE PROGRAM FOR OLDER PEOPLE, INC","Distance: 6.85 miles
99 Fort Washington Avenue New York 10032
(212)787-7120
Handicap Accessible",99 Fort Washington Avenue New York 10032,(212)787-7120,10032
742,"SERVICE PROGRAM FOR OLDER PEOPLE, INC.","Distance: 3.21 miles
302 W. 91st Street New York 10024
(212)787-7120
Handicap Accessible",302 W. 91st Street New York 10024,(212)787-7120,10024
743,ST LUKE'S ROOSEVELT HOSPITAL,"Distance: 4.36 miles
411 W. 114th Street New York 10025
(212)523-4000
Handicap Accessible",411 W. 114th Street New York 10025,(212)523-4000,10025
744,ST LUKE'S ROOSEVELT HOSPITAL,"Distance: 3.77 miles
W. 114th St. and Amsterdam Ave. New York 10025
(212)523-4000
Handicap Accessible",W. 114th St. and Amsterdam Ave. New York 10025,(212)523-4000,10025
745,ST. BARNABAS HOSPITAL,"Distance: 9.37 miles
260 East 188th Street, 2nd & 4th FL. Bronx 10458
(718)960-3071
Handicap Accessible","260 East 188th Street, 2nd & 4th FL. Bronx 10458",(718)960-3071,10458
746,"ST. JOHNS EPISCOPAL HOSPITAL DBA EPISCOPAL HEALTH SERVICES, INC.","Distance: 16.35 miles
495 Beach 20th Street Far Rockaway 11691
(718)869-7690
Handicap Accessible",495 Beach 20th Street Far Rockaway 11691,(718)869-7690,11691
747,"START TREATMENT & RECOVERY CENTERS, INC","Distance: 4.23 miles
2406 Amsterdam Ave, 2nd & 3rd Flrs Brooklyn 11206
(800)211-0996
Handicap Accessible","2406 Amsterdam Ave, 2nd & 3rd Flrs Brooklyn 11206",(800)211-0996,11206
748,"THE CHILD CENTER OF NY, INC.","Distance: 7.13 miles
34-10 108th Street Corona 11368
(718)651-7770
Handicap Accessible",34-10 108th Street Corona 11368,(718)651-7770,11368
749,THE CHILDREN'S AID SOCIETY,"Distance: 7.29 miles
3630 Third Avenue, Room 184 Bronx 10456
(718)716-7550
Handicap Accessible","3630 Third Avenue, Room 184 Bronx 10456",(718)716-7550,10456
750,THE INSTITUTE FOR FAMILY HEALTH,"Distance: 8.48 miles
1824 Madison Ave, Floor 2 Bronx 10453
(212)423-4200
Handicap Accessible","1824 Madison Ave, Floor 2 Bronx 10453",(212)423-4200,10453
751,THE INSTITUTE FOR FAMILY HEALTH,"Distance: 4.62 miles
1824 Madison Avenue New York 10035
(212)423-4200
Handicap Accessible",1824 Madison Avenue New York 10035,(212)423-4200,10035
752,THE INSTITUTE FOR FAMILY HEALTH,"Distance: 8.35 miles
1894 Walton Avenue Bronx 10453
(718)583-2508
Handicap Accessible",1894 Walton Avenue Bronx 10453,(718)583-2508,10453
753,"TRANSITIONAL SERVICES FOR NEW YORK, INC.","Distance: 10.14 miles
90-27 Supthin Boulevard, 5th Fl Jamaica 11435
(718)526-8400
Handicap Accessible","90-27 Supthin Boulevard, 5th Fl Jamaica 11435",(718)526-8400,11435
755,VISITING NURSE SERVICE OF NEW YORK HOME CARE,"Distance: 16.19 miles
1600 Central Avenue Far Rockaway 11691
(718)318-8030
Handicap Accessible",1600 Central Avenue Far Rockaway 11691,(718)318-8030,11691
756,"VOCATIONAL INSTRUCTION PROJECT COMMUNITY SERVICES, INC","Distance: 8.55 miles
770 East 176th 2nd FL. Bronx 10460
(718)583-5150
Handicap Accessible",770 East 176th 2nd FL. Bronx 10460,(718)583-5150,10460
758,"WELLLIFE NETWORK, INC.","Distance: 30.99 miles
55 Horizon Drive, Rooms 6, 63 and 64 Huntington 11743
(631)920-8088
Handicap Accessible","55 Horizon Drive, Rooms 6, 63 and 64 Huntington 11743",(631)920-8088,11743
759,WESTCHESTER JEWISH COMMUNITY SERVICES,"Distance: 14.08 miles
11 West Prospect Avenue, 4th Floor Mount Vernon 10550
(914)668-8938
Handicap Accessible","11 West Prospect Avenue, 4th Floor Mount Vernon 10550",(914)668-8938,10550
760,WESTCHESTER JEWISH COMMUNITY SERVICES,"Distance: 24.78 miles
845 North Broadway White Plains 10603
(914)761-0600
Handicap Accessible",845 North Broadway White Plains 10603,(914)761-0600,10603
761,ACKERMAN INSTITUTE FOR THE FAMILY,"Distance: 0.69 miles
936 Broadway New York 10010
(212)879-4900
Handicap Accessible",936 Broadway New York 10010,(212)879-4900,10010
762,ACMH INC.,"Distance: 1.9 miles
165 E. 2nd St. New York 10009
(212)253-6377
Handicap Accessible",165 E. 2nd St. New York 10009,(212)253-6377,10009
763,ACMH INC.,"Distance: 7 miles
500 W. 167th St. New York 10032
(212)923-5950
Handicap Accessible",500 W. 167th St. New York 10032,(212)923-5950,10032
764,ACMH INC.,"Distance: 11.21 miles
90-26 171st St. Jamaica 11432
(718)725-9650
Handicap Accessible",90-26 171st St. Jamaica 11432,(718)725-9650,11432
765,"ACMH, INC.","Distance: 0.16 miles
254 W. 31st Street New York 10001
(212)253-6377
Handicap Accessible",254 W. 31st Street New York 10001,(212)253-6377,10001
766,"ACMH, INC.","Distance: 0.48 miles
545 Eighth Avenue New York 10018
(212)253-6377
Handicap Accessible",545 Eighth Avenue New York 10018,(212)253-6377,10018
767,"AIDS CENTER OF QUEENS COUNTY, INC.","Distance: 10.84 miles
161-21 Jamaica Avenue, 6th & 7th Floor Jamaica 11432
(718)896-2500
Handicap Accessible","161-21 Jamaica Avenue, 6th & 7th Floor Jamaica 11432",(718)896-2500,11432
768,"ARGUS COMMUNITY, INC.","Distance: 5.93 miles
507 West 145th Street New York 10031
(929)377-5150
Handicap Accessible",507 West 145th Street New York 10031,(929)377-5150,10031
769,ASSOCIATION TO BENEFIT CHILDREN,"Distance: 7.53 miles
1366 Inwood Avenue Bronx 10452
(646)459-6165
Handicap Accessible",1366 Inwood Avenue Bronx 10452,(646)459-6165,10452
770,ASSOCIATION TO BENEFIT CHILDREN,"Distance: 3.4 miles
404 East 91st St New York 10028
(646)459-6165
Handicap Accessible",404 East 91st St New York 10028,(646)459-6165,10028
771,ASTOR SERVICES FOR CHILDREN & FAMILIES,"Distance: 8.19 miles
1550 Crotona Park East Bronx 10460
(728)231-3400
Handicap Accessible",1550 Crotona Park East Bronx 10460,(728)231-3400,10460
772,ASTOR SERVICES FOR CHILDREN & FAMILIES,"Distance: 12.37 miles
1925 Schieffelin Avenue Bronx 10457
(718)231-3400
Handicap Accessible",1925 Schieffelin Avenue Bronx 10457,(718)231-3400,10457
773,ASTOR SERVICES FOR CHILDREN & FAMILIES,"Distance: 81.59 miles
6339 Mill Street, PO Box 5005 Rhinebeck 12572
(845)871-1000
Handicap Accessible","6339 Mill Street, PO Box 5005 Rhinebeck 12572",(845)871-1000,12572
774,BRIDGING ACCESS TO CARE,"Distance: 3.37 miles
260 Broadway Brooklyn 11217
(347)505-5120
Handicap Accessible",260 Broadway Brooklyn 11217,(347)505-5120,11217
775,BRIDGING ACCESS TO CARE,"Distance: 14.79 miles
Home and Community Based Locations (Queens) Queens 11005
(347)505-5000
Handicap Accessible",Home and Community Based Locations (Queens) Queens 11005,(347)505-5000,11005
776,BRONXCARE HEALTH SYSTEM,"Distance: 7.96 miles
1650 Grand Concourse Bronx 10457
(718)992-7669
Handicap Accessible",1650 Grand Concourse Bronx 10457,(718)992-7669,10457
777,"CATHOLIC CHARITIES NEIGHBORHOOD SERVICES, INC.","Distance: 16.31 miles
1847 Mott Avenue Far Rockaway 11691
(718)722-6258
Handicap Accessible",1847 Mott Avenue Far Rockaway 11691,(718)722-6258,11691
778,"CATHOLIC CHARITIES NEIGHBORHOOD SERVICES, INC.","Distance: 16.31 miles
1847 Mott Avenue - 2nd Floor Far Rockaway 11691
(718)722-6001
Handicap Accessible",1847 Mott Avenue - 2nd Floor Far Rockaway 11691,(718)722-6001,11691
779,GOODWILL INDUSTRIES NY/NJ,"Distance: 6.37 miles
261 Schenectady Avenue, 1st and 2nd Floors Brooklyn 11213
(718)372-0450
Handicap Accessible","261 Schenectady Avenue, 1st and 2nd Floors Brooklyn 11213",(718)372-0450,11213
780,HENRY STREET SETTLEMENT COMMUNITY CONSULTATION CENTER,"Distance: 2.13 miles
123 Ridge Street, Rooms 120-1 and 321 New York 10002
(917)929-7695
Handicap Accessible","123 Ridge Street, Rooms 120-1 and 321 New York 10002",(917)929-7695,10002
781,INSTITUTE FOR COMMUNITY LIVING,"Distance: 3.27 miles
125 Broad St. New York 10004
(718)234-0073
Handicap Accessible",125 Broad St. New York 10004,(718)234-0073,10004
782,INSTITUTE FOR COMMUNITY LIVING,"Distance: 3.27 miles
125 Broad Street, 3rd Floor New York 10004
(888)425-0501
Handicap Accessible","125 Broad Street, 3rd Floor New York 10004",(888)425-0501,10004
784,INSTITUTE FOR COMMUNITY LIVING,"Distance: 12.71 miles
4377 Bronx Boulevard Bronx 10465
(212)385-3030
Handicap Accessible",4377 Bronx Boulevard Bronx 10465,(212)385-3030,10465
785,"INTERBOROUGH DEVELOPMENTAL & CONSULTATION CENTER, INC","Distance: 4.48 miles
790 Broadway Brooklyn 11206
(718)388-5176
Handicap Accessible",790 Broadway Brooklyn 11206,(718)388-5176,11206
786,"INTERBOROUGH DEVELOPMENTAL & CONSULTATION CENTER, INC","Distance: 8.81 miles
94-13 Flatlands Avenue Brooklyn 11236
(718)388-5176
Handicap Accessible",94-13 Flatlands Avenue Brooklyn 11236,(718)388-5176,11236
787,"JEWISH BOARD OF FAMILY AND CHILDREN'S SERVICES, INC.","Distance: 6.03 miles
1055 Saint Johns Place Brooklyn 11213
(718)773-2080
Handicap Accessible",1055 Saint Johns Place Brooklyn 11213,(718)773-2080,11213
788,"JEWISH BOARD OF FAMILY AND CHILDREN'S SERVICES, INC.","Distance: 7.77 miles
1371 46th Street, Room C-8 Brooklyn 11219
(718)676-4210
Handicap Accessible","1371 46th Street, Room C-8 Brooklyn 11219",(718)676-4210,11219
789,"JEWISH BOARD OF FAMILY AND CHILDREN'S SERVICES, INC.","Distance: 3.75 miles
195 Montague Street, 8th Floor Brooklyn 11201
(718)488-0100
Handicap Accessible","195 Montague Street, 8th Floor Brooklyn 11201",(718)488-0100,11201
790,"JEWISH BOARD OF FAMILY AND CHILDREN'S SERVICES, INC.","Distance: 1.08 miles
210 East 33rd Street, Rooms 108, 323 and 509 New York 10016
(212)632-4646
Handicap Accessible","210 East 33rd Street, Rooms 108, 323 and 509 New York 10016",(212)632-4646,10016
791,"JEWISH BOARD OF FAMILY AND CHILDREN'S SERVICES, INC.","Distance: 10.31 miles
55 Westchester Square Bronx 10461
(718)931-4045
Handicap Accessible",55 Westchester Square Bronx 10461,(718)931-4045,10461
792,JEWISH CHILD CARE ASSOCIATION OF NEW YORK,"Distance: 8.61 miles
858 E. 29th Street Brooklyn 11210
(917)808-4800
Handicap Accessible",858 E. 29th Street Brooklyn 11210,(917)808-4800,11210
793,"JGB MENTAL HEALTH & MENTAL HEALTH RETARDATION SERVICES, INC. DBA LIGHTHOUSE GUIL","Distance: 1.85 miles
80 West End Avenue New York 10023
(212)769-7800
Handicap Accessible",80 West End Avenue New York 10023,(212)769-7800,10023
794,"JULIA DYCKMAN ANDURS MEMORIAL, INC.","Distance: 28.98 miles
22 Edward Street, Room 114 Ossining 10562
(914)965-1109
Handicap Accessible","22 Edward Street, Room 114 Ossining 10562",(914)965-1109,10562
795,"JULIA DYCKMAN ANDURS MEMORIAL, INC.","Distance: 39.73 miles
3100 East Main Street, Room 301A Mohegan Lake 10547
(914)965-1109
Handicap Accessible","3100 East Main Street, Room 301A Mohegan Lake 10547",(914)965-1109,10547
796,"LA CASA DE SALUD, INC.","Distance: 6.18 miles
324 East 149th Street Bronx 10451
(718)665-4300
Handicap Accessible",324 East 149th Street Bronx 10451,(718)665-4300,10451
797,MONTEFIORE MEDICAL CENTER,"Distance: 11.14 miles
3550 Jerome Ave Bronx 10467
(718)920-4321
Handicap Accessible",3550 Jerome Ave Bronx 10467,(718)920-4321,10467
798,MOUNT SINAI HOSPITAL,"Distance: 3.52 miles
1240 Park Avenue New York 10128
(212)241-6500
Handicap Accessible",1240 Park Avenue New York 10128,(212)241-6500,10128
799,MOUNT SINAI HOSPITAL,"Distance: 1.53 miles
429 W 58th St New York 10019
(212)523-4000
Handicap Accessible",429 W 58th St New York 10019,(212)523-4000,10019
800,"NEW HORIZON COUNSELING CENTER, INC.","Distance: 9.95 miles
108-19 Rockaway Boulevard South Ozone Park 11420
(718)471-8671
Handicap Accessible",108-19 Rockaway Boulevard South Ozone Park 11420,(718)471-8671,11420
801,"NEW HORIZON COUNSELING CENTER, INC.","Distance: 15.08 miles
66-03 Beach Channel Drive Arverne 11692
(718)471-8671
Handicap Accessible",66-03 Beach Channel Drive Arverne 11692,(718)471-8671,11692
802,"NEW HORIZON COUNSELING CENTER, INC.","Distance: 16.26 miles
718-720 Beach 20th Street Far Rockaway 11691
(718)471-8671
Handicap Accessible",718-720 Beach 20th Street Far Rockaway 11691,(718)471-8671,11691
804,NEW YORK CITY CHILDREN'S CENTER (NYSOMH),"Distance: 14.31 miles
74-03 Commonwealth Boulevard Bellerose 11426
(518)549-5272
Handicap Accessible",74-03 Commonwealth Boulevard Bellerose 11426,(518)549-5272,11426
805,NEW YORK PSYCHIATRIC INSTITUTE (NYSOMH),"Distance: 9.19 miles
4941 Broadway, Lower Level New York 10034
(212)942-8500
Handicap Accessible","4941 Broadway, Lower Level New York 10034",(212)942-8500,10034
806,NORTHWELL / LIJ ZUCKER HILLSIDE HOSPITAL,"Distance: 14.94 miles
75-59 263rd Street Floral Park 11004
(718)470-8100
Handicap Accessible",75-59 263rd Street Floral Park 11004,(718)470-8100,11004
809,NORTHWELL/NSUH - SYOSSET HOSPITAL,"Distance: 25.93 miles
221 Jericho Turnpike, 1 North Syosset 11791
(516)496-6582
Handicap Accessible","221 Jericho Turnpike, 1 North Syosset 11791",(516)496-6582,11791
810,NYC HEALTH + HOSPITALS / QUEENS,"Distance: 10.66 miles
167-01 Gothic Drive Jamaica 11432
(718)883-3000
Handicap Accessible",167-01 Gothic Drive Jamaica 11432,(718)883-3000,11432
812,PESACH TIKVAH HOPE DEVELOPMENT INC.,"Distance: 9.15 miles
1200 Ocean Parkway Rm 210 Brooklyn 11230
(718)875-6900
Handicap Accessible",1200 Ocean Parkway Rm 210 Brooklyn 11230,(718)875-6900,11230
813,PESACH TIKVAH HOPE DEVELOPMENT INC.,"Distance: 7.88 miles
4421 15th Avenue, Room 119 Brooklyn 11219
(718)875-6900
Handicap Accessible","4421 15th Avenue, Room 119 Brooklyn 11219",(718)875-6900,11219
814,"PUERTO RICAN FAMILY INSTITUTE, INC.","Distance: 4.36 miles
28 Debevoise Street Brooklyn 11206
(212)924-6320
Handicap Accessible",28 Debevoise Street Brooklyn 11206,(212)924-6320,11206
815,"PUERTO RICAN ORGANIZATION TO MOTIVATE, ENLIGHTEN AND SERVE ADDICTS, INC","Distance: 6.55 miles
754 East 151 Street, 1st Floor Bronx 10455
(347)352-2484
Handicap Accessible","754 East 151 Street, 1st Floor Bronx 10455",(347)352-2484,10455
816,RICHMOND UNIVERSITY MEDICAL CENTER,"Distance: 13.23 miles
1130 South Ave Staten Island 10314
(718)818-1234
Handicap Accessible",1130 South Ave Staten Island 10314,(718)818-1234,10314
817,RICHMOND UNIVERSITY MEDICAL CENTER,"Distance: 9.63 miles
355 Bard Avenue Staten Island 10310
(718)818-1234
Handicap Accessible",355 Bard Avenue Staten Island 10310,(718)818-1234,10310
818,RICHMOND UNIVERSITY MEDICAL CENTER,"Distance: 8.65 miles
444 Saint Mark's Pl Staten Island 10301
(718)818-1234
Handicap Accessible",444 Saint Mark's Pl Staten Island 10301,(718)818-1234,10301
819,"SAFE HORIZON, INC.","Distance: 4.9 miles
209 West 125th Street, 2nd FL New York 10027
(347)328-8110
Handicap Accessible","209 West 125th Street, 2nd FL New York 10027",(347)328-8110,10027
820,SAMARITAN DAYTOP VILLAGE INC,"Distance: 6.11 miles
2780 3rd Avenue Bronx 10455
(718)665-2456
Handicap Accessible",2780 3rd Avenue Bronx 10455,(718)665-2456,10455
821,SAMARITAN DAYTOP VILLAGE INC,"Distance: 4.93 miles
55 West 125th Street New York 10027
(718)292-4455
Handicap Accessible",55 West 125th Street New York 10027,(718)292-4455,10027
822,SAMARITAN DAYTOP VILLAGE INC,"Distance: 11.45 miles
900 Arrow Avenue Bronx 10469
(718)518-9007
Handicap Accessible",900 Arrow Avenue Bronx 10469,(718)518-9007,10469
824,"SERVICE PROGRAM FOR OLDER PEOPLE, INC","Distance: 4.27 miles
25 Flatbush Avneue, 5th Fl Brooklyn 11217
(212)787-7120
Handicap Accessible","25 Flatbush Avneue, 5th Fl Brooklyn 11217",(212)787-7120,11217
825,SOUTH BEACH PSYCHIATRIC CENTER (NYSOMH),"Distance: 12.23 miles
777 Seaview Ave Staten Island 10305
(718)453-200
Handicap Accessible",777 Seaview Ave Staten Island 10305,(718)453-200,10305
826,"START TREATMENT & RECOVERY CENTERS, INC","Distance: 4.86 miles
119 W 124th Street, Bsmt, 2nd & 3rd Flrs New York 10027
(800)211-0996
Handicap Accessible","119 W 124th Street, Bsmt, 2nd & 3rd Flrs New York 10027",(800)211-0996,10027
827,THE BROOKDALE HOSPITAL MEDICAL CENTER,"Distance: 7.36 miles
Linden Boulevard & Brookdale Plaza, 12th Floor Brooklyn 11212
(718)240-5000
Handicap Accessible","Linden Boulevard & Brookdale Plaza, 12th Floor Brooklyn 11212",(718)240-5000,11212
828,THE CHILDREN'S AID SOCIETY,"Distance: 8.4 miles
105 Hamilton Avenue, Rm 116E, 116F, 116H Saint George 10301
(718)764-2410
Handicap Accessible","105 Hamilton Avenue, Rm 116E, 116F, 116H Saint George 10301",(718)764-2410,10301
829,THE FLOATING HOSPITAL INC.,"Distance: 3 miles
25-15 Queens Plaza Long Island City 11101
(718)784-2240
Handicap Accessible",25-15 Queens Plaza Long Island City 11101,(718)784-2240,11101
830,THE INSTITUTE FOR FAMILY HEALTH,"Distance: 10.26 miles
2590 Frisby Avenue Bronx 10461
(212)423-4200
Handicap Accessible",2590 Frisby Avenue Bronx 10461,(212)423-4200,10461
831,"THE NEW HORIZON COUNSELING CENTER, INC.","Distance: 6.79 miles
100-30 Ditmars Boulevard, Elm York H.F.A. E. Elmhurst 11369
(718)898-6471
Handicap Accessible","100-30 Ditmars Boulevard, Elm York H.F.A. E. Elmhurst 11369",(718)898-6471,11369
832,"THE NEW HORIZON COUNSELING CENTER, INC.","Distance: 9.33 miles
103-22 99th Street, Room 205C Ozone Park 11417
(718)845-2620
Handicap Accessible","103-22 99th Street, Room 205C Ozone Park 11417",(718)845-2620,11417
833,THE NEW YORK FOUNDLING,"Distance: 0.66 miles
590 Avenue of the Americas New York 10011
(718)772-0280
Handicap Accessible",590 Avenue of the Americas New York 10011,(718)772-0280,10011
835,TRI CENTER INC,"Distance: 9.43 miles
2488 Grand Concourse Bronx 10458
(212)268-8830
Handicap Accessible",2488 Grand Concourse Bronx 10458,(212)268-8830,10458
836,UNION SETTLEMENT/JOHNSON COUNSELING CENTER,"Distance: 4.16 miles
421 East 106th Street New York 10029
(212)828-6144
Handicap Accessible",421 East 106th Street New York 10029,(212)828-6144,10029
837,UNIVERSITY SETTLEMENT SOCIETY OF NEW YORK,"Distance: 1.54 miles
420 East 12th Street, Rm 117A New York 10009
(212)453-4524
Handicap Accessible","420 East 12th Street, Rm 117A New York 10009",(212)453-4524,10009
838,UNIVERSITY SETTLEMENT SOCIETY OF NEW YORK,"Distance: 1.92 miles
600 East 6th Street, Rm B47 New York 10009
(212)453-4522
Handicap Accessible","600 East 6th Street, Rm B47 New York 10009",(212)453-4522,10009
840,"UPPER ROOM AIDS MINISTRY, INC.","Distance: 5.31 miles
169 W 133rd Street New York 10030
(646)762-4950
Handicap Accessible",169 W 133rd Street New York 10030,(646)762-4950,10030
841,URBAN HEALTH PLAN INC.,"Distance: 8.98 miles
4419 Third Avenue Bronx 10457
(718)651-4000
Handicap Accessible",4419 Third Avenue Bronx 10457,(718)651-4000,10457
842,VISITING NURSE SERVICE OF NEW YORK,"Distance: 4.88 miles
148 W 125th St New York 10027
(212)290-6565
Handicap Accessible",148 W 125th St New York 10027,(212)290-6565,10027
843,VISITING NURSE SERVICE OF NEW YORK HOME CARE,"Distance: 5.82 miles
468 East 140th Street, RM 118A Bronx 10454
(718)742-7114
Handicap Accessible","468 East 140th Street, RM 118A Bronx 10454",(718)742-7114,10454
844,VISITING NURSE SERVICE OF NEW YORK HOME CARE II,"Distance: 4.91 miles
148 West 125th Street New York 10027
(212)290-6565
Handicap Accessible",148 West 125th Street New York 10027,(212)290-6565,10027
845,VISITING NURSE SERVICE OF NEW YORK HOME CARE II,"Distance: 16.19 miles
1600 Central Avenue Far Rockaway 11691
(212)290-6565
Handicap Accessible",1600 Central Avenue Far Rockaway 11691,(212)290-6565,11691
846,"VOCATIONAL INSTRUCTION PROJECT COMMUNITY SERVICES, INC","Distance: 8.55 miles
764 East 176 Street Bronx 10460
(718)542-8770
Handicap Accessible",764 East 176 Street Bronx 10460,(718)542-8770,10460
847,WESTCHESTER JEWISH COMMUNITY SERVICES,"Distance: 37.83 miles
200 Decatur Street Peekskill 10566
(914)402-2130
Handicap Accessible",200 Decatur Street Peekskill 10566,(914)402-2130,10566
848,WESTCHESTER JEWISH COMMUNITY SERVICES,"Distance: 13.47 miles
77 Park Hill Avenue Yonkers 10701
(914)376-8174
Handicap Accessible",77 Park Hill Avenue Yonkers 10701,(914)376-8174,10701
849,WESTCHESTER JEWISH COMMUNITY SERVICES,"Distance: 13.77 miles
92 Main Street Yonkers 10701
(914)376-8174
Handicap Accessible",92 Main Street Yonkers 10701,(914)376-8174,10701
850,ACMH INC.,"Distance: 5.73 miles
1649 Amsterdam Ave New York 10031
(646)506-3100
Handicap Accessible",1649 Amsterdam Ave New York 10031,(646)506-3100,10031
851,"AIDS CENTER OF QUEENS COUNTY, INC.","Distance: 10.77 miles
89-31 161st Street, Suite 708-710 Jamaica 11432
(718)896-2500
Handicap Accessible","89-31 161st Street, Suite 708-710 Jamaica 11432",(718)896-2500,11432
852,ALPHA SCHOOL 822 PROGRAM OP,"Distance: 8.62 miles
2400 Linden Boulevard Brooklyn 11208
(914)384-2375
Handicap Accessible",2400 Linden Boulevard Brooklyn 11208,(914)384-2375,11208
854,ASTOR SERVICES FOR CHILDREN & FAMILIES,"Distance: 7.93 miles
1537 Washington Avenue, 1st Floor Room 108 Bronx 10457
(718)231-3400
Handicap Accessible","1537 Washington Avenue, 1st Floor Room 108 Bronx 10457",(718)231-3400,10457
855,"BAILEY HOUSE, INC.","Distance: 4.79 miles
1751 Park Avenue, 3rd Floor New York 10035
(212)289-6008
Handicap Accessible","1751 Park Avenue, 3rd Floor New York 10035",(212)289-6008,10035
856,BRIDGING ACCESS TO CARE,"Distance: 7.06 miles
2261 Church Ave Brooklyn 11226
(347)505-5000
Handicap Accessible",2261 Church Ave Brooklyn 11226,(347)505-5000,11226
857,BRIDGING ACCESS TO CARE,"Distance: 3.37 miles
260 Broadway ny 11211
(347)505-5000
Handicap Accessible",260 Broadway ny 11211,(347)505-5000,11211
858,BRIDGING ACCESS TO CARE,"Distance: 2.93 miles
Home and Community Based Locations (Manhattan) New York 10006
(347)505-5000
Handicap Accessible",Home and Community Based Locations (Manhattan) New York 10006,(347)505-5000,10006
859,BRONX PSYCHIATRIC CENTER (NYSOMH),"Distance: 10.86 miles
3050 White Plains Road Bronx 10467
(518)549-5272
Handicap Accessible",3050 White Plains Road Bronx 10467,(518)549-5272,10467
860,BRONXCARE HEALTH SYSTEM,"Distance: 7.55 miles
1265 Franklin Avenue Bronx 10456
(718)992-7669
Handicap Accessible",1265 Franklin Avenue Bronx 10456,(718)992-7669,10456
861,BROOKDALE HOSPITAL MEDICAL CENTER,"Distance: 7.83 miles
1 Brookdale Plaza Brooklyn 11212
(718)240-6059
Handicap Accessible",1 Brookdale Plaza Brooklyn 11212,(718)240-6059,11212
862,BROOKDALE HOSPITAL MEDICAL CENTER,"Distance: 7.36 miles
Linden Boulevard & Brookdale Plaza Brooklyn 11212
(718)240-6059
Handicap Accessible",Linden Boulevard & Brookdale Plaza Brooklyn 11212,(718)240-6059,11212
863,"CATHOLIC CHARITIES NEIGHBORHOOD SERVICES, INC.","Distance: 8.25 miles
1463 Flatbush Avenue Brooklyn 11210
(718)722-6258
Handicap Accessible",1463 Flatbush Avenue Brooklyn 11210,(718)722-6258,11210
864,"CATHOLIC CHARITIES NEIGHBORHOOD SERVICES, INC.","Distance: 3.85 miles
191 Joralemon Street, 14th Floor Brooklyn 11201
(718)722-6258
Handicap Accessible","191 Joralemon Street, 14th Floor Brooklyn 11201",(718)722-6258,11201
865,CHILDRENS AID SOCIETY,"Distance: 11.34 miles
465 Villa Avenue Staten Island 10302
(347)767-2200
Handicap Accessible",465 Villa Avenue Staten Island 10302,(347)767-2200,10302
866,"COMMUNITY HEALTH PROJECT, INC. DBA CALLEN- LORDE COMMUNITY HEALTH CENTER","Distance: 0.54 miles
230 West 17th Street New York 10011
(212)271-7200
Handicap Accessible",230 West 17th Street New York 10011,(212)271-7200,10011
867,"FAMILY SERVICES OF WESTCHESTER, INC.","Distance: 24.32 miles
239 North Broadway Tarrytown 10591
(914)305-6842
Handicap Accessible",239 North Broadway Tarrytown 10591,(914)305-6842,10591
868,"FAMILY SERVICES OF WESTCHESTER, INC.","Distance: 13.64 miles
81 South Broadway Yonkers 10701
(914)964-6767
Handicap Accessible",81 South Broadway Yonkers 10701,(914)964-6767,10701
869,FORTUNE SOCIETY INC,"Distance: 3.26 miles
29-76 Northern Boulevard Long Island City 11101
(212)691-7554
Handicap Accessible",29-76 Northern Boulevard Long Island City 11101,(212)691-7554,11101
870,HAMASPIK OF KINGS COUNTY,"Distance: 7.55 miles
4102 13th Avenue Brooklyn 11219
(718)400-9988
Handicap Accessible",4102 13th Avenue Brooklyn 11219,(718)400-9988,11219
871,"HAMILTON-MADISON HOUSE, INC.","Distance: 7.46 miles
108-11 48th Avenue Corona 11368
(212)720-4540
Handicap Accessible",108-11 48th Avenue Corona 11368,(212)720-4540,11368
872,HENRY STREET SETTLEMENT COMMUNITY CONSULTATION CENTER,"Distance: 2.18 miles
100 Attorney Street. Rooms 220, 248 and 260 New York 10002
(917)929-7695
Handicap Accessible","100 Attorney Street. Rooms 220, 248 and 260 New York 10002",(917)929-7695,10002
873,HENRY STREET SETTLEMENT COMMUNITY CONSULTATION CENTER,"Distance: 2.47 miles
220 Henry Street, Rooms 107 and 144c New York 10002
(917)929-7695
Handicap Accessible","220 Henry Street, Rooms 107 and 144c New York 10002",(917)929-7695,10002
875,INSTITUTE FOR COMMUNITY LIVING,"Distance: 3.57 miles
25 Chapel Street Brooklyn 11201
(212)385-3030
Handicap Accessible",25 Chapel Street Brooklyn 11201,(212)385-3030,11201
876,"INTERBOROUGH DEVELOPMENTAL & CONSULTATION CENTER, INC","Distance: 9.83 miles
1623 kings Highway Brooklyn 11229
(718)388-5176
Handicap Accessible",1623 kings Highway Brooklyn 11229,(718)388-5176,11229
878,"INTERFAITH MEDICAL CENTER, INC.","Distance: 5.36 miles
880 Bergen St Brooklyn 11238
(718)240-6059
Handicap Accessible",880 Bergen St Brooklyn 11238,(718)240-6059,11238
879,"JEWISH BOARD OF FAMILY AND CHILDREN'S SERVICES, INC.","Distance: 9.87 miles
1007 Quentin Road Brooklyn 11233
(718)998-3235
Handicap Accessible",1007 Quentin Road Brooklyn 11233,(718)998-3235,11233
881,"JEWISH BOARD OF FAMILY AND CHILDREN'S SERVICES, INC.","Distance: 1.28 miles
440 West 53rd Street, Room 412 New York 10019
(212)632-4646
Handicap Accessible","440 West 53rd Street, Room 412 New York 10019",(212)632-4646,10019
882,"JEWISH BOARD OF FAMILY AND CHILDREN'S SERVICES, INC.","Distance: 2.23 miles
442 East Houston St, Rooms 421C and 421D New York 10002
(212)632-4646
Handicap Accessible","442 East Houston St, Rooms 421C and 421D New York 10002",(212)632-4646,10002
883,"JEWISH BOARD OF FAMILY AND CHILDREN'S SERVICES, INC.","Distance: 9.28 miles
671 Louisiana Avenue, Room 201 Brooklyn 11239
(718)676-4210
Handicap Accessible","671 Louisiana Avenue, Room 201 Brooklyn 11239",(718)676-4210,11239
884,"JEWISH BOARD OF FAMILY AND CHILDREN'S SERVICES, INC.","Distance: 1.5 miles
74 St. Mark's Place New York 10003
(212)477-1565
Handicap Accessible",74 St. Mark's Place New York 10003,(212)477-1565,10003
885,"JEWISH BOARD OF FAMILY AND CHILDREN'S SERVICES, INC.","Distance: 10.31 miles
750 Astor Avenue, 2nd Floor Bronx 10467
(718)882-5000
Handicap Accessible","750 Astor Avenue, 2nd Floor Bronx 10467",(718)882-5000,10467
886,"JULIA DYCKMAN ANDURS MEMORIAL, INC.","Distance: 38.22 miles
1974 Commerce Street, Ballet Room Yorktown Heights 10598
(914)965-1109
Handicap Accessible","1974 Commerce Street, Ballet Room Yorktown Heights 10598",(914)965-1109,10598
887,"JULIA DYCKMAN ANDURS MEMORIAL, INC.","Distance: 37.68 miles
4 Horton Drive, Room 4C Peekskill 10566
(914)965-1109
Handicap Accessible","4 Horton Drive, Room 4C Peekskill 10566",(914)965-1109,10566
888,MONTEFIORE MEDICAL CENTER,"Distance: 8.71 miles
2058 Jerome Ave Bronx 10453
(718)920-4321
Handicap Accessible",2058 Jerome Ave Bronx 10453,(718)920-4321,10453
889,MONTEFIORE MEDICAL CENTER,"Distance: 6.7 miles
260 E 161st St Bronx 10451
(718)920-4321
Handicap Accessible",260 E 161st St Bronx 10451,(718)920-4321,10451
890,MONTEFIORE MEDICAL CENTER,"Distance: 12.32 miles
600 East 233rd Street Bronx 10466
(718)920-4231
Handicap Accessible",600 East 233rd Street Bronx 10466,(718)920-4231,10466
891,"NEW ALTERNATIVES FOR CHILDREN, INC","Distance: 0.42 miles
37 West 26th Street, 8th FL New York 10010
(212)696-1550
Handicap Accessible","37 West 26th Street, 8th FL New York 10010",(212)696-1550,10010
892,"NEW HORIZON COUNSELING CENTER, INC.","Distance: 16.2 miles
16-22 Central Avenue Far Rockaway 11691
(718)471-8671
Handicap Accessible",16-22 Central Avenue Far Rockaway 11691,(718)471-8671,11691
893,"NEW HORIZON COUNSELING CENTER, INC.","Distance: 14.71 miles
88-02 Rockaway Beach Boulevard Rockaway Beach 11693
(718)471-8671
Handicap Accessible",88-02 Rockaway Beach Boulevard Rockaway Beach 11693,(718)471-8671,11693
894,NEW YORK FOUNDLING,"Distance: 13.05 miles
109-89 203rd Street, Rm 427 Saint Albans 11412
(917)485-7580
Handicap Accessible","109-89 203rd Street, Rm 427 Saint Albans 11412",(917)485-7580,11412
895,NEW YORK FOUNDLING,"Distance: 4.52 miles
41 W 117 St, RM 230, NY NY 10026 New York 10026
(917)485-7580
Handicap Accessible","41 W 117 St, RM 230, NY NY 10026 New York 10026",(917)485-7580,10026
896,NEW YORK FOUNDLING,"Distance: 6.39 miles
600 St. Ann's Avenue, Room 127 Bronx 10455
(917)485-7580
Handicap Accessible","600 St. Ann's Avenue, Room 127 Bronx 10455",(917)485-7580,10455
897,NORTH BABYLON DAY TREATMENT PROGRAM (NYSOMH),"Distance: 33.82 miles
550 Mount Avenue West Babylon 11704
(631)491-4355
Handicap Accessible",550 Mount Avenue West Babylon 11704,(631)491-4355,11704
898,"NORTHSIDE CENTER FOR CHILD DEVELPOMENT, INC.","Distance: 2.35 miles
2 Allen Street, Suite 4K New York 10002
(212)426-3400
Handicap Accessible","2 Allen Street, Suite 4K New York 10002",(212)426-3400,10002
900,NORTHWELL / LENOX HILL HOSPITAL,"Distance: 2.06 miles
210 East 64th Street, 4th Floor New York 10065
(212)343-3365
Handicap Accessible","210 East 64th Street, 4th Floor New York 10065",(212)343-3365,10065
903,NORTHWELL / STATEN ISLAND UNIVERSITY HOSPITAL,"Distance: 19.11 miles
375 Seguine Avenue, 2nd Floor Staten Island 10305
(718)226-2800
Handicap Accessible","375 Seguine Avenue, 2nd Floor Staten Island 10305",(718)226-2800,10305
904,NYC HEALTH + HOSPITALS / ELMHURST,"Distance: 4.94 miles
600 East 125th Street New York 10035
(718)579-4061
Handicap Accessible",600 East 125th Street New York 10035,(718)579-4061,10035
905,"NYC HEALTH + HOSPITALS / GOUVERNEUR, A GOTHAM HEALTH CENTER","Distance: 1.63 miles
540 13th Street New York 10019
(212)387-7400
Handicap Accessible",540 13th Street New York 10019,(212)387-7400,10019
906,NYC HEALTH + HOSPITALS / QUEENS,"Distance: 3.47 miles
185 Marcy Avenue Brooklyn 11211
(718)579-4061
Handicap Accessible",185 Marcy Avenue Brooklyn 11211,(718)579-4061,11211
907,PESACH TIKVAH HOPE DEVELOPMENT INC.,"Distance: 7.96 miles
1371 46th Street Rm 601 Brooklyn 11219
(718)875-6900
Handicap Accessible",1371 46th Street Rm 601 Brooklyn 11219,(718)875-6900,11219
908,PESACH TIKVAH HOPE DEVELOPMENT INC.,"Distance: 4.23 miles
Assorted Brooklyn 11206
(718)875-6900
Handicap Accessible",Assorted Brooklyn 11206,(718)875-6900,11206
909,"PROMESA RESIDENTIAL HEALTH CARE FACILITY, INC. DBA CASA PROMESA","Distance: 8.31 miles
1776 Clay Ave Bronx 10457
(347)352-2500
Handicap Accessible",1776 Clay Ave Bronx 10457,(347)352-2500,10457
910,"PUERTO RICAN ORGANIZATION TO MOTIVATE, ENLIGHTEN AND SERVE ADDICTS, INC","Distance: 8.31 miles
1776 Clay Avenue, 1st Floor Bronx 10457
(718)960-7503
Handicap Accessible","1776 Clay Avenue, 1st Floor Bronx 10457",(718)960-7503,10457
911,"PUERTO RICAN ORGANIZATION TO MOTIVATE, ENLIGHTEN AND SERVE ADDICTS, INC","Distance: 7.23 miles
915 Westchester Avenue, 2nd Floor Bronx 10459
(718)764-1570
Handicap Accessible","915 Westchester Avenue, 2nd Floor Bronx 10459",(718)764-1570,10459
913,SAGAMORE CHILDREN'S PSYCHIATRIC CENTER,"Distance: 50.43 miles
440 Waverly Avenue Patchogue 11772
(518)549-5272
Handicap Accessible",440 Waverly Avenue Patchogue 11772,(518)549-5272,11772
914,SAMARITAN DAYTOP VILLAGE INC,"Distance: 6.55 miles
477-481 Willis Ave Bronx 10455
(718)292-4455
Handicap Accessible",477-481 Willis Ave Bronx 10455,(718)292-4455,10455
915,SAMARITAN DAYTOP VILLAGE INC,"Distance: 23.17 miles
620 Route 303 Blauvelt 10913
(845)353-2730
Handicap Accessible",620 Route 303 Blauvelt 10913,(845)353-2730,10913
916,SAMARITAN DAYTOP VILLAGE INC,"Distance: 4.63 miles
988 Myrtle Avenue Brooklyn 11206
(646)856-4351
Handicap Accessible",988 Myrtle Avenue Brooklyn 11206,(646)856-4351,11206
917,SHELTERING ARMS CHILDREN AND FAMILY SERVICES,"Distance: 6.18 miles
500 Bergen Avenue Bronx 10455
(212)675-1000
Handicap Accessible",500 Bergen Avenue Bronx 10455,(212)675-1000,10455
918,"THE BRIDGE, INC","Distance: 4.05 miles
248 West 108th Street New York 10025
(212)663-3000
Handicap Accessible",248 West 108th Street New York 10025,(212)663-3000,10025
919,THE CHILDREN'S AID SOCIETY,"Distance: 4.86 miles
117 West 124th Street; Limitation: Not Accepting New York 10027
(917)816-8841
Handicap Accessible",117 West 124th Street; Limitation: Not Accepting New York 10027,(917)816-8841,10027
920,"THE FIFTH AVENUE COUNSELING CENTER, INC.","Distance: 0.77 miles
5 East 17th Street New York 10003
(347)432-4757
Handicap Accessible",5 East 17th Street New York 10003,(347)432-4757,10003
921,THE JEWISH ASSOCIATION FOR SERVICES FOR THE AGED,"Distance: 11.79 miles
5625 Arlington Avenue Bronx 10471
(718)365-4044
Handicap Accessible",5625 Arlington Avenue Bronx 10471,(718)365-4044,10471
922,THE JEWISH ASSOCIATION FOR SERVICES FOR THE AGED,"Distance: 7.2 miles
950 Union Avenue Bronx 10459
(718)365-4044
Handicap Accessible",950 Union Avenue Bronx 10459,(718)365-4044,10459
923,"THE NEW HORIZON COUNSELING CENTER, INC.","Distance: 15.08 miles
6603 Beach Channel Avenue Arverne 11692
(718)471-8671
Handicap Accessible",6603 Beach Channel Avenue Arverne 11692,(718)471-8671,11692
924,TRI CENTER INC,"Distance: 3.81 miles
175 Remsen Street Brooklyn 11201
(212)268-8830
Handicap Accessible",175 Remsen Street Brooklyn 11201,(212)268-8830,11201
925,UNION SETTLEMENT/JOHNSON COUNSELING CENTER,"Distance: 3.94 miles
131 East 104th Street New York 10029
(212)828-6144
Handicap Accessible",131 East 104th Street New York 10029,(212)828-6144,10029
926,"UPPER ROOM AIDS MINISTRY, INC.","Distance: 4.91 miles
123-125 West 124th Street New York 10027
(212)531-1300
Handicap Accessible",123-125 West 124th Street New York 10027,(212)531-1300,10027
927,"WELLLIFE NETWORK, INC.","Distance: 43.06 miles
11 Route 111 Smithtown 11787
(631)920-8306
Handicap Accessible",11 Route 111 Smithtown 11787,(631)920-8306,11787
929,"WELLLIFE NETWORK, INC.","Distance: 9.09 miles
142-02 20TH Avenue, 3rd Floor Flushing 11351
(718)559-0527
Handicap Accessible","142-02 20TH Avenue, 3rd Floor Flushing 11351",(718)559-0527,11351
930,"WESTCHESTER JEWISH COMMUNITY SERVICES, INC.","Distance: 37.81 miles
1101 Main Street Peekskill 10566
(914)761-0600
Handicap Accessible",1101 Main Street Peekskill 10566,(914)761-0600,10566
931,ACMH INC.,"Distance: 5.12 miles
44 Convent Ave New York 10027
(646)506-3100
Handicap Accessible",44 Convent Ave New York 10027,(646)506-3100,10027
932,ASSOCIATION TO BENEFIT CHILDREN,"Distance: 3.28 miles
154 W 93rd St, Rm B21 New York 10025
(646)459-6165
Handicap Accessible","154 W 93rd St, Rm B21 New York 10025",(646)459-6165,10025
933,ASSOCIATION TO BENEFIT CHILDREN,"Distance: 5.03 miles
1841 Park Avenue New York 10035
(646)459-6155
Handicap Accessible",1841 Park Avenue New York 10035,(646)459-6155,10035
935,ASSOCIATION TO BENEFIT CHILDREN,"Distance: 2.58 miles
411 Pearl St, Rooms 137H & 229 New York 10038
(646)459-6165
Handicap Accessible","411 Pearl St, Rooms 137H & 229 New York 10038",(646)459-6165,10038
937,ASTOR SERVICES FOR CHILDREN & FAMILIES,"Distance: 8.21 miles
1710 Webster Avenue, Room 3207B Bronx 10452
(718)231-3400
Handicap Accessible","1710 Webster Avenue, Room 3207B Bronx 10452",(718)231-3400,10452
938,ASTOR SERVICES FOR CHILDREN & FAMILIES,"Distance: 8.37 miles
1716 Southern Blvd, Room 307A Bronx 10460
(718)231-3400
Handicap Accessible","1716 Southern Blvd, Room 307A Bronx 10460",(718)231-3400,10460
939,BETH ISRAEL MEDICAL CENTER,"Distance: 1.29 miles
10 Nathan D Perlman Place New York 10003
(718)252-3000
Handicap Accessible",10 Nathan D Perlman Place New York 10003,(718)252-3000,10003
940,"BROOKLYN CENTER FOR FAMILIES IN CRISIS, INC.","Distance: 8.84 miles
1309-1311 Foster Avenue Brooklyn 11230
(718)282-0010
Handicap Accessible",1309-1311 Foster Avenue Brooklyn 11230,(718)282-0010,11230
941,"CATHOLIC CHARITIES NEIGHBORHOOD SERVICES, INC.","Distance: 8.56 miles
1623 Flatbush Avenue - 2nd Floor Brooklyn 11210
(718)722-6001
Handicap Accessible",1623 Flatbush Avenue - 2nd Floor Brooklyn 11210,(718)722-6001,11210
942,"CATHOLIC CHARITIES NEIGHBORHOOD SERVICES, INC.","Distance: 9.47 miles
2037 Utica Avenue - 2nd Floor Brooklyn 11234
(718)722-6001
Handicap Accessible",2037 Utica Avenue - 2nd Floor Brooklyn 11234,(718)722-6001,11234
945,CATHOLIC GUARDIAN SERVICES,"Distance: 9.34 miles
1990 Westchester Avenue Bronx 10462
(718)792-9937
Handicap Accessible",1990 Westchester Avenue Bronx 10462,(718)792-9937,10462
947,FORTUNE SOCIETY INC,"Distance: 3.26 miles
29-76 Northern Blvd Long Island City 11101
(212)691-7554
Handicap Accessible",29-76 Northern Blvd Long Island City 11101,(212)691-7554,11101
948,GATEWAY COUNSELING CENTER,"Distance: 12.92 miles
735 East 239th Street Bronx 10466
(718)325-5021
Handicap Accessible",735 East 239th Street Bronx 10466,(718)325-5021,10466
949,GATEWAY COUNSELING CENTER INC.,"Distance: 12.92 miles
735 East 239th Street Bronx 10466
(929)237-7229
Handicap Accessible",735 East 239th Street Bronx 10466,(929)237-7229,10466
950,"GAY MEN'S HEALTH CRISIS, INC.","Distance: 0.53 miles
307 West 38th Steet New York 10018
(212)367-1000
Handicap Accessible",307 West 38th Steet New York 10018,(212)367-1000,10018
951,"GREENWICH HOUSE, INC","Distance: 1.16 miles
27 Barrow Street, 3rd Floor New York 10014
(212)242-4140
Handicap Accessible","27 Barrow Street, 3rd Floor New York 10014",(212)242-4140,10014
952,HENRY STREET SETTLEMENT COMMUNITY CONSULTATION CENTER,"Distance: 1.95 miles
166 Essex Street, Rooms 248, 250 and 256 New York 10002
(917)929-7695
Handicap Accessible","166 Essex Street, Rooms 248, 250 and 256 New York 10002",(917)929-7695,10002
953,HENRY STREET SETTLEMENT COMMUNITY CONSULTATION CENTER,"Distance: 2.46 miles
293 East Broadway, Rooms 201. 203 and 426 New York 10002
(917)929-7695
Handicap Accessible","293 East Broadway, Rooms 201. 203 and 426 New York 10002",(917)929-7695,10002
954,HENRY STREET SETTLEMENT COMMUNITY CONSULTATION CENTER,"Distance: 2.51 miles
351 Madison Street New York 10002
(212)233-5032
Handicap Accessible",351 Madison Street New York 10002,(212)233-5032,10002
955,HENRY STREET SETTLEMENT COMMUNITY CONSULTATION CENTER,"Distance: 2.46 miles
40 Montgomery Street, 1st Floor and Cellar New York 10002
(212)233-5032
Handicap Accessible","40 Montgomery Street, 1st Floor and Cellar New York 10002",(212)233-5032,10002
956,"JEWISH BOARD OF FAMILY AND CHILDREN'S SERVICES, INC.","Distance: 0.87 miles
116 West 11th Street. Room 105C New York 10011
(212)632-4646
Handicap Accessible",116 West 11th Street. Room 105C New York 10011,(212)632-4646,10011
957,"JEWISH BOARD OF FAMILY AND CHILDREN'S SERVICES, INC.","Distance: 10.39 miles
3201 Kingsbridge Avenue, Room 297 Bronx 10463
(718)796-8695
Handicap Accessible","3201 Kingsbridge Avenue, Room 297 Bronx 10463",(718)796-8695,10463
958,"JEWISH BOARD OF FAMILY AND CHILDREN'S SERVICES, INC.","Distance: 2.42 miles
334 Amsterdam Avenue, 2nd Floor New York 10023
(212)633-4646
Handicap Accessible","334 Amsterdam Avenue, 2nd Floor New York 10023",(212)633-4646,10023
959,"JULIA DYCKMAN ANDURS MEMORIAL, INC.","Distance: 40.86 miles
1349 East Main Street, Room 115 Shrub Oak 10588
(914)965-1109
Handicap Accessible","1349 East Main Street, Room 115 Shrub Oak 10588",(914)965-1109,10588
960,"JULIA DYCKMAN ANDURS MEMORIAL, INC.","Distance: 22.91 miles
45 South Goodwin Avenue, Room 216 Elmsford 10523
(914)528-2021
Handicap Accessible","45 South Goodwin Avenue, Room 216 Elmsford 10523",(914)528-2021,10523
961,"KOREAN COMMUNITY SERVICES OF METROPOLITAN NEW, INC.","Distance: 10.12 miles
42-16 162nd Street, 2nd Floor Flushing 11358
(718)939-6137
Handicap Accessible","42-16 162nd Street, 2nd Floor Flushing 11358",(718)939-6137,11358
962,"LOWER EASTSIDE SERVICE CENTER, INC.","Distance: 2.39 miles
46 East Broadway, 1st Floor New York 10002
(212)343-3681
Handicap Accessible","46 East Broadway, 1st Floor New York 10002",(212)343-3681,10002
963,"LOWER EASTSIDE SERVICE CENTER, INC.","Distance: 2.39 miles
62 East Broadway New York 10002
(212)343-3681
Handicap Accessible",62 East Broadway New York 10002,(212)343-3681,10002
965,METROPOLITAN CENTER FOR MENTAL HEALTH INC,"Distance: 6.89 miles
1090 St Nicholas Ave, Bsmt / Apt. 1 New York 10032
(212)543-4445
Handicap Accessible","1090 St Nicholas Ave, Bsmt / Apt. 1 New York 10032",(212)543-4445,10032
966,NEIGHBORHOOD COUNSELING CENTER,"Distance: 8.98 miles
7706 13th Avenue Brooklyn 11228
(718)232-1351
Handicap Accessible",7706 13th Avenue Brooklyn 11228,(718)232-1351,11228
967,"NEW HORIZON COUNSELING CENTER, INC.","Distance: 6.79 miles
100-30 Ditmars Boulevard East Elmhurst 11369
(718)471-8671
Handicap Accessible",100-30 Ditmars Boulevard East Elmhurst 11369,(718)471-8671,11369
968,NEW YORK CITY CHILDREN'S CENTER (NYSOMH),"Distance: 3.11 miles
110 East 88th Street New York 10128
(518)549-5272
Handicap Accessible",110 East 88th Street New York 10128,(518)549-5272,10128
969,NEW YORK PSYCHOTHERAPY AND COUNSELING CENTER,"Distance: 6.47 miles
102 Pilling Street Brooklyn 11207
(718)602-1000
Handicap Accessible",102 Pilling Street Brooklyn 11207,(718)602-1000,11207
970,"NORTHSIDE CENTER FOR CHILD DEVELPOMENT, INC.","Distance: 4.06 miles
2050 Second Avenue New York 10029
(212)426-3400
Handicap Accessible",2050 Second Avenue New York 10029,(212)426-3400,10029
971,"NORTHSIDE CENTER FOR CHILD DEVELPOMENT, INC.","Distance: 4.38 miles
35 East 110th Street New York 10026
(212)426-3400
Handicap Accessible",35 East 110th Street New York 10026,(212)426-3400,10026
974,NYC HEALTH + HOSPITALS / ELMHURST,"Distance: 5.74 miles
33-34 80th Street Jackson Heights 11372
(718)334-6140
Handicap Accessible",33-34 80th Street Jackson Heights 11372,(718)334-6140,11372
975,NYC HEALTH + HOSPITALS / ELMHURST,"Distance: 5.74 miles
78-07 41st Avenue Elmhurst 11373
(718)334-4000
Handicap Accessible",78-07 41st Avenue Elmhurst 11373,(718)334-4000,11373
976,NYC HEALTH + HOSPITALS / HARLEM,"Distance: 5.48 miles
15 West 136th Street New York 10037
(718)579-4061
Handicap Accessible",15 West 136th Street New York 10037,(718)579-4061,10037
977,NYC HEALTH + HOSPITALS / HARLEM,"Distance: 5.46 miles
506 Lenox Ave New York 10037
(718)579-4061
Handicap Accessible",506 Lenox Ave New York 10037,(718)579-4061,10037
978,NYC HEALTH + HOSPITALS / METROPOLITAN,"Distance: 3.69 miles
1900 2nd Ave New York 10029
(718)579-4061
Handicap Accessible",1900 2nd Ave New York 10029,(718)579-4061,10029
979,OHEL CHILDREN'S HOME AND FAMILY SERVICES DBA TIKVAH AT OHEL,"Distance: 8.48 miles
71-02 113th St, Room 300 Forest Hills 11375
(718)435-5533
Handicap Accessible","71-02 113th St, Room 300 Forest Hills 11375",(718)435-5533,11375
1001,"PROMESA RESIDENTIAL HEALTH CARE FACILITY, INC. DBA CASA PROMESA","Distance: 7.23 miles
915 Westchester Avenue Bronx 10459
(347)352-2500
Handicap Accessible",915 Westchester Avenue Bronx 10459,(347)352-2500,10459
1002,"PUERTO RICAN ORGANIZATION TO MOTIVATE, ENLIGHTEN AND SERVE ADDICTS, INC","Distance: 8.31 miles
1776 Clay Avenue, 2nd FL. Bronx 10457
(718)960-7663
Handicap Accessible","1776 Clay Avenue, 2nd FL. Bronx 10457",(718)960-7663,10457
1003,RAINBOW HEIGHTS CLUB,"Distance: 4.27 miles
25 Flatbush Avenue, Third Floor Brooklyn 11217
(718)852-5217
Handicap Accessible","25 Flatbush Avenue, Third Floor Brooklyn 11217",(718)852-5217,11217
1005,RICHMOND UNIVERSITY MEDICAL CENTER,"Distance: 9.08 miles
110 Henderson Avenue Staten Island 10310
(718)818-1234
Handicap Accessible",110 Henderson Avenue Staten Island 10310,(718)818-1234,10310
1006,ROCKLAND CHILDREN'S PSYCHIATRIC CENTER (NYSOMH),"Distance: 26.22 miles
1606 Old Orchard St, Southern Westchester BOCES, White Plains 10604
(914)328-0793
Handicap Accessible","1606 Old Orchard St, Southern Westchester BOCES, White Plains 10604",(914)328-0793,10604
1007,SAMARITAN DAYTOP VILLAGE INC,"Distance: 73.43 miles
751 Briggs Highway Ellenville 12428
(845)647-8006
Handicap Accessible",751 Briggs Highway Ellenville 12428,(845)647-8006,12428
1008,SAMARITAN DAYTOP VILLAGE INC,"Distance: 10.04 miles
8873 Van Wyck Expressway Jamaica 11435
(718)657-8010
Handicap Accessible",8873 Van Wyck Expressway Jamaica 11435,(718)657-8010,11435
1009,"SAMUEL FIELD YM & YWHA, INC. DBA COMMUNITY ADVISORY PROGRAM FOR THE ELDERLY","Distance: 4.35 miles
2740 Hoyt Avenue Astoria 11102
(718)224-0566
Handicap Accessible",2740 Hoyt Avenue Astoria 11102,(718)224-0566,11102
1010,"SAMUEL FIELD YM & YWHA, INC. DBA COMMUNITY ADVISORY PROGRAM FOR THE ELDERLY","Distance: 6.99 miles
93-29 Queens Boulevard Rego Park 11374
(718)224-0566
Handicap Accessible",93-29 Queens Boulevard Rego Park 11374,(718)224-0566,11374
1011,"SBH COMMUNITY SERVICE NETWORK, INC.","Distance: 9.98 miles
1955 McDonald Avenue Brooklyn 11223
(718)787-1100
Handicap Accessible",1955 McDonald Avenue Brooklyn 11223,(718)787-1100,11223
1014,ST. BARNABAS HOSPITAL,"Distance: 9.03 miles
4451 Third Avenue, 2nd Floor Bronx 10457
(718)960-6214
Handicap Accessible","4451 Third Avenue, 2nd Floor Bronx 10457",(718)960-6214,10457
1015,"ST. JOHNS EPISCOPAL HOSPITAL DBA EPISCOPAL HEALTH SERVICES, INC.","Distance: 16.33 miles
521 Beach 20th Street Far Rockaway 11691
(718)869-8822
Handicap Accessible",521 Beach 20th Street Far Rockaway 11691,(718)869-8822,11691
1016,"START TREATMENT & RECOVERY CENTERS, INC","Distance: 4.86 miles
119 West 124th Street New York 10027
(718)260-2927
Handicap Accessible",119 West 124th Street New York 10027,(718)260-2927,10027
1017,"START TREATMENT & RECOVERY CENTERS, INC","Distance: 4.91 miles
119-121 West 124th Street 4th and 5th Fl New York 10027
(800)211-0996
Handicap Accessible",119-121 West 124th Street 4th and 5th Fl New York 10027,(800)211-0996,10027
1018,THE BROOKDALE HOSPITAL MEDICAL CENTER,"Distance: 7.83 miles
One Brookdale Plaza, Strausberg 1st Floor Brooklyn 11212
(888)692-9355
Handicap Accessible","One Brookdale Plaza, Strausberg 1st Floor Brooklyn 11212",(888)692-9355,11212
1019,"THE CHILD CENTER OF NY, INC.","Distance: 5.22 miles
67-14 41st Avenue Woodside 11377
(718)458-4243
Handicap Accessible",67-14 41st Avenue Woodside 11377,(718)458-4243,11377
1020,THE CHILDREN'S AID SOCIETY,"Distance: 4.56 miles
14-32 West 118th Street New York 10026
(212)369-8339
Handicap Accessible",14-32 West 118th Street New York 10026,(212)369-8339,10026
1021,THE ELIZABETH L STURZ OUTPATIENT CTR,"Distance: 5.96 miles
226 East 144th Street Bronx 10451
(718)401-5700
Handicap Accessible",226 East 144th Street Bronx 10451,(718)401-5700,10451
1022,THE INSTITUTE FOR FAMILY HEALTH,"Distance: 80.77 miles
3 Family Practice Drive Kingston 12401
(212)423-4200
Handicap Accessible",3 Family Practice Drive Kingston 12401,(212)423-4200,12401
1023,"THE NEW HORIZON COUNSELING CENTER, INC.","Distance: 16.2 miles
50 West Hawthorne Avenue Valley Stream 11580
(516)872-9698
Handicap Accessible",50 West Hawthorne Avenue Valley Stream 11580,(516)872-9698,11580
1024,"THE NEW HORIZON COUNSELING CENTER, INC.","Distance: 14.71 miles
88-02 Rockaway Beach Boulevard Far Rockaway 11693
(718)634-3445
Handicap Accessible",88-02 Rockaway Beach Boulevard Far Rockaway 11693,(718)634-3445,11693
1025,TRI CENTER INC,"Distance: 0.53 miles
1369 Broadway 2nd & 3rd Floors New York 10018
(212)268-8830
Handicap Accessible",1369 Broadway 2nd & 3rd Floors New York 10018,(212)268-8830,10018
1026,UNION SETTLEMENT ASSOCIATION DBA JAMES WELDON JOHNSON COUNSE,"Distance: 4.48 miles
210 East 115th Street Apt 1A New York 10029
(212)828-6144
Handicap Accessible",210 East 115th Street Apt 1A New York 10029,(212)828-6144,10029
1027,UNION SETTLEMENT ASSOCIATION DBA JAMES WELDON JOHNSON COUNSE,"Distance: 4.04 miles
212 East 106th Street Room 118 New York 10029
(212)828-6144
Handicap Accessible",212 East 106th Street Room 118 New York 10029,(212)828-6144,10029
1028,UNION SETTLEMENT/JOHNSON COUNSELING CENTER,"Distance: 3.67 miles
1775 Third Avenue New York 10029
(212)828-6144
Handicap Accessible",1775 Third Avenue New York 10029,(212)828-6144,10029
1029,UNION SETTLEMENT/JOHNSON COUNSELING CENTER,"Distance: 4.43 miles
315 East 113th Street New York 10029
(212)828-6144
Handicap Accessible",315 East 113th Street New York 10029,(212)828-6144,10029
1030,"VIP COMMUNITY SERVICES, INC.","Distance: 8.55 miles
770 E 176th St Bronx 10460
(718)542-8700
Handicap Accessible",770 E 176th St Bronx 10460,(718)542-8700,10460
1031,VISITING NURSE SERVICE OF NEW YORK HOME CARE II,"Distance: 5.53 miles
75-20 Astoria Boulevard East Elmhurst 11370
(212)290-6565
Handicap Accessible",75-20 Astoria Boulevard East Elmhurst 11370,(212)290-6565,11370
1032,"WELLLIFE NETWORK, INC.","Distance: 6.07 miles
1669 Bedford Avenue Brooklyn 11225
(718)439-8974
Handicap Accessible",1669 Bedford Avenue Brooklyn 11225,(718)439-8974,11225
1033,"WELLLIFE NETWORK, INC.","Distance: 15.31 miles
40 Elmont Road Elmont 11003
(917)563-3347
Handicap Accessible",40 Elmont Road Elmont 11003,(917)563-3347,11003
